name,address_1,address_2,city,state,zip,phone,latitude,longitude,category,website,active,daycode1,day1_open,day1_close,daycode2,day2_open,day2_close,daycode3,day3_open,day3_close,daycode4,day4_open,day4_close,daycode5,day5_open,day5_close,daycode6,day6_open,day6_close,daycode7,day7_open,day7_close,,,,
Albertsons,8985 Venice Blvd,,,CA,90034,(310) 202-6167,34.027983,-118.393903,,http://www.albertsons.com/,,Mon,0,100,Tue,0,100,Wed,0,100,Thu,0,100,Fri,0,100,Sat,0,100,Sun,0,100,,,,
Albertsons,4155 Tweedy Blvd,,,CA,90280,(323) 569-1588,33.944174,-118.198635,,http://albertsons.com,,Mon,0,0,Tue,0,0,Wed,0,0,Thu,0,0,Fri,0,0,Sat,0,0,Sun,0,0,,,,
Albertsons,13401 Washington Blvd,,,CA,90292,(310) 574-0606,33.99355,-118.445627,,http://www.albertsons.com,,Mon,0,0,Tue,0,0,Wed,0,0,Thu,0,0,Fri,0,0,Sat,0,0,Sun,0,0,,,,
Albertsons,3180 N Garey Ave,,,CA,91767,(909) 392-1555,34.105878,-117.747508,,http://www.albertsons.com,,Mon,0,0,Tue,0,0,Wed,0,0,Thu,0,0,Fri,0,0,Sat,0,0,Sun,0,0,,,,
Food 4 Less,5420 W Sunset Blvd,,,CA,90027,(323) 871-8011,34.097044,-118.3079,,http://www.food4less.com/,,Mon,0,2359,Tue,0,2359,Wed,0,2359,Thu,0,2359,Fri,0,2359,Sat,0,2359,Sun,0,2359,,,,
Food 4 Less,6700 Cherry Ave,,,CA,90805,(562) 220-2373,33.876919,-118.167578,,http://www.food4less.com/,,Mon,0,100,Tue,0,100,Wed,0,100,Thu,0,100,Fri,0,100,Sat,0,100,Sun,0,100,,,,
Food 4 Less,1821 N Hacienda Blvd,,,CA,91744,(626) 916-1120,34.052197,-117.944335,,http://www.food4less.com/,,Mon,0,200,Tue,0,200,Wed,0,200,Thu,0,200,Fri,0,200,Sat,0,200,Sun,0,200,,,,
Food 4 Less,615 N Azusa Ave,,,CA,91791,(626) 967-5244,34.081604,-117.909375,,http://www.food4less.com/,,Mon,0,100,Tue,0,100,Wed,0,100,Thu,0,100,Fri,0,100,Sat,0,100,Sun,0,100,,,,
Food 4 Less,44455 Valley Central Way,,,CA,93536,(661) 940-6373,34.690611,-118.173871,,http://www.food4less.com/,,Mon,0,100,Tue,0,100,Wed,0,100,Thu,0,100,Fri,0,100,Sat,0,100,Sun,0,100,,,,
Pavilions,727 Vine St,,,CA,90038,(323) 461-4167,34.084538,-118.327205,,http://www.pavilions.com/,,Mon,0,0,Tue,0,0,Wed,0,0,Thu,0,0,Fri,0,0,Sat,0,0,Sun,0,0,,,,
Pavilions,8969 Santa Monica Blvd,,,CA,90069,(310) 595-1730,34.083598,-118.386939,,http://www.pavilions.com/,,Mon,0,0,Tue,0,0,Wed,0,0,Thu,0,0,Fri,0,0,Sat,0,0,Sun,0,0,,,,
Pavilions,9467 W Olympic Blvd,,,CA,90212,(310) 553-5734,34.059991,-118.399837,,http://www.pavilions.com/,,Mon,0,100,Tue,0,100,Wed,0,100,Thu,0,100,Fri,0,100,Sat,0,100,Sun,0,100,,,,
Pavilions,4365 Glencoe Ave,,,CA,90292,(310) 821-7208,33.985095,-118.439826,,http://www.pavilions.com/,,Mon,0,100,Tue,0,100,Wed,0,100,Thu,0,100,Fri,0,100,Sat,0,100,Sun,0,100,,,,
Pavilions,820 Montana Ave,,,CA,90403,(310) 395-1682,34.027903,-118.499936,,http://www.pavilions.com/,,Mon,0,130,Tue,0,130,Wed,0,130,Thu,0,130,Fri,0,130,Sat,0,130,Sun,0,130,,,,
Pavilions,5500 Woodruff Ave,,,CA,90713,(562) 866-3781,33.856882,-118.115427,,http://www.pavilions.com/,,Mon,0,100,Tue,0,100,Wed,0,100,Thu,0,100,Fri,0,100,Sat,0,100,Sun,0,100,,,,
Ralphs,670 S Western Ave,,,CA,90005,(213) 383-5058,34.060042,-118.308513,,http://www.ralphs.com/,,Mon,0,2359,Tue,0,2359,Wed,0,2359,Thu,0,2359,Fri,0,2359,Sat,0,2359,Sun,0,2359,,,,
Ralphs,2600 S Vermont Ave,,,CA,90007,(323) 732-3863,34.031761,-118.290854,,http://www.ralphs.com/,,Mon,0,100,Tue,0,100,Wed,0,100,Thu,0,100,Fri,0,100,Sat,0,100,Sun,0,100,,,,
Ralphs,645 W 9th St,,,CA,90015,(213) 452-0840,34.045584,-118.260819,,http://www.ralphs.com/,,Mon,0,200,Tue,0,200,Wed,0,200,Thu,0,200,Fri,0,200,Sat,0,200,Sun,0,200,,,,
Ralphs,4760 W Pico Blvd,,,CA,90019,(323) 937-4107,34.047846,-118.339391,,http://www.ralphs.com/,,Mon,0,100,Tue,0,100,Wed,0,100,Thu,0,100,Fri,0,100,Sat,0,100,Sun,0,100,,,,
Ralphs,3410 W 3rd St,,,CA,90020,(213) 480-1421,34.068395,-118.29058,,http://www.ralphs.com/,,Mon,0,2359,Tue,0,2359,Wed,0,2359,Thu,0,2359,Fri,0,2359,Sat,0,2359,Sun,0,2359,,,,
Ralphs,10861 Le Conte Ave,,,CA,90024,(310) 824-5994,34.06298,-118.443888,,http://www.ralphs.com/,,Mon,0,2359,Tue,0,2359,Wed,0,2359,Thu,0,2359,Fri,0,2359,Sat,0,2359,Sun,0,2359,,,,
Ralphs,12057 Wilshire Blvd,,,CA,90025,(310) 477-8746,34.044967,-118.467009,,http://www.ralphs.com/,,Mon,0,200,Tue,0,200,Wed,0,200,Thu,0,200,Fri,0,200,Sat,0,200,Sun,0,200,,,,
Ralphs,5429 Hollywood Blvd,,,CA,90027,(323) 957-9657,34.102369,-118.308172,,http://www.ralphs.com/,,Mon,0,200,Tue,0,200,Wed,0,200,Thu,0,200,Fri,0,200,Sat,0,200,Sun,0,200,,,,
Ralphs,9616 W Pico Blvd,,,CA,90035,(310) 271-2672,34.0548,-118.397809,,http://www.ralphs.com/,,Mon,0,100,Tue,0,100,Wed,0,100,Thu,0,100,Fri,0,100,Sat,0,100,Sun,0,100,,,,
Ralphs,5601 Wilshire Blvd,,,CA,90036,(323) 936-4954,34.062987,-118.350948,,http://www.ralphs.com/,,Mon,0,100,Tue,0,100,Wed,0,100,Thu,0,100,Fri,0,100,Sat,0,100,Sun,0,100,,,,
Ralphs,260 S La Brea Ave,,,CA,90036,(323) 937-3264,34.070031,-118.343586,,http://www.ralphs.com/,,Mon,0,2359,Tue,0,2359,Wed,0,2359,Thu,0,2359,Fri,0,2359,Sat,0,2359,Sun,0,2359,,,,
Ralphs,1233 N La Brea Ave,,,CA,90038,(323) 876-8790,34.093486,-118.344628,,http://www.ralphs.com/,,Mon,0,200,Tue,0,200,Wed,0,200,Thu,0,200,Fri,0,200,Sat,0,200,Sun,0,200,,,,
Ralphs,8701 Lincoln Blvd,,,CA,90045,(310) 649-1526,33.958161,-118.41847,,http://www.ralphs.com/,,Mon,0,200,Tue,0,200,Wed,0,200,Thu,0,200,Fri,0,200,Sat,0,200,Sun,0,200,,,,
Ralphs,5245 W Centinela Ave,,,CA,90045,(310) 641-2813,33.979088,-118.371597,,http://www.ralphs.com/,,Mon,0,100,Tue,0,100,Wed,0,100,Thu,0,100,Fri,0,100,Sat,0,100,Sun,0,100,,,,
Ralphs,8824 S Sepulveda Blvd,,,CA,90045,(310) 645-2035,33.956359,-118.397788,,http://www.ralphs.com/,,Mon,0,200,Tue,0,200,Wed,0,200,Thu,0,200,Fri,0,200,Sat,0,200,Sun,0,200,,,,
Ralphs,7257 W Sunset Blvd,,,CA,90046,(323) 512-8382,34.098725,-118.348432,,http://www.ralphs.com/,,Mon,0,2359,Tue,0,2359,Wed,0,2359,Thu,0,2359,Fri,0,2359,Sat,0,2359,Sun,0,2359,,,,
Ralphs,9040 Beverly Blvd,,,CA,90048,(310) 278-1351,34.076629,-118.389114,,http://www.ralphs.com/,,Mon,0,200,Tue,0,200,Wed,0,200,Thu,0,200,Fri,0,200,Sat,0,200,Sun,0,200,,,,
Ralphs,11361 National Blvd,,,CA,90064,(310) 479-4351,34.026,-118.433433,,http://www.ralphs.com/,,Mon,0,200,Tue,0,200,Wed,0,200,Thu,0,200,Fri,0,200,Sat,0,200,Sun,0,200,,,,
Ralphs,11727 W Olympic Blvd,,,CA,90064,(310) 473-5238,34.034944,-118.449266,,http://www.ralphs.com/,,Mon,0,2359,Tue,0,2359,Wed,0,2359,Thu,0,2359,Fri,0,2359,Sat,0,2359,Sun,0,2359,,,,
Ralphs,10772 Jefferson Blvd,,,CA,90230,(310) 839-4107,34.002266,-118.393504,,http://www.ralphs.com/,,Mon,0,100,Tue,0,100,Wed,0,100,Thu,0,100,Fri,0,100,Sat,0,100,Sun,0,100,,,,
Ralphs,3827 Culver Ctr,,,CA,90232,(310) 558-4027,34.017302,-118.407743,,http://www.ralphs.com/,,Mon,0,200,Tue,0,200,Wed,0,200,Thu,0,200,Fri,0,200,Sat,0,200,Sun,0,200,,,,
Ralphs,9200 Lakewood Blvd,,,CA,90240,(562) 869-2042,33.955504,-118.112176,,http://www.ralphs.com/,,Mon,0,100,Tue,0,100,Wed,0,100,Thu,0,100,Fri,0,100,Sat,0,100,Sun,0,100,,,,
Ralphs,8626 Firestone Blvd,,,CA,90241,(562) 869-2733,33.935993,-118.127089,,http://www.ralphs.com/,,Mon,0,100,Tue,0,100,Wed,0,100,Thu,0,100,Fri,0,100,Sat,0,100,Sun,0,100,,,,
Ralphs,500 N Sepulveda Blvd,,,CA,90245,(310) 615-0537,33.922035,-118.395618,,http://www.ralphs.com/,,Mon,0,2359,Tue,0,2359,Wed,0,2359,Thu,0,2359,Fri,0,2359,Sat,0,2359,Sun,0,2359,,,,
Ralphs,2201 W Redondo Beach Blvd,,,CA,90247,(310) 538-9008,33.88698,-118.318433,,http://www.ralphs.com/,,Mon,0,100,Tue,0,100,Wed,0,100,Thu,0,100,Fri,0,100,Sat,0,100,Sun,0,100,,,,
Ralphs,1100 Pacific Coast Hwy,,,CA,90254,(310) 798-6800,33.863975,-118.391728,,http://www.ralphs.com/,,Mon,0,2359,Tue,0,2359,Wed,0,2359,Thu,0,2359,Fri,0,2359,Sat,0,2359,Sun,0,2359,,,,
Ralphs,23841 Malibu Rd,,,CA,90265,(310) 456-2917,34.034164,-118.694759,,http://www.ralphs.com/,,Mon,0,2359,Tue,0,2359,Wed,0,2359,Thu,0,2359,Fri,0,2359,Sat,0,2359,Sun,0,2359,,,,
Ralphs,2700 N Sepulveda Blvd,,,CA,90266,(310) 546-2472,33.896174,-118.394356,,http://www.ralphs.com/,,Mon,0,2359,Tue,0,2359,Wed,0,2359,Thu,0,2359,Fri,0,2359,Sat,0,2359,Sun,0,2359,,,,
Ralphs,15120 W Sunset Blvd,,,CA,90272,(310) 454-3001,34.045009,-118.524123,,http://www.ralphs.com/,,Mon,0,200,Tue,0,200,Wed,0,200,Thu,0,200,Fri,0,200,Sat,0,200,Sun,0,200,,,,
Ralphs,30019 Hawthorne Blvd,,,CA,90275,(310) 377-6941,33.760471,-118.394703,,http://www.ralphs.com/,,Mon,0,100,Tue,0,100,Wed,0,100,Thu,0,100,Fri,0,100,Sat,0,100,Sun,0,100,,,,
Ralphs,910 Lincoln Blvd,,,CA,90291,(310) 392-4854,33.999195,-118.461269,,http://www.ralphs.com/,,Mon,0,200,Tue,0,200,Wed,0,200,Thu,0,200,Fri,0,200,Sat,0,200,Sun,0,200,,,,
Ralphs,4700 Admiralty Way,,,CA,90292,(310) 823-4684,33.97981,-118.438946,,http://www.ralphs.com/,,Mon,0,200,Tue,0,200,Wed,0,200,Thu,0,200,Fri,0,200,Sat,0,200,Sun,0,200,,,,
Ralphs,4311 Lincoln Blvd,,,CA,90292,(310) 574-0909,33.984216,-118.443246,,http://www.ralphs.com/,,Mon,0,100,Tue,0,100,Wed,0,100,Thu,0,100,Fri,0,100,Sat,0,100,Sun,0,100,,,,
Ralphs,1644 Cloverfield Blvd,,,CA,90404,(310) 582-3900,34.027057,-118.473849,,http://www.ralphs.com/,,Mon,0,100,Tue,0,100,Wed,0,100,Thu,0,100,Fri,0,100,Sat,0,100,Sun,0,100,,,,
Ralphs,17500 Crenshaw Blvd,,,CA,90504,(310) 327-3277,33.871876,-118.32568,,http://www.ralphs.com/,,Mon,0,100,Tue,0,100,Wed,0,100,Thu,0,100,Fri,0,100,Sat,0,100,Sun,0,100,,,,
Ralphs,5035 Pacific Coast Hwy,,,CA,90505,(310) 378-0295,33.813652,-118.367638,,http://www.ralphs.com/,,Mon,0,100,Tue,0,100,Wed,0,100,Thu,0,100,Fri,0,100,Sat,0,100,Sun,0,100,,,,
Ralphs,11825 Whittier Blvd,,,CA,90601,(562) 692-4565,33.982095,-118.049576,,http://www.ralphs.com/,,Mon,0,100,Tue,0,100,Wed,0,100,Thu,0,100,Fri,0,100,Sat,0,100,Sun,0,100,,,,
Ralphs,9320 Slauson Ave,,,CA,90660,(562) 948-4519,33.968272,-118.097899,,http://www.ralphs.com/,,Mon,0,2359,Tue,0,2359,Wed,0,2359,Thu,0,2359,Fri,0,2359,Sat,0,2359,Sun,0,2359,,,,
Ralphs,1050 N Western Ave,,,CA,90732,(310) 833-3506,33.75335,-118.307595,,http://www.ralphs.com/,,Mon,0,100,Tue,0,100,Wed,0,100,Thu,0,100,Fri,0,100,Sat,0,100,Sun,0,100,,,,
Ralphs,650 E Carson St,,,CA,90745,(310) 518-4191,33.830368,-118.264431,,http://www.ralphs.com/,,Mon,0,100,Tue,0,100,Wed,0,100,Thu,0,100,Fri,0,100,Sat,0,100,Sun,0,100,,,,
Ralphs,6290 E Pacific Coast Hwy,,,CA,90803,(562) 795-0167,33.760953,-118.115976,,http://www.ralphs.com/,,Mon,0,100,Tue,0,100,Wed,0,100,Thu,0,100,Fri,0,100,Sat,0,100,Sun,0,100,,,,
Ralphs,2930 E 4th St,,,CA,90814,(562) 434-3899,33.771372,-118.157505,,http://www.ralphs.com/,,Mon,0,100,Tue,0,100,Wed,0,100,Thu,0,100,Fri,0,100,Sat,0,100,Sun,0,100,,,,
Ralphs,1930 N Lakewood Blvd,,,CA,90815,(562) 494-4371,33.792145,-118.141393,,http://www.ralphs.com/,,Mon,0,200,Tue,0,200,Wed,0,200,Thu,0,200,Fri,0,200,Sat,0,200,Sun,0,200,,,,
Ralphs,2270 Lake Ave,,,CA,91001,(626) 794-1175,34.185106,-118.130915,,http://www.ralphs.com/,,Mon,0,2359,Tue,0,2359,Wed,0,2359,Thu,0,2359,Fri,0,2359,Sat,0,2359,Sun,0,2359,,,,
Ralphs,211 E Foothill Blvd,,,CA,91006,(626) 357-1942,34.151724,-118.024515,,http://www.ralphs.com/,,Mon,0,100,Tue,0,100,Wed,0,100,Thu,0,100,Fri,0,100,Sat,0,100,Sun,0,100,,,,
Ralphs,1101 W Huntington Dr,,,CA,91007,(626) 447-3548,34.131629,-118.065758,,http://www.ralphs.com/,,Mon,0,100,Tue,0,100,Wed,0,100,Thu,0,100,Fri,0,100,Sat,0,100,Sun,0,100,,,,
Ralphs,521 Foothill Blvd,,,CA,91011,(818) 790-0584,34.200792,-118.189692,,http://www.ralphs.com/,,Mon,0,2359,Tue,0,2359,Wed,0,2359,Thu,0,2359,Fri,0,2359,Sat,0,2359,Sun,0,2359,,,,
Ralphs,1745 Garfield Ave,,,CA,91030,(626) 403-0082,34.104961,-118.135196,,http://www.ralphs.com/,,Mon,0,2359,Tue,0,2359,Wed,0,2359,Thu,0,2359,Fri,0,2359,Sat,0,2359,Sun,0,2359,,,,
Ralphs,3601 E Foothill Blvd,,,CA,91107,(626) 351-8806,34.151339,-118.075592,,http://www.ralphs.com/,,Mon,0,200,Tue,0,200,Wed,0,200,Thu,0,200,Fri,0,200,Sat,0,200,Sun,0,200,,,,
Ralphs,1200 N Central Ave,,,CA,91202,(818) 246-1752,34.164426,-118.256305,,http://www.ralphs.com/,,Mon,0,100,Tue,0,100,Wed,0,100,Thu,0,100,Fri,0,100,Sat,0,100,Sun,0,100,,,,
Ralphs,1416 E Colorado St,,,CA,91205,(818) 548-0945,34.141858,-118.233286,,http://www.ralphs.com/,,Mon,0,100,Tue,0,100,Wed,0,100,Thu,0,100,Fri,0,100,Sat,0,100,Sun,0,100,,,,
Ralphs,2675 Foothill Blvd,,,CA,91214,(818) 249-5448,34.223437,-118.236675,,http://www.ralphs.com/,,Mon,0,200,Tue,0,200,Wed,0,200,Thu,0,200,Fri,0,200,Sat,0,200,Sun,0,200,,,,
Ralphs,5727 Kanan Rd,,,CA,91301,(818) 889-5429,34.15519,-118.758426,,http://www.ralphs.com/,,Mon,0,100,Tue,0,100,Wed,0,100,Thu,0,100,Fri,0,100,Sat,0,100,Sun,0,100,,,,
Ralphs,22333 Sherman Way,,,CA,91303,(818) 883-1230,34.201989,-118.613584,,http://www.ralphs.com/,,Mon,0,100,Tue,0,100,Wed,0,100,Thu,0,100,Fri,0,100,Sat,0,100,Sun,0,100,,,,
Ralphs,22915 Victory Blvd,,,CA,91307,(818) 716-8199,34.187099,-118.626337,,http://www.ralphs.com/,,Mon,0,100,Tue,0,100,Wed,0,100,Thu,0,100,Fri,0,100,Sat,0,100,Sun,0,100,,,,
Ralphs,17840 Ventura Blvd,,,CA,91316,(818) 345-6882,34.162581,-118.521439,,http://www.ralphs.com/,,Mon,0,100,Tue,0,100,Wed,0,100,Thu,0,100,Fri,0,100,Sat,0,100,Sun,0,100,,,,
Ralphs,19781 Rinaldi St,,,CA,91326,(818) 832-5955,34.276242,-118.563629,,http://www.ralphs.com/,,Mon,0,100,Tue,0,100,Wed,0,100,Thu,0,100,Fri,0,100,Sat,0,100,Sun,0,100,,,,
Ralphs,16940 Devonshire St,,,CA,91344,(818) 363-3173,34.256526,-118.501328,,http://www.ralphs.com/,,Mon,0,100,Tue,0,100,Wed,0,100,Thu,0,100,Fri,0,100,Sat,0,100,Sun,0,100,,,,
Ralphs,18010 Chatsworth St,,,CA,91344,(818) 831-6556,34.263248,-118.524169,,http://www.ralphs.com/,,Mon,0,100,Tue,0,100,Wed,0,100,Thu,0,100,Fri,0,100,Sat,0,100,Sun,0,100,,,,
Ralphs,8325 Laurel Canyon Blvd,,,CA,91352,(818) 768-0378,34.2225,-118.397811,,http://www.ralphs.com/,,Mon,0,100,Tue,0,100,Wed,0,100,Thu,0,100,Fri,0,100,Sat,0,100,Sun,0,100,,,,
Ralphs,20060 Ventura Blvd,,,CA,91364,(818) 883-7552,34.170021,-118.570231,,http://www.ralphs.com/,,Mon,0,100,Tue,0,100,Wed,0,100,Thu,0,100,Fri,0,100,Sat,0,100,Sun,0,100,,,,
Ralphs,21909 Ventura Blvd,,,CA,91364,(818) 883-1907,34.169724,-118.604022,,http://www.ralphs.com/,,Mon,0,200,Tue,0,200,Wed,0,200,Thu,0,200,Fri,0,200,Sat,0,200,Sun,0,200,,,,
Ralphs,29675 the Old Rd,,,CA,91384,(661) 702-6911,34.456787,-118.619073,,http://www.ralphs.com/,,Mon,0,2359,Tue,0,2359,Wed,0,2359,Thu,0,2359,Fri,0,2359,Sat,0,2359,Sun,0,2359,,,,
Ralphs,14440 Burbank Blvd,,,CA,91401,(818) 989-5640,34.171421,-118.447411,,http://www.ralphs.com/,,Mon,0,0,Tue,0,0,Wed,0,0,Thu,0,0,Fri,0,0,Sat,0,0,Sun,0,0,,,,
Ralphs,7221 Woodman Ave,,,CA,91405,(818) 785-6136,34.201939,-118.432131,,http://www.ralphs.com/,,Mon,0,200,Tue,0,200,Wed,0,200,Thu,0,200,Fri,0,200,Sat,0,200,Sun,0,200,,,,
Ralphs,17250 Saticoy St,,,CA,91406,(818) 609-8425,34.206952,-118.508851,,http://www.ralphs.com/,,Mon,0,100,Tue,0,100,Wed,0,100,Thu,0,100,Fri,0,100,Sat,0,100,Sun,0,100,,,,
Ralphs,14049 Ventura Blvd,,,CA,91423,(747) 233-6108,34.150054,-118.438907,,http://www.ralphs.com/,,Mon,0,200,Tue,0,200,Wed,0,200,Thu,0,200,Fri,0,200,Sat,0,200,Sun,0,200,,,,
Ralphs,12921 Magnolia Blvd,,,CA,91423,(818) 986-2293,34.165646,-118.414477,,http://www.ralphs.com/,,Mon,0,200,Tue,0,200,Wed,0,200,Thu,0,200,Fri,0,200,Sat,0,200,Sun,0,200,,,,
Ralphs,16325 Ventura Blvd,,,CA,91436,(818) 386-0118,34.157587,-118.489549,,http://www.ralphs.com/,,Mon,0,100,Tue,0,100,Wed,0,100,Thu,0,100,Fri,0,100,Sat,0,100,Sun,0,100,,,,
Ralphs,25 E Alameda Ave,,,CA,91502,(818) 556-1558,34.17308,-118.302121,,http://www.ralphs.com/,,Mon,0,100,Tue,0,100,Wed,0,100,Thu,0,100,Fri,0,100,Sat,0,100,Sun,0,100,,,,
Ralphs,2600 W Victory Blvd,,,CA,91505,(818) 845-5914,34.184049,-118.339599,,http://www.ralphs.com/,,Mon,0,200,Tue,0,200,Wed,0,200,Thu,0,200,Fri,0,200,Sat,0,200,Sun,0,200,,,,
Ralphs,10900 Magnolia Blvd,,,CA,91601,(818) 760-4148,34.164353,-118.36782,,http://www.ralphs.com/,,Mon,0,100,Tue,0,100,Wed,0,100,Thu,0,100,Fri,0,100,Sat,0,100,Sun,0,100,,,,
Ralphs,12842 Ventura Blvd,,,CA,91604,(818) 761-6196,34.144125,-118.413163,,http://www.ralphs.com/,,Mon,0,100,Tue,0,100,Wed,0,100,Thu,0,100,Fri,0,100,Sat,0,100,Sun,0,100,,,,
Ralphs,10901 Ventura Blvd,,,CA,91604,(818) 760-7008,34.140093,-118.367857,,http://www.ralphs.com/,,Mon,0,0,Tue,0,0,Wed,0,0,Thu,0,0,Fri,0,0,Sat,0,0,Sun,0,0,,,,
Ralphs,2230 S Atlantic Blvd,,,CA,91754,(323) 721-3367,34.037143,-118.1448,,http://www.ralphs.com/,,Mon,0,100,Tue,0,100,Wed,0,100,Thu,0,100,Fri,0,100,Sat,0,100,Sun,0,100,,,,
Ralphs,330 N Atlantic Blvd,,,CA,91754,(626) 289-0261,34.065263,-118.133468,,http://www.ralphs.com/,,Mon,0,200,Tue,0,200,Wed,0,200,Thu,0,200,Fri,0,200,Sat,0,200,Sun,0,200,,,,
Ralphs,9470 Las Tunas Dr,,,CA,91780,(626) 286-0898,34.105192,-118.064011,,http://www.ralphs.com/,,Mon,0,100,Tue,0,100,Wed,0,100,Thu,0,100,Fri,0,100,Sat,0,100,Sun,0,100,,,,
Ralphs,305 W Imperial Hwy,,,CA,92821,(714) 529-4505,33.918968,-117.902695,,http://www.ralphs.com/,,Mon,0,100,Tue,0,100,Wed,0,100,Thu,0,100,Fri,0,100,Sat,0,100,Sun,0,100,,,,
Super King Market,19500 Plummer St,,,CA,91324,(818) 350-5970,34.241809,-118.559368,,http://www.superkingmarket.com/,,Mon,0,2359,Tue,0,2359,Wed,0,2359,Thu,0,2359,Fri,0,2359,Sat,0,2359,Sun,0,2359,,,,
Superior Grocers,1010 E Ave,,,CA,93535,(661) 802-0063,34.688296,-118.111811,,http://superiorgrocers.com/,,Mon,0,2359,Tue,0,2359,Wed,0,2359,Thu,0,2359,Fri,0,2359,Sat,0,2359,Sun,0,2359,,,,
Vallarta Supermarket,21555 Roscoe Blvd,,,CA,91304,(818) 704-1717,34.220141,-118.600617,,http://www.vallartasupermarkets.com,,Mon,0,2359,Tue,0,2359,Wed,0,2359,Thu,0,2359,Fri,0,2359,Sat,0,2359,Sun,0,2359,,,,
Vons,3461 W 3rd St,,,CA,90020,(213) 384-6552,34.069933,-118.290906,,http://www.vons.com/,,Mon,0,2359,Tue,0,2359,Wed,0,2359,Thu,0,2359,Fri,0,2359,Sat,0,2359,Sun,0,2359,,,,
Vons,4520 W Sunset Blvd,,,CA,90027,(323) 662-8107,34.097042,-118.28801,,http://www.vons.com/,,Mon,0,0,Tue,0,0,Wed,0,0,Thu,0,0,Fri,0,0,Sat,0,0,Sun,0,0,,,,
Vons,3118 S Sepulveda Blvd,,,CA,90034,(310) 477-8717,34.026604,-118.426917,,http://www.vons.com/,,Mon,0,100,Tue,0,100,Wed,0,100,Thu,0,100,Fri,0,100,Sat,0,100,Sun,0,100,,,,
Vons,4030 S Centinela Ave,,,CA,90066,(310) 391-1503,33.999182,-118.428943,,http://www.vons.com/,,Mon,0,100,Tue,0,100,Wed,0,100,Thu,0,100,Fri,0,100,Sat,0,100,Sun,0,100,,,,
Vons,715 Pier Ave,,,CA,90254,(310) 374-4484,33.865976,-118.394504,,http://www.vons.com/,,Mon,0,2359,Tue,0,2359,Wed,0,2359,Thu,0,2359,Fri,0,2359,Sat,0,2359,Sun,0,2359,,,,
Vons,17380 W Sunset Blvd,,,CA,90272,(310) 454-2502,34.039263,-118.553943,,http://www.vons.com/,,Mon,0,100,Tue,0,100,Wed,0,100,Thu,0,100,Fri,0,100,Sat,0,100,Sun,0,100,,,,
Vons,500 E Manchester Blvd,,,CA,90301,(310) 677-0286,33.960248,-118.349158,,http://www.vons.com/,,Mon,0,100,Tue,0,100,Wed,0,100,Thu,0,100,Fri,0,100,Sat,0,100,Sun,0,100,,,,
Vons,710 Brdway,,,CA,90401,(310) 260-0260,34.017245,-118.490096,,http://www.vons.com/,,Mon,0,100,Tue,0,100,Wed,0,100,Thu,0,100,Fri,0,100,Sat,0,100,Sun,0,100,,,,
Vons,24325 Crenshaw Blvd,,,CA,90505,(310) 784-1020,33.805163,-118.330448,,http://www.vons.com/,,Mon,0,100,Tue,0,100,Wed,0,100,Thu,0,100,Fri,0,100,Sat,0,100,Sun,0,100,,,,
Vons,155 W California Blvd,,,CA,91105,(626) 577-7149,34.136761,-118.153456,,http://www.vons.com/,,Mon,0,2359,Tue,0,2359,Wed,0,2359,Thu,0,2359,Fri,0,2359,Sat,0,2359,Sun,0,2359,,,,
Vons,301 N Pass Ave,,,CA,91505,(818) 848-9542,34.154786,-118.346548,,http://www.vons.com/,,Mon,0,2359,Tue,0,2359,Wed,0,2359,Thu,0,2359,Fri,0,2359,Sat,0,2359,Sun,0,2359,,,,
Vons,4033 Laurel Canyon Blvd,,,CA,91604,(818) 985-5401,34.144562,-118.396149,,http://www.vons.com/,,Mon,0,0,Tue,0,0,Wed,0,0,Thu,0,0,Fri,0,0,Sat,0,0,Sun,0,0,,,,
Albertsons,26521 Agoura Rd,,,CA,91302,(818) 880-9080,34.145022,-118.699756,,http://www.albertsons.com/,,Mon,500,2359,Tue,500,2359,Wed,500,2359,Thu,500,2359,Fri,500,2359,Sat,500,2359,Sun,500,2359,,,,
Pavilions,130 W Foothill Blvd,,,CA,91016,(626) 303-4547,34.149963,-118.002031,,http://www.pavilions.com/,,Mon,500,2359,Tue,500,2359,Wed,500,2359,Thu,500,2359,Fri,500,2359,Sat,500,2359,Sun,500,2359,,,,
Ralphs,1100 N San Fernando Blvd,,,CA,91504,(818) 845-6424,34.189009,-118.318217,,http://www.ralphs.com/,,Mon,500,2359,Tue,0,100,Wed,0,100,Thu,0,100,Fri,0,100,Sat,0,100,Sun,0,100,,,,
Smart & Final,1216 Compton Ave,,,CA,90021,(213) 747-6697,34.027643,-118.241916,,http://locations.smartandfinal.com/CA/LOS-ANGELES/310/,,Mon,500,2100,Tue,500,2100,Wed,500,2100,Thu,500,2100,Fri,500,2100,Sat,500,2100,Sun,600,2100,,,,
Vallarta Supermarket,2550 E 25th St,,,CA,90058,(323) 826-9477,34.015097,-118.227089,,http://www.vallartasupermarkets.com/,,Mon,500,2100,Tue,500,2100,Wed,400,2100,Thu,200,2100,Fri,200,2100,Sat,200,2100,Sun,200,2100,,,,
Vons,7311 N Figueroa St,,,CA,90041,(323) 254-5716,34.136164,-118.189497,,http://www.vons.com/,,Mon,500,2359,Tue,500,2359,Wed,500,2359,Thu,500,2359,Fri,500,2359,Sat,500,2359,Sun,500,2359,,,,
Vons,4226 Woodruff Ave,,,CA,90713,(562) 496-4144,33.835049,-118.115154,,http://www.vons.com/,,Mon,500,2359,Tue,500,2359,Wed,500,2359,Thu,500,2359,Fri,500,2359,Sat,500,2359,Sun,500,2359,,,,
Vons,1440 W 25th St,,,CA,90732,(310) 832-8459,33.723163,-118.310751,,http://www.vons.com/,,Mon,500,2359,Tue,500,2359,Wed,500,2359,Thu,500,2359,Fri,500,2359,Sat,500,2359,Sun,500,2359,,,,
Vons,3233 Foothill Blvd,,,CA,91214,(818) 658-1018,34.231175,-118.250165,,http://www.vons.com/,,Mon,500,2359,Tue,500,2359,Wed,500,2359,Thu,500,2359,Fri,500,2359,Sat,500,2359,Sun,500,2359,,,,
Vons,20440 Devonshire St,,,CA,91311,(818) 341-7151,34.25664,-118.578623,,http://www.vons.com/,,Mon,500,2359,Tue,500,2359,Wed,500,2359,Thu,500,2359,Fri,500,2359,Sat,500,2359,Sun,500,2359,,,,
Vons,25850 the Old Rd,,,CA,91381,(661) 254-3570,34.391116,-118.572104,,http://www.vons.com/,,Mon,500,2359,Tue,500,2359,Wed,500,2359,Thu,500,2359,Fri,500,2359,Sat,500,2359,Sun,500,2359,,,,
Vons,550 E Baseline Rd,,,CA,91711,(909) 621-4644,34.120575,-117.70601,,http://www.vons.com/,,Mon,500,2359,Tue,500,2359,Wed,500,2359,Thu,500,2359,Fri,500,2359,Sat,500,2359,Sun,500,2359,,,,
Vons,435 FOOTHILL Blvd,,,CA,91740,(626) 963-2913,34.137553,-117.871593,,http://www.vons.com/,,Mon,500,2359,Tue,500,2359,Wed,500,2359,Thu,500,2359,Fri,500,2359,Sat,500,2359,Sun,500,2359,,,,
Vons,1600 Foothill Blvd,,,CA,91750,(909) 593-2572,34.114552,-117.773141,,http://www.vons.com/,,Mon,500,2359,Tue,500,2359,Wed,500,2359,Thu,500,2359,Fri,500,2359,Sat,500,2359,Sun,500,2359,,,,
Vons,4033 W Ave,,,CA,93536,(661) 722-7291,34.6616,-118.202394,,http://www.vons.com/,,Mon,500,2359,Tue,500,2359,Wed,500,2359,Thu,500,2359,Fri,500,2359,Sat,500,2359,Sun,500,2359,,,,
Vons,3027 Rancho Vista Blvd,,,CA,93551,(661) 265-9285,34.603388,-118.184269,,http://www.vons.com/,,Mon,500,2359,Tue,500,2359,Wed,500,2359,Thu,500,2359,Fri,500,2359,Sat,500,2359,Sun,500,2359,,,,
Pavilions,1213 Fair Oaks Ave,,,CA,91030,(626) 799-2261,34.111527,-118.151532,,http://www.pavilions.com/,,Mon,530,2359,Tue,530,2359,Wed,530,2359,Thu,530,2359,Fri,530,2359,Sat,530,2359,Sun,530,2359,,,,
Albertsons,3901 Crenshaw Blvd,,,CA,90008,(323) 295-1919,34.014094,-118.335761,,http://www.albertsons.com/,,Mon,600,2300,Tue,600,2300,Wed,600,2300,Thu,600,2300,Fri,600,2300,Sat,600,2300,Sun,600,2300,,,,
Albertsons,2035 Hillhurst Ave,,,CA,90027,(323) 660-0687,34.108801,-118.287927,,http://www.albertsons.com,,Mon,600,2359,Tue,600,2359,Wed,600,2359,Thu,600,2359,Fri,600,2359,Sat,600,2359,Sun,600,2359,,,,
Albertsons,3443 S Sepulveda Blvd,,,CA,90034,(310) 390-7857,34.019502,-118.423203,,http://www.albertsons.com,,Mon,600,2300,Tue,600,2300,Wed,600,2300,Thu,600,2300,Fri,600,2300,Sat,600,2300,Sun,600,2300,,,,
Albertsons,7676 Firestone Blvd,,,CA,90241,(562) 869-9670,33.945545,-118.144449,,http://www.albertsons.com/,,Mon,600,2300,Tue,600,2300,Wed,600,2300,Thu,600,2300,Fri,600,2300,Sat,600,2300,Sun,600,2300,,,,
Albertsons,1735 W Artesia Blvd,,,CA,90248,(310) 380-4620,33.874334,-118.308203,,http://www.albertsons.com/,,Mon,600,2300,Tue,600,2300,Wed,600,2300,Thu,600,2300,Fri,600,2300,Sat,600,2300,Sun,600,2300,,,,
Albertsons,12630 Hawthorne Blvd,,,CA,90250,(310) 675-9494,33.917324,-118.351146,,http://www.albertsons.com,,Mon,600,2300,Tue,600,2300,Wed,600,2300,Thu,600,2300,Fri,600,2300,Sat,600,2300,Sun,600,2300,,,,
Albertsons,14401 Inglewood Ave,,,CA,90250,(310) 644-7200,33.900773,-118.362225,,http://www.albertsons.com/,,Mon,600,2300,Tue,600,2300,Wed,600,2300,Thu,600,2300,Fri,600,2300,Sat,600,2300,Sun,600,2300,,,,
Albertsons,615 N Pacific Coast Hwy,,,CA,90277,(310) 376-2170,33.851941,-118.390408,,http://www.albertsons.com/,,Mon,600,2300,Tue,600,2300,Wed,600,2300,Thu,600,2300,Fri,600,2300,Sat,600,2300,Sun,600,2300,,,,
Albertsons,1516 S Pacific Coast Hwy,,,CA,90277,(310) 316-3551,33.820859,-118.384368,,http://www.albertsons.com/,,Mon,600,2300,Tue,600,2300,Wed,600,2300,Thu,600,2300,Fri,600,2300,Sat,600,2300,Sun,600,2300,,,,
Albertsons,2115 Artesia Blvd,,,CA,90278,(310) 542-2122,33.873397,-118.373796,,http://www.albertsons.com/,,Mon,600,2300,Tue,600,2300,Wed,600,2300,Thu,600,2300,Fri,600,2300,Sat,600,2300,Sun,600,2300,,,,
Albertsons,2627 Lincoln Blvd,,,CA,90405,(310) 452-3811,34.007051,-118.474617,,http://www.albertsons.com/,,Mon,600,2300,Tue,600,2300,Wed,600,2300,Thu,600,2300,Fri,600,2300,Sat,600,2300,Sun,600,2300,,,,
Albertsons,15200 Rosecrans Ave,,,CA,90638,(714) 521-2310,33.896983,-118.00761,,http://www.albertsons.com,,Mon,600,2300,Tue,600,2300,Wed,600,2300,Thu,600,2300,Fri,600,2300,Sat,600,2300,Sun,600,2300,,,,
Albertsons,855 N Wilcox Ave,,,CA,90640,(323) 724-0462,34.031148,-118.122406,,http://www.albertsons.com,,Mon,600,2300,Tue,600,2300,Wed,600,2300,Thu,600,2300,Fri,600,2300,Sat,600,2300,Sun,600,2300,,,,
Albertsons,2469 Via Campo,,,CA,90640,(323) 888-2250,34.031143,-118.122436,,http://www.albertsons.com/,,Mon,600,2300,Tue,600,2300,Wed,600,2300,Thu,600,2300,Fri,600,2300,Sat,600,2300,Sun,600,2300,,,,
Albertsons,5015 Del Amo Blvd,,,CA,90712,(562) 634-0405,33.847731,-118.134277,,http://www.albertsons.com,,Mon,600,2300,Tue,600,2300,Wed,600,2300,Thu,600,2300,Fri,600,2300,Sat,600,2300,Sun,600,2300,,,,
Albertsons,2130 Pacific Coast Hwy,,,CA,90717,(310) 326-3351,33.789053,-118.318066,,http://www.albertsons.com/,,Mon,600,2300,Tue,600,2300,Wed,600,2300,Thu,600,2300,Fri,600,2300,Sat,600,2300,Sun,600,2300,,,,
Albertsons,1636 W 25th St,,,CA,90732,(310) 831-1161,33.72402,-118.31347,,http://www.albertsons.com/,,Mon,600,2300,Tue,600,2300,Wed,600,2300,Thu,600,2300,Fri,600,2300,Sat,600,2300,Sun,600,2300,,,,
Albertsons,28090 S Western Ave,,,CA,90732,(310) 831-1323,33.764856,-118.309917,,http://www.albertsons.com/,,Mon,600,2300,Tue,600,2300,Wed,600,2300,Thu,600,2300,Fri,600,2300,Sat,600,2300,Sun,600,2300,,,,
Albertsons,1222 N AVALON Blvd,,,CA,90744,(310) 835-1427,33.787265,-118.262881,,http://www.albertsons.com,,Mon,600,2300,Tue,600,2300,Wed,600,2300,Thu,600,2300,Fri,600,2300,Sat,600,2300,Sun,600,2300,,,,
Albertsons,200 E Sepulveda Blvd,,,CA,90745,(310) 513-1900,33.806346,-118.272689,,http://www.albertsons.com/,,Mon,600,2300,Tue,600,2300,Wed,600,2300,Thu,600,2300,Fri,600,2300,Sat,600,2300,Sun,600,2300,,,,
Albertsons,110 E Carson St,,,CA,90745,(310) 835-6402,33.83084,-118.276729,,http://www.albertsons.com/,,Mon,600,2300,Tue,600,2300,Wed,600,2300,Thu,600,2300,Fri,600,2300,Sat,600,2300,Sun,600,2300,,,,
Albertsons,450 Long Beach Blvd,,,CA,90802,(562) 436-0678,33.772259,-118.188574,,http://www.albertsons.com,,Mon,600,2300,Tue,600,2300,Wed,600,2300,Thu,600,2300,Fri,600,2300,Sat,600,2300,Sun,600,2300,,,,
Albertsons,6255 E 2nd St,,,CA,90803,(562) 430-4822,33.758479,-118.112845,,http://www.albertsons.com/,,Mon,600,2300,Tue,600,2300,Wed,600,2300,Thu,600,2300,Fri,600,2300,Sat,600,2300,Sun,600,2300,,,,
Albertsons,101 E Willow St,,,CA,90806,(562) 988-8785,33.805607,-118.192342,,http://www.albertsons.com,,Mon,600,2300,Tue,600,2300,Wed,600,2300,Thu,600,2300,Fri,600,2300,Sat,600,2300,Sun,600,2300,,,,
Albertsons,644 Redondo Ave,,,CA,90814,(562) 439-4004,33.774627,-118.1517,,http://www.albertsons.com,,Mon,600,2359,Tue,600,2359,Wed,600,2359,Thu,600,2359,Fri,600,2359,Sat,600,2359,Sun,600,2359,,,,
Albertsons,298 E Live Oak Ave,,,CA,91006,(626) 446-1416,34.107659,-118.022905,,http://www.albertsons.com/,,Mon,600,2300,Tue,600,2300,Wed,600,2300,Thu,600,2300,Fri,600,2300,Sat,600,2300,Sun,600,2300,,,,
Albertsons,6240 Foothill Blvd,,,CA,91042,(818) 248-2745,34.240911,-118.268003,,http://www.albertsons.com/,,Mon,600,2300,Tue,600,2300,Wed,600,2300,Thu,600,2300,Fri,600,2300,Sat,600,2300,Sun,600,2300,,,,
Albertsons,1000 S Central Ave,,,CA,91204,(818) 244-8109,34.133844,-118.257134,,http://www.albertsons.com,,Mon,600,2300,Tue,600,2300,Wed,600,2300,Thu,600,2300,Fri,600,2300,Sat,600,2300,Sun,600,2300,,,,
Albertsons,18555 Devonshire St,,,CA,91324,(818) 368-3694,34.258619,-118.537685,,http://www.albertsons.com,,Mon,600,2300,Tue,600,2300,Wed,600,2300,Thu,600,2300,Fri,600,2300,Sat,600,2300,Sun,600,2300,,,,
Albertsons,9022 Balboa Blvd,,,CA,91325,(818) 894-6415,34.234389,-118.501424,,http://www.albertsons.com/,,Mon,600,2359,Tue,600,2359,Wed,600,2359,Thu,600,2359,Fri,600,2359,Sat,600,2359,Sun,600,2359,,,,
Albertsons,19307 Saticoy St,,,CA,91335,(818) 772-0010,34.209634,-118.554097,,http://www.albertsons.com,,Mon,600,2300,Tue,600,2300,Wed,600,2300,Thu,600,2300,Fri,600,2300,Sat,600,2300,Sun,600,2300,,,,
Albertsons,27631 Bouquet Canyon Rd,,,CA,91350,(661) 296-9655,34.444108,-118.511942,,http://www.albertsons.com/,,Mon,600,2300,Tue,600,2300,Wed,600,2300,Thu,600,2300,Fri,600,2300,Sat,600,2300,Sun,600,2300,,,,
Albertsons,23449 Lyons Ave,,,CA,91355,(661) 259-3342,34.380475,-118.543504,,http://vallartasupermarkets.com,,Mon,600,2300,Tue,600,2300,Wed,600,2300,Thu,600,2300,Fri,600,2300,Sat,600,2300,Sun,600,2300,,,,
Albertsons,5770 Lindero Canyon Rd,,,CA,91362,(818) 889-9819,34.153819,-118.794652,,http://www.albertsons.com/,,Mon,600,2359,Tue,600,2359,Wed,600,2359,Thu,600,2359,Fri,600,2359,Sat,600,2359,Sun,600,2359,,,,
Albertsons,3830 W Verdugo Ave,,,CA,91505,(818) 954-0817,34.159889,-118.34508,,http://www.albertsons.com/,,Mon,600,2300,Tue,600,2300,Wed,600,2300,Thu,600,2300,Fri,600,2300,Sat,600,2300,Sun,600,2300,,,,
Albertsons,3255 Grand Ave,,,CA,91709,(909) 590-3660,34.000903,-117.734449,,http://www.albertsons.com/,,Mon,600,2300,Tue,600,2300,Wed,600,2300,Thu,600,2300,Fri,600,2300,Sat,600,2300,Sun,600,2300,,,,
Albertsons,12013 Central Ave,,,CA,91710,(909) 464-1594,34.035002,-117.687794,,http://www.albertsons.com,,Mon,600,2300,Tue,600,2300,Wed,600,2300,Thu,600,2300,Fri,600,2300,Sat,600,2300,Sun,600,2300,,,,
Albertsons,1023 N Grand Ave,,,CA,91724,(626) 332-1060,34.098049,-117.873009,,http://www.albertsons.com/,,Mon,600,2359,Tue,600,2359,Wed,600,2359,Thu,600,2359,Fri,600,2359,Sat,600,2359,Sun,600,2359,,,,
Albertsons,3828 Peck Rd,,,CA,91732,(626) 442-4020,34.075061,-118.021138,,http://www.albertsons.com,,Mon,600,2300,Tue,600,2300,Wed,600,2300,Thu,600,2300,Fri,600,2300,Sat,600,2300,Sun,600,2300,,,,
Albertsons,133 W Route 66,,,CA,91740,(626) 963-5358,34.130075,-117.864967,,http://www.albertsons.com/,,Mon,600,2300,Tue,600,2300,Wed,600,2300,Thu,600,2300,Fri,600,2300,Sat,600,2300,Sun,600,2300,,,,
Albertsons,2400 W Commonwealth Ave,,,CA,91803,(626) 293-7100,34.086685,-118.150045,,http://www.albertsons.com,,Mon,600,2300,Tue,600,2300,Wed,600,2300,Thu,600,2300,Fri,600,2300,Sat,600,2300,Sun,600,2300,,,,
Albertsons,2500 E Imperial Hwy,,,CA,92821,(714) 671-1180,33.909868,-117.865205,,http://www.albertsons.com,,Mon,600,2300,Tue,600,2300,Wed,600,2300,Thu,600,2300,Fri,600,2300,Sat,600,2300,Sun,600,2300,,,,
Albertsons,43543 20th St W,,,CA,93534,(661) 940-4747,34.673762,-118.167606,,http://www.albertsons.com/,,Mon,600,2300,Tue,600,2300,Wed,600,2300,Thu,600,2300,Fri,600,2300,Sat,600,2300,Sun,600,2300,,,,
Albertsons,1010 E Ave,,,CA,93535,(661) 948-7332,34.68832,-118.111805,,http://www.albertsons.com/,,Mon,600,2300,Tue,600,2300,Wed,600,2300,Thu,600,2300,Fri,600,2300,Sat,600,2300,Sun,600,2300,,,,
Albertsons,101 E Avenue E,,,CA,93535,(661) 948-9620,34.689546,-118.13026,,,,Mon,600,2300,Tue,600,2300,Wed,600,2300,Thu,600,2300,Fri,600,2300,Sat,600,2300,Sun,600,2300,,,,
Albertsons,38727 Tierra Subida Ave,,,CA,93551,(661) 274-9557,34.5861,-118.148984,,http://www.albertsons.com,,Mon,600,2300,Tue,600,2300,Wed,600,2300,Thu,600,2300,Fri,600,2300,Sat,600,2300,Sun,600,2300,,,,
Albertsons,2547 W Rosamond Blvd,,,CA,93560,(661) 256-0756,34.865569,-118.176723,,http://www.albertsons.com,,Mon,600,2200,Tue,600,2200,Wed,600,2200,Thu,600,2200,Fri,600,2200,Sat,600,2200,Sun,600,2200,,,,
Albertsons,3400 E South St,,,CA,90805,(562) 529-6098,33.859636,-118.152333,,http://www.albertsons.com,,Mon,600,2300,Tue,600,2300,Wed,600,2300,Thu,600,2300,Fri,600,2300,Sat,600,2300,Sun,600,2300,,,,
Bristol Farms,3105 Wilshire Blvd,,,CA,90403,(310) 829-3137,34.040354,-118.472944,,http://www.bristolfarms.com/locations_detail.php?loc=101,,Mon,600,2300,Tue,600,2300,Wed,600,2300,Thu,600,2300,Fri,600,2300,Sat,600,2300,Sun,600,2300,,,,
Bristol Farms,1515 Westwood Blvd,,,CA,90024,(310) 481-0100,34.053667,-118.440649,,http://www.bristolfarms.com/locations_detail.php?loc=72,,Mon,600,2359,Tue,600,2359,Wed,600,2359,Thu,600,2359,Fri,600,2359,Sat,600,2359,Sun,600,2359,,,,
El Super,3405 E Cesar E Chavez Ave,,,CA,90063,(323) 526-0120,34.040846,-118.192103,,http://elsupermarkets.com/,,Mon,600,2300,Tue,600,2300,Wed,600,2300,Thu,600,2300,Fri,600,2300,Sat,600,2100,Sun,600,2100,,,,
El Super,5702 Firestone Blvd,,,CA,90280,(562) 927-7901,33.949101,-118.166112,,http://www.elsupermarkets.com,,Mon,600,2200,Tue,600,2200,Wed,600,2200,Thu,600,2200,Fri,600,2200,Sat,700,2100,Sun,700,2100,,,,
El Super,14103 Ramona Blvd,,,CA,91706,(626) 869-5140,34.086165,-117.966668,,http://www.elsupermarkets.com/,,Mon,600,2200,Tue,600,2200,Wed,600,2200,Thu,600,2200,Fri,600,2200,Sat,700,2100,Sun,700,2100,,,,
Family Market,2500 Hooper Ave,,,CA,90011,(323) 235-4701,34.01692,-118.249672,,http://familymarket.us,,Mon,600,2300,Tue,600,2300,Wed,600,2300,Thu,600,2300,Fri,600,2300,Sat,600,2300,Sun,600,2200,,,,
Family Market,4267 Ascot Ave,,,CA,90011,(323) 233-8801,34.005892,-118.249883,,,,Mon,600,2300,Tue,600,2300,Wed,600,2300,Thu,600,2300,Fri,600,2300,Sat,600,2300,Sun,600,2200,,,,
Food 4 Less,1091 S Hoover St,,,CA,90006,(213) 386-1680,34.051106,-118.284705,,http://www.food4less.com/,,Mon,600,2359,Tue,600,2359,Wed,600,2359,Thu,600,2359,Fri,600,2359,Sat,600,2359,Sun,600,2359,,,,
Food 4 Less,1717 S Western Ave,,,CA,90006,(323) 731-0164,34.042123,-118.310107,,http://www.food4less.com/,,Mon,600,2359,Tue,600,2359,Wed,600,2359,Thu,600,2359,Fri,600,2359,Sat,600,2359,Sun,600,2359,,,,
Food 4 Less,1700 W 6th St,,,CA,90017,(213) 353-0920,34.056954,-118.270402,,http://www.food4less.com/,,Mon,600,2359,Tue,600,2359,Wed,600,2359,Thu,600,2359,Fri,600,2359,Sat,600,2359,Sun,600,2359,,,,
Food 4 Less,1748 W Jefferson Blvd,,,CA,90018,(323) 735-8317,34.025033,-118.307434,,http://www.food4less.com/,,Mon,600,2359,Tue,600,2359,Wed,600,2359,Thu,600,2359,Fri,600,2359,Sat,600,2359,Sun,600,2359,,,,
Food 4 Less,3654 E Olympic Blvd,,,CA,90023,(323) 980-5067,34.017784,-118.198406,,http://www.food4less.com/,,Mon,600,2359,Tue,600,2359,Wed,600,2359,Thu,600,2359,Fri,600,2359,Sat,600,2359,Sun,600,2359,,,,
Food 4 Less,4910 Huntington Dr S,,,CA,90032,(323) 222-2659,34.086672,-118.175998,,http://www.food4less.com/,,Mon,600,2359,Tue,600,2359,Wed,600,2359,Thu,600,2359,Fri,600,2359,Sat,600,2359,Sun,600,2359,,,,
Food 4 Less,2750 E 1st St,,,CA,90033,(323) 268-0461,34.040772,-118.205676,,http://www.food4less.com/,,Mon,600,2359,Tue,600,2359,Wed,600,2359,Thu,600,2359,Fri,600,2359,Sat,600,2359,Sun,600,2359,,,,
Food 4 Less,1820 W Slauson Ave,,,CA,90047,(323) 293-1369,33.987671,-118.310841,,http://www.food4less.com/,,Mon,600,2359,Tue,600,2359,Wed,600,2359,Thu,600,2359,Fri,600,2359,Sat,600,2359,Sun,600,2359,,,,
Food 4 Less,11407 S Western Ave,,,CA,90047,(323) 757-1257,33.930221,-118.310616,,http://www.food4less.com/,,Mon,600,2359,Tue,600,2359,Wed,600,2359,Thu,600,2359,Fri,600,2359,Sat,600,2359,Sun,600,2359,,,,
Food 4 Less,11840 Wilmington Ave,,,CA,90059,(323) 564-3986,33.925909,-118.237361,,http://www.food4less.com/,,Mon,600,2200,Tue,600,2200,Wed,600,2200,Thu,600,2200,Fri,600,2200,Sat,600,2200,Sun,600,2200,,,,
Food 4 Less,6901 Eastern Ave,,,CA,90201,(323) 771-2003,33.97065,-118.166005,,http://www.food4less.com/,,Mon,600,2359,Tue,600,2359,Wed,600,2359,Thu,600,2359,Fri,600,2359,Sat,600,2359,Sun,600,2359,,,,
Food 4 Less,1900 W Rosecrans Ave,,,CA,90220,(310) 609-3385,33.90159,-118.252046,,http://www.food4less.com/,,Mon,600,2359,Tue,600,2359,Wed,600,2359,Thu,600,2359,Fri,600,2359,Sat,600,2359,Sun,600,2359,,,,
Food 4 Less,13525 Lakewood Blvd,,,CA,90242,(562) 633-0830,33.905229,-118.144472,,http://www.food4less.com/,,Mon,600,2359,Tue,600,2359,Wed,600,2359,Thu,600,2359,Fri,600,2359,Sat,600,2359,Sun,600,2359,,,,
Food 4 Less,1299 W Artesia Blvd,,,CA,90248,(310) 768-3095,33.873544,-118.294853,,http://www.food4less.com/,,Mon,600,2359,Tue,600,2359,Wed,600,2359,Thu,600,2359,Fri,600,2359,Sat,600,2359,Sun,600,2359,,,,
Food 4 Less,14500 Ocean Gate Ave,,,CA,90250,(310) 644-1183,33.899345,-118.366496,,http://www.food4less.com/,,Mon,600,2359,Tue,600,2359,Wed,600,2359,Thu,600,2359,Fri,600,2359,Sat,600,2359,Sun,600,2359,,,,
Food 4 Less,6920 Santa Fe Ave,,,CA,90255,(323) 585-6430,33.976578,-118.229592,,http://www.food4less.com/,,Mon,600,2359,Tue,600,2359,Wed,600,2359,Thu,600,2359,Fri,600,2359,Sat,600,2359,Sun,600,2359,,,,
Food 4 Less,11245 Long Beach Blvd,,,CA,90262,(310) 632-9954,33.928574,-118.212819,,http://www.food4less.com/,,Mon,600,2359,Tue,600,2359,Wed,600,2359,Thu,600,2359,Fri,600,2359,Sat,600,2359,Sun,600,2359,,,,
Food 4 Less,4400 Slauson Ave,,,CA,90270,(323) 773-2214,33.986908,-118.187503,,http://www.food4less.com/,,Mon,600,2359,Tue,600,2359,Wed,600,2359,Thu,600,2359,Fri,600,2359,Sat,600,2359,Sun,600,2359,,,,
Food 4 Less,3200 W Century Blvd,,,CA,90303,(310) 677-2520,33.944101,-118.327919,,http://www.food4less.com/,,Mon,600,2359,Tue,600,2359,Wed,600,2359,Thu,600,2359,Fri,600,2359,Sat,600,2359,Sun,600,2359,,,,
Food 4 Less,851 Sepulveda Blvd,,,CA,90502,(310) 549-4870,33.811198,-118.288949,,http://www.food4less.com/,,Mon,600,2359,Tue,600,2359,Wed,600,2359,Thu,600,2359,Fri,600,2359,Sat,600,2359,Sun,600,2359,,,,
Food 4 Less,13413 Telegraph Rd,,,CA,90605,(562) 946-1425,33.941249,-118.044892,,http://www.food4less.com/,,Mon,600,2359,Tue,600,2359,Wed,600,2359,Thu,600,2359,Fri,600,2359,Sat,600,2359,Sun,600,2359,,,,
Food 4 Less,7810 Norwalk Blvd,,,CA,90606,(562) 699-3358,33.974421,-118.074137,,http://www.food4less.com/,,Mon,600,2359,Tue,600,2359,Wed,600,2359,Thu,600,2359,Fri,600,2359,Sat,600,2359,Sun,600,2359,,,,
Food 4 Less,10901 Imperial Hwy,,,CA,90650,(562) 868-6685,33.918367,-118.101564,,http://www.food4less.com/,,Mon,600,2359,Tue,600,2359,Wed,600,2359,Thu,600,2359,Fri,600,2359,Sat,600,2359,Sun,600,2359,,,,
Food 4 Less,8620 Whittier Blvd,,,CA,90660,(562) 948-3435,34.001852,-118.088506,,http://www.food4less.com/,,Mon,600,2359,Tue,600,2359,Wed,600,2359,Thu,600,2359,Fri,600,2359,Sat,600,2359,Sun,600,2359,,,,
Food 4 Less,12222 Carson St,,,CA,90716,(562) 429-9135,33.830862,-118.070346,,http://www.food4less.com/,,Mon,600,2359,Tue,600,2359,Wed,600,2359,Thu,600,2359,Fri,600,2359,Sat,600,2359,Sun,600,2359,,,,
Food 4 Less,336 W Anaheim St,,,CA,90744,(310) 847-7488,33.778711,-118.265585,,http://www.food4less.com/,,Mon,600,2359,Tue,600,2359,Wed,600,2359,Thu,600,2359,Fri,600,2359,Sat,600,2359,Sun,600,2359,,,,
Food 4 Less,1600 E Willow St,,,CA,90755,(562) 989-7576,33.803651,-118.171477,,http://www.food4less.com/,,Mon,600,2359,Tue,600,2359,Wed,600,2359,Thu,600,2359,Fri,600,2359,Sat,600,2359,Sun,600,2359,,,,
Food 4 Less,2185 E South St,,,CA,90805,(562) 422-9646,33.861389,-118.166628,,http://www.food4less.com/,,Mon,600,2359,Tue,600,2359,Wed,600,2359,Thu,600,2359,Fri,600,2359,Sat,600,2359,Sun,600,2359,,,,
Food 4 Less,1329 N Lake Ave,,,CA,91104,(626) 791-7412,34.168305,-118.133551,,http://www.food4less.com/,,Mon,600,2359,Tue,600,2359,Wed,600,2359,Thu,600,2359,Fri,600,2359,Sat,600,2359,Sun,600,2359,,,,
Food 4 Less,20155 Saticoy St,,,CA,91306,(818) 998-8074,34.209037,-118.57284,,http://www.food4less.com/,,Mon,600,2359,Tue,600,2359,Wed,600,2359,Thu,600,2359,Fri,600,2359,Sat,600,2359,Sun,600,2359,,,,
Food 4 Less,9635 Laurel Canyon Blvd,,,CA,91331,(818) 897-3545,34.243803,-118.417487,,http://www.food4less.com/,,Mon,600,2359,Tue,600,2359,Wed,600,2359,Thu,600,2359,Fri,600,2359,Sat,600,2359,Sun,600,2359,,,,
Food 4 Less,12765 Van Nuys Blvd,,,CA,91331,(818) 890-1151,34.275399,-118.412319,,http://www.food4less.com/,,Mon,600,2200,Tue,600,2200,Wed,600,2200,Thu,600,2200,Fri,600,2200,Sat,600,2200,Sun,600,2200,,,,
Food 4 Less,9635 Laurel Canyon Blvd,,,CA,91331,(818) 897-3545,34.243803,-118.417487,,http://www.food4less.com/,,Mon,600,2359,Tue,600,2359,Wed,600,2359,Thu,600,2359,Fri,600,2359,Sat,600,2359,Sun,600,2359,,,,
Food 4 Less,12765 Van Nuys Blvd,,,CA,91331,(818) 890-1151,34.275399,-118.412319,,http://www.food4less.com/,,Mon,600,2200,Tue,600,2200,Wed,600,2200,Thu,600,2200,Fri,600,2200,Sat,600,2200,Sun,600,2200,,,,
Food 4 Less,12689 Glenoaks Blvd,,,CA,91342,(818) 362-3309,34.299749,-118.441956,,http://www.food4less.com/,,Mon,600,2359,Tue,600,2359,Wed,600,2359,Thu,600,2359,Fri,600,2359,Sat,600,2359,Sun,600,2359,,,,
Food 4 Less,16208 Parthenia St,,,CA,91343,(818) 830-0249,34.227377,-118.486198,,http://www.food4less.com/,,Mon,600,2359,Tue,600,2359,Wed,600,2359,Thu,600,2359,Fri,600,2359,Sat,600,2359,Sun,600,2359,,,,
Food 4 Less,19200 Soledad Canyon Rd,,,CA,91351,(661) 250-7357,34.414001,-118.470833,,http://www.food4less.com/,,Mon,600,2359,Tue,600,2359,Wed,600,2359,Thu,600,2359,Fri,600,2359,Sat,600,2359,Sun,600,2359,,,,
Food 4 Less,8530 Tobias Ave,,,CA,91402,(818) 830-7085,34.225718,-118.450917,,http://www.food4less.com/,,Mon,600,2359,Tue,600,2359,Wed,600,2359,Thu,600,2359,Fri,600,2359,Sat,600,2359,Sun,600,2359,,,,
Food 4 Less,16530 Sherman Way,,,CA,91406,(818) 997-0170,34.200623,-118.494086,,http://www.food4less.com/,,Mon,600,2359,Tue,600,2359,Wed,600,2359,Thu,600,2359,Fri,600,2359,Sat,600,2359,Sun,600,2359,,,,
Food 4 Less,8035 Webb Ave,,,CA,91605,(818) 252-4855,34.216243,-118.389719,,http://www.food4less.com/,,Mon,600,2359,Tue,600,2359,Wed,600,2359,Thu,600,2359,Fri,600,2359,Sat,600,2359,Sun,600,2359,,,,
Food 4 Less,3000 Baldwin Park Blvd,,,CA,91706,(626) 856-0511,34.068772,-117.979135,,http://www.food4less.com/,,Mon,600,2359,Tue,600,2359,Wed,600,2359,Thu,600,2359,Fri,600,2359,Sat,600,2359,Sun,600,2359,,,,
Food 4 Less,11950 Garvey Ave,,,CA,91732,(626) 442-7155,34.061833,-118.019964,,http://www.food4less.com/,,Mon,600,2359,Tue,600,2359,Wed,600,2359,Thu,600,2359,Fri,600,2359,Sat,600,2359,Sun,600,2359,,,,
Food 4 Less,2090 S Garey Ave,,,CA,91766,(909) 902-0299,34.034367,-117.747737,,http://www.food4less.com/,,Mon,600,2359,Tue,600,2359,Wed,600,2359,Thu,600,2359,Fri,600,2359,Sat,600,2359,Sun,600,2359,,,,
Food 4 Less,2341 E Avenue S,,,CA,93550,(661) 266-9091,34.559677,-118.086281,,http://www.food4less.com/,,Mon,600,2359,Tue,600,2359,Wed,600,2359,Thu,600,2359,Fri,600,2359,Sat,600,2359,Sun,600,2359,,,,
Northgate Gonzalez Markets,2323 W Olympic Blvd,,,CA,90006,(213) 249-9173,34.052471,-118.282515,,http://www.northgatemarkets.com/,,Mon,600,2300,Tue,600,2300,Wed,600,2300,Thu,600,2300,Fri,600,2300,Sat,600,2300,Sun,600,2300,,,,
Northgate Gonzalez Markets,944 E Slauson Ave,,,CA,90011,(323) 846-8804,33.988903,-118.258325,,http://www.northgatemarkets.com,,Mon,600,2200,Tue,600,2200,Wed,600,2200,Thu,600,2200,Fri,600,2200,Sat,600,2200,Sun,600,2200,,,,
Northgate Gonzalez Markets,425 S Soto St,,,CA,90033,(323) 262-0595,34.040185,-118.212898,,http://www.northgatemarkets.com/,,Mon,600,2300,Tue,600,2300,Wed,600,2300,Thu,600,2300,Fri,600,2300,Sat,600,2300,Sun,600,2300,,,,
Northgate Gonzalez Markets,4700 Inglewood Blvd,,,CA,90230,(310) 390-9639,33.99349,-118.414946,,http://www.northgatemarkets.com,,Mon,600,2200,Tue,600,2200,Wed,600,2200,Thu,600,2200,Fri,600,2200,Sat,600,2200,Sun,600,2200,,,,
Northgate Market,6801 Atlantic Ave,,,CA,90201,(323) 562-2188,33.974098,-118.188008,,http://www.northgatemarkets.com,,Mon,600,2300,Tue,600,2300,Wed,600,2300,Thu,600,2300,Fri,600,2300,Sat,600,2300,Sun,600,2300,,,,
Northgate Market,2633 Santa Ana St,,,CA,90280,(323) 277-3000,33.964734,-118.224032,,http://www.northgatemarkets.com/,,Mon,600,2300,Tue,600,2300,Wed,600,2300,Thu,600,2300,Fri,600,2300,Sat,600,2300,Sun,600,2300,,,,
Northgate Market,16259 Paramount Blvd,,,CA,90723,(562) 259-9950,33.886613,-118.160793,,http://www.northgatemarkets.com,,Mon,600,2300,Tue,600,2300,Wed,600,2300,Thu,600,2300,Fri,600,2300,Sat,600,2300,Sun,600,2300,,,,
Northgate Market,831 N Hacienda Blvd,,,CA,91744,(626) 435-1440,34.034285,-117.950113,,http://www.northgatemarkets.com/,,Mon,600,2200,Tue,600,2200,Wed,600,2200,Thu,600,2200,Fri,600,2200,Sat,600,2200,Sun,600,2200,,,,
Northgate Market,1320 W Francisquito Ave,,,CA,91790,(626) 919-5183,34.053003,-117.954059,,http://www.northgatemarkets.com,,Mon,600,2300,Tue,600,2300,Wed,600,2300,Thu,600,2300,Fri,600,2300,Sat,600,2300,Sun,600,2300,,,,
Northgate Market,11660 Firestone Blvd,,,CA,90650,(562) 863-8203,33.913377,-118.084396,,http://www.northgatemarkets.com/,,Mon,600,2230,Tue,600,2230,Wed,600,2230,Thu,600,2230,Fri,600,2230,Sat,600,2230,Sun,600,2230,,,,
Northgate Market,3828 Peck Rd,,,CA,91732,(626) 442-8200,34.075034,-118.021082,,http://www.northgatemarkets.com/,,Mon,600,2200,Tue,600,2200,Wed,600,2200,Thu,600,2200,Fri,600,2200,Sat,600,2200,Sun,600,2200,,,,
Northgate Super Market,9101 Telegraph Rd,,,CA,90660,(562) 949-6143,33.96011,-118.107737,,http://www.northgatemarkets.com,,Mon,600,2200,Tue,600,2200,Wed,600,2200,Thu,600,2200,Fri,600,2200,Sat,600,2200,Sun,600,2200,,,,
Northgate Supermarket,2120 Pacific Ave,,,CA,90806,(562) 599-5075,33.795871,-118.193324,,http://www.northgatemarkets.com/,,Mon,600,2200,Tue,600,2200,Wed,600,2200,Thu,600,2200,Fri,600,2200,Sat,600,2200,Sun,600,2200,,,,
Northgate Supermarkets,311 W Pacific Coast Hwy,,,CA,90744,(310) 549-7389,33.791744,-118.266296,,http://www.northgatemarkets.com/,,Mon,600,2200,Tue,600,2200,Wed,600,2200,Thu,600,2200,Fri,600,2200,Sat,600,2200,Sun,600,2200,,,,
Pavilions,11030 Jefferson Blvd,,,CA,90230,(310) 398-1945,33.996747,-118.394073,,http://www.pavilions.com/,,Mon,600,2359,Tue,600,2359,Wed,600,2359,Thu,600,2359,Fri,600,2359,Sat,600,2359,Sun,600,2359,,,,
Pavilions,29211 Heathercliff Rd,,,CA,90265,(310) 457-2401,34.020969,-118.810334,,http://www.pavilions.com/,,Mon,600,2359,Tue,600,2359,Wed,600,2359,Thu,600,2359,Fri,600,2359,Sat,600,2359,Sun,600,2359,,,,
Pavilions,5949 E Spring St,,,CA,90808,(562) 496-2151,33.811818,-118.11546,,http://www.pavilions.com/,,Mon,600,2359,Tue,600,2359,Wed,600,2359,Thu,600,2359,Fri,600,2359,Sat,600,2359,Sun,600,2359,,,,
Pavilions,745 W Naomi Ave,,,CA,91007,(626) 446-9483,34.125029,-118.05762,,http://www.pavilions.com/,,Mon,600,2359,Tue,600,2359,Wed,600,2359,Thu,600,2359,Fri,600,2359,Sat,600,2359,Sun,600,2359,,,,
Pavilions,845 E California Blvd,,,CA,91106,(626) 449-3968,34.136266,-118.133044,,http://www.pavilions.com/,,Mon,600,2359,Tue,600,2359,Wed,600,2359,Thu,600,2359,Fri,600,2359,Sat,600,2359,Sun,600,2359,,,,
Pavilions,6534 Platt Ave,,,CA,91307,(818) 999-5939,34.189288,-118.641397,,http://www.pavilions.com/,,Mon,600,2300,Tue,600,2300,Wed,600,2300,Thu,600,2300,Fri,600,2300,Sat,600,2300,Sun,600,2300,,,,
Pavilions,1135 Lindero Canyon Rd,,,CA,91362,(818) 597-1261,34.18414,-118.788341,,http://www.pavilions.com/,,Mon,600,2300,Tue,600,2300,Wed,600,2300,Thu,600,2300,Fri,600,2300,Sat,600,2300,Sun,600,2300,,,,
Pavilions,14845 Ventura Blvd,,,CA,91403,(818) 986-7213,34.153337,-118.456631,,http://www.pavilions.com/,,Mon,600,2359,Tue,600,2359,Wed,600,2359,Thu,600,2359,Fri,600,2359,Sat,600,2359,Sun,600,2359,,,,
Pavilions,1110 W Alameda Ave,,,CA,91506,(818) 567-0257,34.161299,-118.313612,,http://www.pavilions.com/,,Mon,600,2359,Tue,600,2359,Wed,600,2359,Thu,600,2359,Fri,600,2359,Sat,600,2359,Sun,600,2359,,,,
Payless Foods,23501 Avalon Blvd,,,CA,90745,(310) 830-8241,33.812384,-118.264133,,http://www.paylessfoods.com/,,Mon,600,2200,Tue,600,2200,Wed,600,2200,Thu,600,2200,Fri,600,2200,Sat,600,2200,Sun,600,2200,,,,
Ralphs,3300 W Slauson Ave,,,CA,90043,(323) 293-0199,33.987469,-118.329784,,http://www.ralphs.com/,,Mon,600,2300,Tue,600,2300,Wed,600,2300,Thu,600,2300,Fri,600,2300,Sat,600,2300,Sun,600,2300,,,,
Ralphs,11922 S Vermont Ave,,,CA,90044,(323) 757-4147,33.925029,-118.291019,,http://www.ralphs.com/,,Mon,600,2300,Tue,600,2300,Wed,600,2300,Thu,600,2300,Fri,600,2300,Sat,600,2300,Sun,600,2300,,,,
Ralphs,10309 W Olympic Blvd,,,CA,90064,(310) 553-8117,34.052427,-118.417949,,http://www.ralphs.com/,,Mon,600,2300,Tue,600,2300,Wed,600,2300,Thu,600,2300,Fri,600,2300,Sat,600,2300,Sun,600,2300,,,,
Ralphs,1413 Hawthorne Blvd,,,CA,90278,(310) 370-9446,33.866987,-118.353822,,http://www.ralphs.com/,,Mon,600,2359,Tue,600,2359,Wed,600,2359,Thu,600,2359,Fri,600,2359,Sat,600,2359,Sun,600,2359,,,,
Ralphs,950 N La Brea Ave,,,CA,90302,(310) 673-6365,33.975426,-118.356994,,http://www.ralphs.com/,,Mon,600,2359,Tue,600,2359,Wed,600,2359,Thu,600,2359,Fri,600,2359,Sat,600,2359,Sun,700,2359,,,,
Ralphs,1770 W Carson St,,,CA,90501,(310) 787-8786,33.830019,-118.311099,,http://www.ralphs.com/,,Mon,600,2359,Tue,600,2359,Wed,600,2359,Thu,600,2359,Fri,600,2359,Sat,600,2359,Sun,600,2359,,,,
Ralphs,2909 Rolling Hills Rd,,,CA,90505,(310) 325-0611,33.789379,-118.340407,,http://www.ralphs.com/,,Mon,600,2359,Tue,0,100,Wed,0,100,Thu,0,100,Fri,0,100,Sat,0,100,Sun,0,100,,,,
Ralphs,14919 Whittier Blvd,,,CA,90605,(562) 945-3779,33.949969,-118.007281,,http://www.ralphs.com/,,Mon,600,2359,Tue,600,2359,Wed,600,2359,Thu,600,2359,Fri,600,2359,Sat,600,2359,Sun,600,2359,,,,
Ralphs,4033 Ball Rd,,,CA,90630,(714) 827-7947,33.818455,-118.062012,,http://www.ralphs.com/,,Mon,600,2359,Tue,600,2359,Wed,600,2359,Thu,600,2359,Fri,600,2359,Sat,600,2359,Sun,600,2359,,,,
Ralphs,13321 South St,,,CA,90703,(562) 860-5635,33.86009,-118.047613,,http://www.ralphs.com/,,Mon,600,2359,Tue,600,2359,Wed,600,2359,Thu,600,2359,Fri,600,2359,Sat,600,2359,Sun,600,2359,,,,
Ralphs,5951 Del Amo Blvd,,,CA,90713,(562) 867-7282,33.847942,-118.115628,,http://www.ralphs.com/,,Mon,600,2359,Tue,600,2359,Wed,600,2359,Thu,600,2359,Fri,600,2359,Sat,600,2359,Sun,600,2359,,,,
Ralphs,2250 E Carson St,,,CA,90807,(562) 424-2012,33.830722,-118.165,,http://www.ralphs.com/,,Mon,600,2359,Tue,0,100,Wed,0,100,Thu,0,100,Fri,0,100,Sat,0,100,Sun,0,100,,,,
Ralphs,3380 N Los Coyotes Diagonal,,,CA,90808,(562) 421-0413,33.818123,-118.108786,,http://www.ralphs.com/,,Mon,600,2359,Tue,600,2359,Wed,600,2359,Thu,600,2359,Fri,600,2359,Sat,600,2359,Sun,600,2359,,,,
Ralphs,320 W Colorado Blvd,,,CA,91105,(626) 793-4179,34.145199,-118.156945,,http://www.ralphs.com/,,Mon,600,2359,Tue,600,2359,Wed,600,2359,Thu,600,2359,Fri,600,2359,Sat,600,2359,Sun,600,2359,,,,
Ralphs,211 N Glendale Ave,,,CA,91206,(818) 549-0035,34.148454,-118.248423,,http://www.ralphs.com/,,Mon,600,2359,Tue,600,2359,Wed,600,2359,Thu,600,2359,Fri,600,2359,Sat,600,2359,Sun,600,2359,,,,
Ralphs,4754 Commons Way,,,CA,91302,(818) 223-0284,34.154208,-118.643107,,http://www.ralphs.com/,,Mon,600,2359,Tue,600,2359,Wed,600,2359,Thu,600,2359,Fri,600,2359,Sat,600,2359,Sun,600,2359,,,,
Ralphs,21431 Devonshire St,,,CA,91311,(818) 341-0950,34.258115,-118.598391,,http://www.ralphs.com/,,Mon,600,2359,Tue,600,2359,Wed,600,2359,Thu,600,2359,Fri,600,2359,Sat,600,2359,Sun,600,2359,,,,
Ralphs,19340 Soledad Canyon Rd,,,CA,91351,(661) 252-6226,34.414654,-118.473214,,http://www.ralphs.com/,,Mon,600,2359,Tue,600,2359,Wed,600,2359,Thu,600,2359,Fri,600,2359,Sat,600,2359,Sun,600,2359,,,,
Ralphs,25930 McBean Pkwy,,,CA,91355,(661) 254-3440,34.404876,-118.551509,,http://www.ralphs.com/,,Mon,600,2359,Tue,0,100,Wed,0,100,Thu,0,100,Fri,0,100,Sat,0,100,Sun,0,100,,,,
Ralphs,24975 Pico Canyon Rd,,,CA,91381,(661) 253-0656,34.382487,-118.574293,,http://www.ralphs.com/,,Mon,600,2359,Tue,600,2359,Wed,600,2359,Thu,600,2359,Fri,600,2359,Sat,600,2359,Sun,600,2359,,,,
Ralphs,655 S Grand Ave,,,CA,91740,(626) 857-7700,34.127463,-117.874242,,http://www.ralphs.com/,,Mon,600,2300,Tue,600,2300,Wed,600,2300,Thu,600,2300,Fri,600,2300,Sat,600,2300,Sun,600,2300,,,,
Smart & Final,2949 W Pico Blvd,,,CA,90006,(323) 732-9101,34.047376,-118.304926,,http://locations.smartandfinal.com/CA/LOS-ANGELES/364/,,Mon,600,2200,Tue,600,2200,Wed,600,2200,Thu,600,2200,Fri,600,2200,Sat,600,2200,Sun,600,2200,,,,
Smart & Final,3607 S Vermont Ave,,,CA,90007,(323) 733-5875,34.02278,-118.29187,,http://locations.smartandfinal.com/CA/LOS-ANGELES/456/,,Mon,600,2200,Tue,600,2200,Wed,600,2200,Thu,600,2200,Fri,600,2200,Sat,600,2200,Sun,600,2200,,,,
Smart & Final,2929 Crenshaw Blvd,,,CA,90016,(323) 730-8300,34.028475,-118.335288,,http://locations.smartandfinal.com/CA/LOS-ANGELES/470/,,Mon,600,2200,Tue,600,2200,Wed,600,2200,Thu,600,2200,Fri,600,2200,Sat,600,2200,Sun,600,2200,,,,
Smart & Final,12210 Santa Monica Blvd,,,CA,90025,(310) 207-8688,34.039734,-118.464506,,http://locations.smartandfinal.com/CA/W.-LOS-ANGELES/315/,,Mon,600,2200,Tue,600,2200,Wed,600,2200,Thu,600,2200,Fri,600,2200,Sat,600,2200,Sun,600,2200,,,,
Smart & Final,2019 Pasadena Ave,,,CA,90031,(323) 223-6252,34.074606,-118.220738,,http://www.smartandfinal.com/,,Mon,600,2200,Tue,600,2200,Wed,600,2200,Thu,600,2200,Fri,600,2200,Sat,600,2200,Sun,600,2200,,,,
Smart & Final,1835 S La Cienega Blvd,,,CA,90035,(310) 558-0576,34.043553,-118.379166,,http://locations.smartandfinal.com/CA/LOS-ANGELES/478/,,Mon,600,2200,Tue,600,2200,Wed,600,2200,Thu,600,2200,Fri,600,2200,Sat,600,2200,Sun,600,2200,,,,
Smart & Final,8137 S Vermont Ave,,,CA,90044,(323) 758-5734,33.964738,-118.291955,,http://locations.smartandfinal.com/CA/LOS-ANGELES/337/,,Mon,600,2200,Tue,600,2200,Wed,600,2200,Thu,600,2200,Fri,600,2200,Sat,600,2200,Sun,600,2200,,,,
Smart & Final,1041 N Fuller Ave,,,CA,90046,(323) 876-0421,34.090059,-118.350004,,http://locations.smartandfinal.com/CA/W.-HOLLYWOOD/474/,,Mon,600,2200,Tue,600,2200,Wed,600,2200,Thu,600,2200,Fri,600,2200,Sat,600,2200,Sun,600,2200,,,,
Smart & Final,2720 Beverly Blvd,,,CA,90057,(213) 382-6434,34.069821,-118.278205,,http://locations.smartandfinal.com/CA/LOS-ANGELES/459/,,Mon,600,2200,Tue,600,2200,Wed,600,2200,Thu,600,2200,Fri,600,2200,Sat,600,2200,Sun,600,2200,,,,
Smart & Final,1125 E El Segundo Blvd,,,CA,90059,(323) 569-7148,33.916495,-118.255138,,http://locations.smartandfinal.com/CA/LOS-ANGELES/341/,,Mon,600,2200,Tue,600,2200,Wed,600,2200,Thu,600,2200,Fri,600,2200,Sat,600,2200,Sun,600,2200,,,,
Smart & Final,11221 W Pico Blvd,,,CA,90064,(310) 473-0344,34.036079,-118.437293,,http://locations.smartandfinal.com/CA/LOS-ANGELES/395/,,Mon,600,2200,Tue,600,2200,Wed,600,2200,Thu,600,2200,Fri,600,2200,Sat,600,2200,Sun,600,2200,,,,
Smart & Final,1550 W Redondo Beach Blvd,,,CA,90247,(310) 324-8991,33.88998,-118.303633,,http://locations.smartandfinal.com/CA/GARDENA/487/,,Mon,600,2200,Tue,600,2200,Wed,600,2200,Thu,600,2200,Fri,600,2200,Sat,600,2200,Sun,600,2200,,,,
Smart & Final,1516 S Pacific Coast Hwy,,,CA,90277,(310) 540-6157,33.820366,-118.385219,,http://www.locations.smartandfinal.com/,,Mon,600,2200,Tue,600,2200,Wed,600,2200,Thu,600,2200,Fri,600,2200,Sat,600,2200,Sun,600,2200,,,,
Smart & Final,1575 Centinela Ave,,,CA,90302,(310) 673-4997,33.976644,-118.366402,,http://locations.smartandfinal.com/CA/INGLEWOOD/457/,,Mon,600,2200,Tue,600,2200,Wed,600,2200,Thu,600,2200,Fri,600,2200,Sat,600,2200,Sun,600,2200,,,,
Smart & Final,21600 S Vermont Ave,,,CA,90502,(310) 328-3023,33.832694,-118.289896,,http://locations.smartandfinal.com/CA/TORRANCE/348/,,Mon,600,2200,Tue,600,2200,Wed,600,2200,Thu,600,2200,Fri,600,2200,Sat,600,2200,Sun,600,2200,,,,
Smart & Final,2775 Pacific Coast Hwy,,,CA,90505,(310) 539-3526,33.793626,-118.334807,,http://locations.smartandfinal.com/CA/TORRANCE/458/,,Mon,600,2200,Tue,600,2200,Wed,600,2200,Thu,600,2200,Fri,600,2200,Sat,600,2200,Sun,600,2200,,,,
Smart & Final,11460 Washington Blvd,,,CA,90606,(562) 695-1093,33.970661,-118.067075,,http://www.smartandfinal.com,,Mon,600,2200,Tue,600,2200,Wed,600,2200,Thu,600,2200,Fri,600,2200,Sat,600,2200,Sun,600,2200,,,,
Smart & Final,1320 Atlantic Ave,,,CA,90813,(562) 218-0991,33.783189,-118.184692,,http://locations.smartandfinal.com/CA/LONG-BEACH/440/,,Mon,600,2200,Tue,600,2200,Wed,600,2200,Thu,600,2200,Fri,600,2200,Sat,600,2200,Sun,600,2200,,,,
Smart & Final,1755 Ximeno Ave,,,CA,90815,(562) 494-6208,33.788887,-118.139084,,http://locations.smartandfinal.com/CA/LONG-BEACH/301/,,Mon,600,2200,Tue,600,2200,Wed,600,2200,Thu,600,2200,Fri,600,2200,Sat,600,2200,Sun,600,2200,,,,
Smart & Final,266 E Huntington Dr,,,CA,91016,(626) 358-3261,34.140274,-117.995941,,http://locations.smartandfinal.com/CA/MONROVIA/314/,,Mon,600,2200,Tue,600,2200,Wed,600,2200,Thu,600,2200,Fri,600,2200,Sat,600,2200,Sun,600,2200,,,,
Smart & Final,6555 Foothill Blvd,,,CA,91042,(818) 352-9399,34.245962,-118.27467,,http://locations.smartandfinal.com/CA/TUJUNGA/414/,,Mon,600,2200,Tue,600,2200,Wed,600,2200,Thu,600,2200,Fri,600,2200,Sat,600,2200,Sun,600,2200,,,,
Smart & Final,401 N Fair,,,CA,91103,(626) 568-8446,34.152622,-118.150911,,http://locations.smartandfinal.com/CA/PASADENA/370/,,Mon,600,2200,Tue,600,2200,Wed,600,2200,Thu,600,2200,Fri,600,2200,Sat,600,2200,Sun,600,2200,,,,
Smart & Final,3299 E Colorado Blvd,,,CA,91107,(626) 396-9677,34.146595,-118.083363,,http://locations.smartandfinal.com/CA/PASADENA/485/,,Mon,600,2200,Tue,600,2200,Wed,600,2200,Thu,600,2200,Fri,600,2200,Sat,600,2200,Sun,600,2200,,,,
Smart & Final,10340 Mason Ave,,,CA,91311,(818) 772-2021,34.258231,-118.579587,,http://locations.smartandfinal.com/CA/CHATSWORTH/528/,,Mon,600,2200,Tue,600,2200,Wed,600,2200,Thu,600,2200,Fri,600,2200,Sat,600,2200,Sun,600,2200,,,,
Smart & Final,28207 Newhall Ranch Rd,,,CA,91355,(661) 775-1416,34.442287,-118.577347,,http://locations.smartandfinal.com/CA/VALENCIA/483/,,Mon,600,2200,Tue,600,2200,Wed,600,2200,Thu,600,2200,Fri,600,2200,Sat,600,2200,Sun,600,2200,,,,
Smart & Final,7815 Van Nuys Blvd,,,CA,91402,(818) 780-7222,34.212681,-118.449484,,http://locations.smartandfinal.com/CA/VAN-NUYS/349/,,Mon,600,2200,Tue,600,2200,Wed,600,2200,Thu,600,2200,Fri,600,2200,Sat,600,2200,Sun,600,2200,,,,
Smart & Final,16847 Ventura Blvd,,,CA,91436,(818) 789-0242,34.15958,-118.500258,,http://locations.smartandfinal.com/CA/ENCINO/477/,,Mon,600,2200,Tue,600,2200,Wed,600,2200,Thu,600,2200,Fri,600,2200,Sat,600,2200,Sun,600,2200,,,,
Smart & Final,3708 W Burbank Blvd,,,CA,91505,(818) 562-3234,34.174345,-118.350639,,http://locations.smartandfinal.com/CA/BURBANK/471/,,Mon,600,2200,Tue,600,2200,Wed,600,2200,Thu,600,2200,Fri,600,2200,Sat,600,2200,Sun,600,2200,,,,
Smart & Final,3123 Baldwin Park Blvd,,,CA,91706,(626) 337-1434,34.07014,-117.979596,,http://locations.smartandfinal.com/CA/BALDWIN-PARK/481/,,Mon,600,2200,Tue,600,2200,Wed,600,2200,Thu,600,2200,Fri,600,2200,Sat,600,2200,Sun,600,2200,,,,
Smart & Final,12164 Central Ave,,,CA,91710,(909) 627-7687,34.032238,-117.690889,,http://locations.smartandfinal.com/CA/CHINO/494/,,Mon,600,2200,Tue,600,2200,Wed,600,2200,Thu,600,2200,Fri,600,2200,Sat,600,2200,Sun,600,2200,,,,
Smart & Final,11110 Ramona Blvd,,,CA,91731,(626) 443-1381,34.072374,-118.031776,,http://locations.smartandfinal.com/CA/EL-MONTE/373/,,Mon,600,2200,Tue,600,2200,Wed,600,2200,Thu,600,2200,Fri,600,2200,Sat,600,2200,Sun,600,2200,,,,
Smart & Final,160 W Willow St,,,CA,91768,(909) 622-3321,34.078523,-117.753446,,http://locations.smartandfinal.com/CA/POMONA/308/,,Mon,600,2200,Tue,600,2200,Wed,600,2200,Thu,600,2200,Fri,600,2200,Sat,600,2200,Sun,600,2200,,,,
Smart & Final,725 E Main St,,,CA,91801,(626) 281-2049,34.098869,-118.119635,,http://locations.smartandfinal.com/CA/ALHAMBRA/321/,,Mon,600,2200,Tue,600,2200,Wed,600,2200,Thu,600,2200,Fri,600,2200,Sat,600,2200,Sun,600,2200,,,,
Smart & Final,266 E Palmdale Blvd,,,CA,93550,(661) 274-9686,34.578784,-118.125538,,http://www.smartandfinal.com/,,Mon,600,2200,Tue,600,2200,Wed,600,2200,Thu,600,2200,Fri,600,2200,Sat,600,2200,Sun,600,2200,,,,
Smart & Final Extra,845 S Figueroa St,,,CA,90017,(213) 629-0039,34.047071,-118.262182,,http://locations.smartandfinal.com/CA/LOS-ANGELES/484/,,Mon,600,2200,Tue,600,2200,Wed,600,2200,Thu,600,2200,Fri,600,2200,Sat,600,2200,Sun,600,2200,,,,
Smart & Final Extra,4550 W Pico Blvd,,,CA,90019,(323) 549-9586,34.047584,-118.335996,,http://locations.smartandfinal.com/CA/LOS-ANGELES/444/,,Mon,600,2200,Tue,600,2200,Wed,600,2200,Thu,600,2200,Fri,600,2200,Sat,600,2200,Sun,600,2200,,,,
Smart & Final Extra,939 N Western Ave,,,CA,90029,(323) 466-9289,34.087928,-118.30939,,http://locations.smartandfinal.com/CA/LOS-ANGELES/363/,,Mon,600,2200,Tue,600,2200,Wed,600,2200,Thu,600,2200,Fri,600,2200,Sat,600,2200,Sun,600,2200,,,,
Smart & Final Extra,2511 Daly St,,,CA,90031,(323) 539-2400,34.075539,-118.216238,,http://locations.smartandfinal.com/CA/LINCOLN-HEIGHTS/511/,,Mon,600,2200,Tue,600,2200,Wed,600,2200,Thu,600,2200,Fri,600,2200,Sat,600,2200,Sun,600,2200,,,,
Smart & Final Extra,10113 Venice Blvd,,,CA,90034,(310) 559-1722,34.022189,-118.401318,,http://locations.smartandfinal.com/CA/LOS-ANGELES/330/,,Mon,600,2300,Tue,600,2300,Wed,600,2300,Thu,600,2300,Fri,600,2300,Sat,600,2300,Sun,600,2300,,,,
Smart & Final Extra,5029 Florence Ave,,,CA,90201,(323) 562-3421,33.970201,-118.176981,,http://locations.smartandfinal.com/CA/BELL/319/,,Mon,600,2200,Tue,600,2200,Wed,600,2200,Thu,600,2200,Fri,600,2200,Sat,600,2200,Sun,600,2200,,,,
Smart & Final Extra,15205 Hawthorne Blvd,,,CA,90260,(310) 973-2355,33.893325,-118.3529,,http://locations.smartandfinal.com/CA/LAWNDALE/529/,,Mon,600,2200,Tue,600,2200,Wed,600,2200,Thu,600,2200,Fri,600,2200,Sat,600,2200,Sun,600,2200,,,,
Smart & Final Extra,10833 Long Beach Blvd,,,CA,90262,(310) 631-8639,33.933886,-118.212104,,http://locations.smartandfinal.com/CA/LYNWOOD/333/,,Mon,600,2200,Tue,600,2200,Wed,600,2200,Thu,600,2200,Fri,600,2200,Sat,600,2200,Sun,600,2200,,,,
Smart & Final Extra,28500 S Western Ave,,,CA,90275,(310) 832-4179,33.76112,-118.311794,,http://locations.smartandfinal.com/CA/RANCHO-PALOS-VERDES/306/,,Mon,600,2200,Tue,600,2200,Wed,600,2200,Thu,600,2200,Fri,600,2200,Sat,600,2200,Sun,600,2200,,,,
Smart & Final Extra,604 Lincoln Blvd,,,CA,90291,(310) 392-4954,34.000244,-118.464869,,http://locations.smartandfinal.com/CA/VENICE/332/,,Mon,600,2200,Tue,600,2200,Wed,600,2200,Thu,600,2200,Fri,600,2200,Sat,600,2200,Sun,600,2200,,,,
Smart & Final Extra,10100 Crenshaw Blvd,,,CA,90303,(323) 779-9966,33.944425,-118.326077,,http://locations.smartandfinal.com/CA/INGLEWOOD/366/,,Mon,600,2200,Tue,600,2200,Wed,600,2200,Thu,600,2200,Fri,600,2200,Sat,600,2200,Sun,600,2200,,,,
Smart & Final Extra,13003 Whittier Blvd,,,CA,90602,(562) 907-7037,33.965768,-118.036999,,http://locations.smartandfinal.com/CA/WHITTIER/716/,,Mon,600,2200,Tue,600,2200,Wed,600,2200,Thu,600,2200,Fri,600,2200,Sat,600,2200,Sun,600,2200,,,,
Smart & Final Extra,15055 Mulberry Dr,,,CA,90604,(562) 941-7282,33.935381,-118.010867,,http://locations.smartandfinal.com/CA/WHITTIER/482/,,Mon,600,2200,Tue,600,2200,Wed,600,2200,Thu,600,2200,Fri,600,2200,Sat,600,2200,Sun,600,2200,,,,
Smart & Final Extra,1941 W Imperial Hwy,,,CA,90631,(562) 690-4516,33.91846,-117.966741,,http://locations.smartandfinal.com/CA/LA-HABRA/422/,,Mon,600,2200,Tue,600,2200,Wed,600,2200,Thu,600,2200,Fri,600,2200,Sat,600,2200,Sun,600,2200,,,,
Smart & Final Extra,855 N Wilcox Ave,,,CA,90640,(323) 888-4204,34.031289,-118.122587,,http://locations.smartandfinal.com/CA/MONTEBELLO/522/,,Mon,600,2200,Tue,600,2200,Wed,600,2200,Thu,600,2200,Fri,600,2200,Sat,600,2200,Sun,600,2200,,,,
Smart & Final Extra,15930 Bellflower Blvd,,,CA,90706,(562) 920-6268,33.888601,-118.124946,,http://locations.smartandfinal.com/CA/BELLFLOWER/311/,,Mon,600,2200,Tue,600,2200,Wed,600,2200,Thu,600,2200,Fri,600,2200,Sat,600,2200,Sun,600,2200,,,,
Smart & Final Extra,4237 Woodruff Ave,,,CA,90713,(562) 429-0500,33.835237,-118.116617,,http://locations.smartandfinal.com/CA/LAKEWOOD/598/,,Mon,600,2200,Tue,600,2200,Wed,600,2200,Thu,600,2200,Fri,600,2200,Sat,600,2200,Sun,600,2200,,,,
Smart & Final Extra,644 Redondo Ave,,,CA,90814,(562) 438-0450,33.774464,-118.151907,,http://locations.smartandfinal.com/CA/LONG-BEACH/434/,,Mon,600,2200,Tue,600,2200,Wed,600,2200,Thu,600,2200,Fri,600,2200,Sat,600,2200,Sun,600,2200,,,,
Smart & Final Extra,1855 W Glenoaks Blvd,,,CA,91201,(818) 242-2486,34.174062,-118.292716,,http://locations.smartandfinal.com/CA/GLENDALE/428/,,Mon,600,2200,Tue,600,2200,Wed,600,2200,Thu,600,2200,Fri,600,2200,Sat,600,2200,Sun,600,2200,,,,
Smart & Final Extra,1855 W Glenoaks Blvd,,,CA,91201,(818) 242-2486,34.174062,-118.292716,,http://locations.smartandfinal.com/CA/GLENDALE/428/,,Mon,600,2200,Tue,600,2200,Wed,600,2200,Thu,600,2200,Fri,600,2200,Sat,600,2200,Sun,600,2200,,,,
Smart & Final Extra,1855 W Glenoaks Blvd,,,CA,91201,(818) 242-2486,34.174062,-118.292716,,http://locations.smartandfinal.com/CA/GLENDALE/428/,,Mon,600,2200,Tue,600,2200,Wed,600,2200,Thu,600,2200,Fri,600,2200,Sat,600,2200,Sun,600,2200,,,,
Smart & Final Extra,210 N Verdugo Rd,,,CA,91206,(818) 243-4239,34.148584,-118.235083,,http://locations.smartandfinal.com/CA/GLENDALE/304/,,Mon,600,2200,Tue,600,2200,Wed,600,2200,Thu,600,2200,Fri,600,2200,Sat,600,2200,Sun,600,2200,,,,
Smart & Final Extra,7224 Mason Ave,,,CA,91306,(818) 274-0111,34.202117,-118.579324,,http://locations.smartandfinal.com/CA/WINNETKA/512/,,Mon,600,2200,Tue,600,2200,Wed,600,2200,Thu,600,2200,Fri,600,2200,Sat,600,2200,Sun,600,2200,,,,
Smart & Final Extra,18555 Devonshire St,,,CA,91324,(818) 368-6409,34.258418,-118.537763,,http://locations.smartandfinal.com/CA/NORTHRIDGE/420/,,Mon,600,2200,Tue,600,2200,Wed,600,2200,Thu,600,2200,Fri,600,2200,Sat,600,2200,Sun,600,2200,,,,
Smart & Final Extra,2040 Glenoaks Blvd,,,CA,91340,(818) 838-9187,34.298597,-118.439208,,http://locations.smartandfinal.com/CA/SAN-FERNANDO/323/,,Mon,600,2200,Tue,600,2200,Wed,600,2200,Thu,600,2200,Fri,600,2200,Sat,600,2200,Sun,600,2200,,,,
Smart & Final Extra,16210 Devonshire St,,,CA,91344,(818) 892-3338,34.257279,-118.485353,,http://locations.smartandfinal.com/CA/GRANADA-HILLS/460/,,Mon,600,2200,Tue,600,2200,Wed,600,2200,Thu,600,2200,Fri,600,2200,Sat,600,2200,Sun,600,2200,,,,
Smart & Final Extra,22631 Ventura Blvd,,,CA,91364,(818) 225-9590,34.16742,-118.619747,,http://locations.smartandfinal.com/CA/WOODLAND-HILLS/324/,,Mon,600,2200,Tue,600,2200,Wed,600,2200,Thu,600,2200,Fri,600,2200,Sat,600,2200,Sun,600,2200,,,,
Smart & Final Extra,6601 Laurel Canyon Blvd,,,CA,91606,(818) 982-6202,34.190585,-118.397188,,http://locations.smartandfinal.com/CA/NORTH-HOLLYWOOD/374/,,Mon,600,2200,Tue,600,2200,Wed,600,2200,Thu,600,2200,Fri,600,2200,Sat,600,2200,Sun,600,2200,,,,
Smart & Final Extra,114 N Azusa Ave,,,CA,91722,(626) 915-6619,34.086819,-117.906491,,http://locations.smartandfinal.com/CA/COVINA/367/,,Mon,600,2200,Tue,600,2200,Wed,600,2200,Thu,600,2200,Fri,600,2200,Sat,600,2200,Sun,600,2200,,,,
Smart & Final Extra,15427 Amar Rd,,,CA,91744,(626) 330-2495,34.037279,-117.948812,,http://locations.smartandfinal.com/CA/LA-PUENTE/317/,,Mon,600,2200,Tue,600,2200,Wed,600,2200,Thu,600,2200,Fri,600,2200,Sat,600,2200,Sun,600,2200,,,,
Smart & Final Extra,1005 W Arrow Hwy,,,CA,91773,(909) 592-2190,34.10788,-117.827266,,http://locations.smartandfinal.com/CA/SAN-DIMAS/305/,,Mon,600,2200,Tue,600,2200,Wed,600,2200,Thu,600,2200,Fri,600,2200,Sat,600,2200,Sun,600,2200,,,,
Smart & Final Extra,39212 10th St W,,,CA,93551,(661) 947-2121,34.596225,-118.145485,,http://locations.smartandfinal.com/CA/PALMDALE/437/,,Mon,600,2200,Tue,600,2200,Wed,600,2200,Thu,600,2200,Fri,600,2200,Sat,600,2200,Sun,600,2200,,,,
Stater Bros. Markets,7814 Firestone Blvd,,,CA,90241,(562) 923-0394,33.944035,-118.14197,,http://www.staterbros.com/,,Mon,600,2300,Tue,600,2300,Wed,600,2300,Thu,600,2300,Fri,600,2300,Sat,600,2300,Sun,600,2300,,,,
Stater Bros. Markets,11750 Whittier Blvd,,,CA,90601,(562) 696-3212,33.980157,-118.051515,,http://www.staterbros.com/,,Mon,600,2300,Tue,600,2300,Wed,600,2300,Thu,600,2300,Fri,600,2300,Sat,600,2300,Sun,600,2300,,,,
Stater Bros. Markets,14212 Mulberry Dr,,,CA,90604,(562) 941-7711,33.941326,-118.027877,,http://www.staterbros.com/,,Mon,600,2300,Tue,600,2300,Wed,600,2300,Thu,600,2300,Fri,600,2300,Sat,600,2300,Sun,600,2300,,,,
Stater Bros. Markets,10051 Valley View St,,,CA,90630,(714) 761-1662,33.816074,-118.029489,,http://www.staterbros.com/,,Mon,600,2300,Tue,600,2300,Wed,600,2300,Thu,600,2300,Fri,600,2300,Sat,600,2300,Sun,600,2300,,,,
Stater Bros. Markets,851 N Harbor Blvd,,,CA,90631,(562) 694-3896,33.939924,-117.934279,,http://www.staterbros.com/,,Mon,600,2300,Tue,600,2300,Wed,600,2300,Thu,600,2300,Fri,600,2300,Sat,600,2300,Sun,600,2300,,,,
Stater Bros. Markets,12800 La Mirada Blvd,,,CA,90638,(562) 943-3783,33.915658,-118.010703,,http://www.staterbros.com/,,Mon,600,2300,Tue,600,2300,Wed,600,2300,Thu,600,2300,Fri,600,2300,Sat,600,2300,Sun,600,2300,,,,
Stater Bros. Markets,11300 Firestone Blvd,,,CA,90650,(562) 929-1878,33.917938,-118.093138,,http://www.staterbros.com/,,Mon,600,2300,Tue,600,2300,Wed,600,2300,Thu,600,2300,Fri,600,2300,Sat,600,2300,Sun,600,2300,,,,
Stater Bros. Markets,12523 Alondra Blvd,,,CA,90650,(562) 921-3908,33.888437,-118.06556,,http://www.staterbros.com/,,Mon,600,2300,Tue,600,2300,Wed,600,2300,Thu,600,2300,Fri,600,2300,Sat,600,2300,Sun,600,2300,,,,
Stater Bros. Markets,11815 Artesia Blvd,,,CA,90701,(562) 924-9429,33.87484,-118.08143,,http://www.staterbros.com/,,Mon,600,2359,Tue,600,2359,Wed,600,2359,Thu,600,2359,Fri,600,2359,Sat,600,2359,Sun,600,2359,,,,
Stater Bros. Markets,17220 Lakewood Blvd,,,CA,90706,(562) 866-2474,33.876019,-118.140457,,http://www.staterbros.com/,,Mon,600,2300,Tue,600,2300,Wed,600,2300,Thu,600,2300,Fri,600,2300,Sat,600,2300,Sun,600,2300,,,,
Stater Bros. Markets,8640 Alondra Blvd,,,CA,90723,(562) 633-5721,33.888763,-118.148354,,http://www.staterbros.com/,,Mon,600,2300,Tue,600,2300,Wed,600,2300,Thu,600,2300,Fri,600,2300,Sat,600,2300,Sun,600,2300,,,,
Stater Bros. Markets,6501 E Spring St,,,CA,90808,(562) 429-5611,33.811347,-118.105608,,http://www.staterbros.com/,,Mon,600,2300,Tue,600,2300,Wed,600,2300,Thu,600,2300,Fri,600,2300,Sat,600,2300,Sun,600,2300,,,,
Stater Bros. Markets,26900 Sierra Hwy,,,CA,91321,(661) 298-7988,34.403889,-118.464816,,http://www.staterbros.com/,,Mon,600,2359,Tue,600,2359,Wed,600,2359,Thu,600,2359,Fri,600,2359,Sat,600,2359,Sun,600,2359,,,,
Stater Bros. Markets,1145 E Alosta Ave,,,CA,91702,(626) 335-2310,34.129703,-117.882753,,http://www.staterbros.com/,,Mon,600,2300,Tue,600,2300,Wed,600,2300,Thu,600,2300,Fri,600,2300,Sat,600,2300,Sun,600,2300,,,,
Stater Bros. Markets,14250 Chino Hills Pkwy,,,CA,91709,(909) 591-5405,33.993893,-117.758773,,http://www.staterbros.com/,,Mon,600,2300,Tue,600,2300,Wed,600,2300,Thu,600,2300,Fri,600,2300,Sat,600,2300,Sun,600,2300,,,,
Stater Bros. Markets,6989 Schaefer Ave,,,CA,91710,(909) 627-6665,34.003549,-117.652535,,http://www.staterbros.com/,,Mon,600,2300,Tue,600,2300,Wed,600,2300,Thu,600,2300,Fri,600,2300,Sat,600,2300,Sun,600,2300,,,,
Stater Bros. Markets,4721 Riverside Dr,,,CA,91710,(909) 627-3015,34.018253,-117.701818,,http://www.staterbros.com/,,Mon,600,2300,Tue,600,2300,Wed,600,2300,Thu,600,2300,Fri,600,2300,Sat,600,2300,Sun,600,2300,,,,
Stater Bros. Markets,1055 W Foothill Blvd,,,CA,91711,(909) 624-0619,34.107953,-117.73531,,http://www.staterbros.com/,,Mon,600,2300,Tue,600,2300,Wed,600,2300,Thu,600,2300,Fri,600,2300,Sat,600,2300,Sun,600,2300,,,,
Stater Bros. Markets,1023 N Grand Ave,,,CA,91724,(626) 543-1104,34.098075,-117.872853,,http://www.staterbros.com/,,Mon,600,2300,Tue,600,2300,Wed,600,2300,Thu,600,2300,Fri,600,2300,Sat,600,2300,Sun,600,2300,,,,
Stater Bros. Markets,1830 E Route 66,,,CA,91740,(626) 963-0513,34.127,-117.83019,,http://www.staterbros.com/,,Mon,600,2300,Tue,600,2300,Wed,600,2300,Thu,600,2300,Fri,600,2300,Sat,600,2300,Sun,600,2300,,,,
Stater Bros. Markets,19756 Colima Rd,,,CA,91748,(909) 598-6619,33.985639,-117.870691,,http://www.staterbros.com/,,Mon,600,2300,Tue,600,2300,Wed,600,2300,Thu,600,2300,Fri,600,2300,Sat,600,2300,Sun,600,2300,,,,
Stater Bros. Markets,2090 Foothill Blvd,,,CA,91750,(909) 593-1591,34.112305,-117.766139,,http://www.staterbros.com/,,Mon,600,2300,Tue,600,2300,Wed,600,2300,Thu,600,2300,Fri,600,2300,Sat,600,2300,Sun,600,2300,,,,
Stater Bros. Markets,1045 N Garey Ave,,,CA,91767,(909) 629-9244,34.068219,-117.753266,,http://www.staterbros.com/,,Mon,600,2300,Tue,600,2300,Wed,600,2300,Thu,600,2300,Fri,600,2300,Sat,600,2300,Sun,600,2300,,,,
Stater Bros. Markets,1425 W Arrow Hwy,,,CA,91773,(909) 599-1374,34.107587,-117.836402,,http://www.staterbros.com/,,Mon,600,2300,Tue,600,2300,Wed,600,2300,Thu,600,2300,Fri,600,2300,Sat,600,2300,Sun,600,2300,,,,
Stater Bros. Markets,20677 Amar Rd,,,CA,91789,(909) 598-6534,34.043046,-117.8517,,http://www.staterbros.com/,,Mon,600,2300,Tue,600,2300,Wed,600,2300,Thu,600,2300,Fri,600,2300,Sat,600,2300,Sun,600,2300,,,,
Stater Bros. Markets,375 N Azusa Ave,,,CA,91791,(626) 915-4951,34.07714,-117.909591,,http://www.staterbros.com/,,Mon,600,2300,Tue,600,2300,Wed,600,2300,Thu,600,2300,Fri,600,2300,Sat,600,2300,Sun,600,2300,,,,
Stater Bros. Markets,1025 E Amar Rd,,,CA,91792,(626) 968-6005,34.036455,-117.924966,,http://www.staterbros.com/,,Mon,600,2300,Tue,600,2300,Wed,600,2300,Thu,600,2300,Fri,600,2300,Sat,600,2300,Sun,600,2300,,,,
Stater Bros. Markets,1850 E Ave,,,CA,93535,(661) 948-1885,34.688218,-118.095841,,http://www.staterbros.com/,,Mon,600,2300,Tue,600,2300,Wed,600,2300,Thu,600,2300,Fri,600,2300,Sat,600,2300,Sun,600,2300,,,,
Stater Bros. Markets,2845 W Ave,,,CA,93536,(661) 943-2545,34.661588,-118.182398,,http://www.staterbros.com/,,Mon,600,2300,Tue,600,2300,Wed,600,2300,Thu,600,2300,Fri,600,2300,Sat,600,2300,Sun,600,2300,,,,
Stater Bros. Markets,2535 E Avenue S,,,CA,93550,(661) 266-1076,34.559563,-118.083495,,http://www.staterbros.com/,,Mon,600,2359,Tue,600,2359,Wed,600,2359,Thu,600,2359,Fri,600,2359,Sat,600,2359,Sun,600,2359,,,,
Stater Bros. Markets,37218 47th St E,,,CA,93552,(661) 285-9184,34.559231,-118.04349,,http://www.staterbros.com/,,Mon,600,2359,Tue,600,2359,Wed,600,2359,Thu,600,2359,Fri,600,2359,Sat,600,2359,Sun,600,2359,,,,
Superior Grocers,5824 S Vermont Ave,,,CA,90044,(323) 541-0107,33.988864,-118.291362,,http://www.superiorgrocers.com/,,Mon,600,700,Tue,900,2200,Wed,900,2200,Thu,900,2200,Fri,900,2200,Sat,900,2200,Sun,900,2200,,,,
Superior Grocers,9801 Laurel Canyon Blvd,,,CA,91331,(818) 897-2604,34.247658,-118.420957,,http://www.superiorgrocers.com,,Mon,600,2200,Tue,600,2200,Wed,600,2200,Thu,600,2200,Fri,600,2200,Sat,600,2200,Sun,600,2200,,,,
Superior Grocers,9801 Laurel Canyon Blvd,,,CA,91331,(818) 897-2604,34.247658,-118.420957,,http://www.superiorgrocers.com,,Mon,600,2200,Tue,600,2200,Wed,600,2200,Thu,600,2200,Fri,600,2200,Sat,600,2200,Sun,600,2200,,,,
Superior Grocers,3180 N Garey Ave,,,CA,91767,(909) 392-4695,34.105888,-117.747931,,http://www.superiorgrocers.com/,,Mon,600,2230,Tue,600,2230,Wed,600,2230,Thu,600,2230,Fri,600,2230,Sat,600,2200,Sun,600,2200,,,,
Vallarta Supermarkets,12881 Bradley Ave,,,CA,91342,(818) 898-0088,34.303401,-118.458613,,http://www.vallartasupermarkets.com/,,Mon,600,2300,Tue,600,2300,Wed,600,2300,Thu,600,2300,Fri,600,2300,Sat,600,2300,Sun,600,2300,,,,
Vons,1430 S Fairfax Ave,,,CA,90019,(323) 939-9335,34.050478,-118.36619,,http://www.vons.com/,,Mon,600,2359,Tue,600,2359,Wed,600,2359,Thu,600,2359,Fri,600,2359,Sat,600,2359,Sun,600,2359,,,,
Vons,1342 N Alvarado St,,,CA,90026,(213) 483-5573,34.079517,-118.261279,,http://www.vons.com/,,Mon,600,2359,Tue,600,2359,Wed,600,2359,Thu,600,2359,Fri,600,2359,Sat,600,2359,Sun,600,2359,,,,
Vons,1342 N Alvarado St,,,CA,90026,(213) 483-5573,34.079517,-118.261279,,http://www.vons.com/,,Mon,600,2359,Tue,600,2359,Wed,600,2359,Thu,600,2359,Fri,600,2359,Sat,600,2359,Sun,600,2359,,,,
Vons,9860 National Blvd,,,CA,90034,(310) 836-4161,34.03016,-118.401463,,http://www.vons.com/,,Mon,600,2359,Tue,600,2359,Wed,600,2359,Thu,600,2359,Fri,600,2359,Sat,600,2359,Sun,600,2359,,,,
Vons,6571 W 80th St,,,CA,90045,(310) 641-9423,33.969341,-118.405548,,http://www.vons.com/,,Mon,600,2200,Tue,600,2200,Wed,600,2200,Thu,600,2200,Fri,600,2200,Sat,600,2200,Sun,600,2200,,,,
Vons,1260 W Redondo Beach Blvd,,,CA,90247,(310) 767-7920,33.890924,-118.297885,,http://www.vons.com/,,Mon,600,2359,Tue,600,2359,Wed,600,2359,Thu,600,2359,Fri,600,2359,Sat,600,2359,Sun,600,2359,,,,
Vons,410 Manhattan Beach Blvd,,,CA,90266,(310) 379-3051,33.885062,-118.407903,,http://www.vons.com/,,Mon,600,2200,Tue,600,2200,Wed,600,2200,Thu,600,2200,Fri,600,2200,Sat,600,2200,Sun,600,2200,,,,
Vons,1212 Beryl St,,,CA,90277,(310) 374-7987,33.853952,-118.380225,,http://www.vons.com/,,Mon,600,2359,Tue,600,2359,Wed,600,2359,Thu,600,2359,Fri,600,2359,Sat,600,2359,Sun,600,2359,,,,
Vons,245 Palos Verdes Blvd,,,CA,90277,(310) 378-7434,33.816355,-118.385968,,http://www.vons.com/,,Mon,600,2359,Tue,600,2359,Wed,600,2359,Thu,600,2359,Fri,600,2359,Sat,600,2359,Sun,600,2359,,,,
Vons,4001 Inglewood Ave,,,CA,90278,(310) 349-0860,33.892887,-118.362456,,http://www.vons.com/,,Mon,600,2359,Tue,600,2359,Wed,600,2359,Thu,600,2359,Fri,600,2359,Sat,600,2359,Sun,600,2359,,,,
Vons,1311 Wilshire Blvd,,,CA,90403,(310) 394-1414,34.026498,-118.489861,,http://www.vons.com/,,Mon,600,2359,Tue,600,2359,Wed,600,2359,Thu,600,2359,Fri,600,2359,Sat,600,2359,Sun,600,2359,,,,
Vons,4705 Torrance Blvd,,,CA,90503,(310) 371-1172,33.83837,-118.363514,,http://www.vons.com/,,Mon,600,2359,Tue,600,2359,Wed,600,2359,Thu,600,2359,Fri,600,2359,Sat,600,2359,Sun,600,2359,,,,
Vons,15740 La Forge St,,,CA,90603,(562) 943-0516,33.940905,-117.994355,,http://www.vons.com/,,Mon,600,2300,Tue,600,2300,Wed,600,2300,Thu,600,2300,Fri,600,2300,Sat,600,2300,Sun,600,2300,,,,
Vons,2101 W Imperial Hwy,,,CA,90631,(562) 905-2800,33.918784,-117.969212,,http://www.vons.com/,,Mon,600,2359,Tue,600,2359,Wed,600,2359,Thu,600,2359,Fri,600,2359,Sat,600,2359,Sun,600,2359,,,,
Vons,804 W Beverly Blvd,,,CA,90640,(323) 722-1706,34.020262,-118.106007,,http://www.vons.com/,,Mon,600,2359,Tue,600,2359,Wed,600,2359,Thu,600,2359,Fri,600,2359,Sat,600,2359,Sun,600,2359,,,,
Vons,1221 S Gaffey St,,,CA,90731,(310) 832-7063,33.732893,-118.293612,,http://www.vons.com/,,Mon,600,2359,Tue,600,2359,Wed,600,2359,Thu,600,2359,Fri,600,2359,Sat,600,2359,Sun,600,2359,,,,
Vons,600 E Broadway,,,CA,90802,(562) 491-1210,33.768928,-118.184349,,http://www.vons.com/,,Mon,600,2359,Tue,600,2359,Wed,600,2359,Thu,600,2359,Fri,600,2359,Sat,600,2359,Sun,600,2359,,,,
Vons,3900 E Ocean Blvd,,,CA,90803,(562) 987-3122,33.759913,-118.147335,,http://www.vons.com/,,Mon,600,2359,Tue,600,2359,Wed,600,2359,Thu,600,2359,Fri,600,2359,Sat,600,2359,Sun,600,2359,,,,
Vons,4550 Atlantic Ave,,,CA,90807,(562) 984-1421,33.840971,-118.182753,,http://www.vons.com/,,Mon,600,2359,Tue,600,2359,Wed,600,2359,Thu,600,2359,Fri,600,2359,Sat,600,2359,Sun,600,2359,,,,
Vons,1820 Ximeno Ave,,,CA,90815,(562) 498-2111,33.790393,-118.13732,,http://www.vons.com/,,Mon,600,2359,Tue,600,2359,Wed,600,2359,Thu,600,2359,Fri,600,2359,Sat,600,2359,Sun,600,2359,,,,
Vons,2039 Verdugo Blvd,,,CA,91020,(818) 249-4595,34.205691,-118.221437,,http://www.vons.com/,,Mon,600,2359,Tue,600,2359,Wed,600,2359,Thu,600,2359,Fri,600,2359,Sat,600,2359,Sun,600,2359,,,,
Vons,1129 Fair Oaks Ave,,,CA,91030,(626) 441-3898,34.112878,-118.151401,,http://www.vons.com/,,Mon,600,2300,Tue,600,2300,Wed,600,2300,Thu,600,2300,Fri,600,2300,Sat,600,2300,Sun,600,2300,,,,
Vons,7789 Foothill Blvd,,,CA,91042,(818) 353-4917,34.259133,-118.301436,,http://www.vons.com/,,Mon,600,2359,Tue,600,2359,Wed,600,2359,Thu,600,2359,Fri,600,2359,Sat,600,2359,Sun,600,2359,,,,
Vons,655 N Fair Oaks Ave,,,CA,91103,(626) 578-1233,34.156718,-118.152178,,http://www.vons.com/,,Mon,600,2359,Tue,600,2359,Wed,600,2359,Thu,600,2359,Fri,600,2359,Sat,600,2359,Sun,600,2359,,,,
Vons,1390 N Allen Ave,,,CA,91104,(626) 798-7603,34.170033,-118.111794,,http://www.vons.com/,,Mon,600,2359,Tue,600,2359,Wed,600,2359,Thu,600,2359,Fri,600,2359,Sat,600,2359,Sun,600,2359,,,,
Vons,2355 E Colorado Blvd,,,CA,91107,(626) 744-2615,34.147153,-118.102259,,http://www.vons.com/,,Mon,600,2359,Tue,600,2359,Wed,600,2359,Thu,600,2359,Fri,600,2359,Sat,600,2359,Sun,600,2359,,,,
Vons,311 W Los Feliz Rd,,,CA,91204,(818) 246-7161,34.129469,-118.258562,,http://www.vons.com/,,Mon,600,2359,Tue,600,2359,Wed,600,2359,Thu,600,2359,Fri,600,2359,Sat,600,2359,Sun,600,2359,,,,
Vons,561 N Glendale Ave,,,CA,91206,(818) 242-5926,34.154952,-118.244768,,http://www.vons.com/,,Mon,600,2359,Tue,600,2359,Wed,600,2359,Thu,600,2359,Fri,600,2359,Sat,600,2359,Sun,600,2359,,,,
Vons,5671 Kanan Rd,,,CA,91301,(818) 991-2857,34.153604,-118.759179,,http://www.vons.com/,,Mon,600,2359,Tue,600,2359,Wed,600,2359,Thu,600,2359,Fri,600,2359,Sat,600,2359,Sun,600,2359,,,,
Vons,8201 Topanga Canyon Blvd,,,CA,91304,(818) 703-5959,34.217954,-118.607293,,http://www.vons.com/,,Mon,600,2359,Tue,600,2359,Wed,600,2359,Thu,600,2359,Fri,600,2359,Sat,600,2359,Sun,600,2359,,,,
Vons,24160 Lyons Ave,,,CA,91321,(661) 259-9214,34.377424,-118.557071,,http://www.vons.com/,,Mon,600,2359,Tue,600,2359,Wed,600,2359,Thu,600,2359,Fri,600,2359,Sat,600,2359,Sun,600,2359,,,,
Vons,9119 Reseda Blvd,,,CA,91324,(818) 349-2494,34.236026,-118.537727,,http://www.vons.com/,,Mon,600,2359,Tue,600,2359,Wed,600,2359,Thu,600,2359,Fri,600,2359,Sat,600,2359,Sun,600,2359,,,,
Vons,19333 Victory Blvd,,,CA,91335,(818) 881-7020,34.187701,-118.554454,,http://www.vons.com/,,Mon,600,2359,Tue,600,2359,Wed,600,2359,Thu,600,2359,Fri,600,2359,Sat,600,2359,Sun,600,2359,,,,
Vons,13730 Foothill Blvd,,,CA,91342,(818) 367-1849,34.308341,-118.433143,,http://www.vons.com/,,Mon,600,2300,Tue,600,2300,Wed,600,2300,Thu,600,2300,Fri,600,2300,Sat,600,2300,Sun,600,2300,,,,
Vons,16830 San Fernando Mission Blvd,,,CA,91344,(818) 831-8511,34.270952,-118.498946,,http://www.vons.com/,,Mon,600,2359,Tue,600,2359,Wed,600,2359,Thu,600,2359,Fri,600,2359,Sat,600,2359,Sun,600,2359,,,,
Vons,10321 Sepulveda Blvd,,,CA,91345,(818) 891-1352,34.258039,-118.468367,,http://www.vons.com/,,Mon,600,2359,Tue,600,2359,Wed,600,2359,Thu,600,2359,Fri,600,2359,Sat,600,2359,Sun,600,2359,,,,
Vons,26518 Bouquet Canyon Rd,,,CA,91350,(661) 296-0031,34.426954,-118.535219,,http://www.vons.com/,,Mon,600,2359,Tue,600,2359,Wed,600,2359,Thu,600,2359,Fri,600,2359,Sat,600,2359,Sun,600,2359,,,,
Vons,18439 Ventura Blvd,,,CA,91356,(818) 881-5527,34.168995,-118.53412,,http://www.vons.com/,,Mon,600,2359,Tue,600,2359,Wed,600,2359,Thu,600,2359,Fri,600,2359,Sat,600,2359,Sun,600,2359,,,,
Vons,2725 Agoura Rd,,,CA,91361,(805) 497-1921,34.152016,-118.825855,,http://www.vons.com/,,Mon,600,2300,Tue,600,2300,Wed,600,2300,Thu,600,2300,Fri,600,2300,Sat,600,2300,Sun,600,2300,,,,
Vons,2048 De Los Avda,,,CA,91362,(805) 492-2497,34.209922,-118.840752,,http://www.vons.com/,,Mon,600,2359,Tue,600,2359,Wed,600,2359,Thu,600,2359,Fri,600,2359,Sat,600,2359,Sun,600,2200,,,,
Vons,16550 Soledad Canyon Rd,,,CA,91387,(661) 252-3838,34.425517,-118.425009,,http://www.vons.com/,,Mon,600,2359,Tue,600,2359,Wed,600,2359,Thu,600,2359,Fri,600,2359,Sat,600,2359,Sun,600,2359,,,,
Vons,932 E Badillo St,,,CA,91724,(626) 967-0072,34.085141,-117.871443,,http://www.vons.com/,,Mon,600,2359,Tue,600,2359,Wed,600,2359,Thu,600,2359,Fri,600,2359,Sat,600,2359,Sun,600,2359,,,,
Vons,431 E Arrow Hwy,,,CA,91740,(626) 914-6015,34.107856,-117.856481,,http://www.vons.com/,,Mon,600,2300,Tue,600,2300,Wed,600,2300,Thu,600,2300,Fri,600,2300,Sat,600,2300,Sun,600,2300,,,,
Vons,2122 S Hacienda Blvd,,,CA,91745,(626) 330-4216,33.995023,-117.967317,,http://www.vons.com/,,Mon,600,2359,Tue,600,2359,Wed,600,2359,Thu,600,2359,Fri,600,2359,Sat,600,2359,Sun,600,2359,,,,
Vons,1160 Via Verde,,,CA,91773,(909) 592-3261,34.072543,-117.828969,,http://www.vons.com/,,Mon,600,2300,Tue,600,2300,Wed,600,2300,Thu,600,2300,Fri,600,2300,Sat,600,2300,Sun,600,2300,,,,
Vons,350 N Lemon Ave,,,CA,91789,(909) 595-6465,34.019572,-117.863948,,http://www.vons.com/,,Mon,600,2359,Tue,600,2359,Wed,600,2359,Thu,600,2359,Fri,600,2359,Sat,600,2359,Sun,600,2359,,,,
Vons,777 S Glendora Ave,,,CA,91790,(626) 337-5615,34.06226,-117.931898,,http://www.vons.com/,,Mon,600,2300,Tue,600,2300,Wed,600,2300,Thu,600,2300,Fri,600,2300,Sat,600,2300,Sun,600,2300,,,,
Vons,780 N Brea Blvd,,,CA,92821,(714) 529-4941,33.930582,-117.893086,,http://www.vons.com/,,Mon,600,2359,Tue,600,2359,Wed,600,2359,Thu,600,2359,Fri,600,2359,Sat,600,2359,Sun,600,2359,,,,
Vons Food and Pharmacy,2310 E Colorado Blvd,,,CA,91107,(626) 844-0096,34.145972,-118.102811,,http://vons.com/,,Mon,600,1200,Tue,600,1200,Wed,600,1200,Thu,600,1200,Fri,600,1200,Sat,600,1200,Sun,600,1200,,,,
Vallarta Supermarket,13820 Foothill Blvd,,,CA,91342,(818) 362-7577,34.310376,-118.434979,,http://www.vallartasupermarkets.com,,Mon,630,2300,Tue,630,2300,Wed,630,2300,Thu,630,2300,Fri,630,2300,Sat,630,2300,Sun,630,2300,,,,
Vallarta Supermarket,18571 Soledad Canyon Rd,,,CA,91351,(661) 347-7390,34.416291,-118.457714,,http://www.vallartasupermarkets.com/,,Mon,630,2300,Tue,630,2300,Wed,630,2300,Thu,630,2300,Fri,630,2300,Sat,630,2300,Sun,630,2300,,,,
Vallarta Supermarket,23449 Lyons Ave,,,CA,91355,(661) 260-1110,34.380193,-118.543309,,http://www.vallartasupermarkets.com/,,Mon,630,2300,Tue,630,2300,Wed,630,2300,Thu,630,2300,Fri,630,2300,Sat,630,2300,Sun,630,2300,,,,
Vallarta Supermarket,10950 Sherman Way,,,CA,91505,(818) 846-1717,34.200509,-118.368698,,http://www.vallartasupermarkets.com/,,Mon,630,2300,Tue,630,2300,Wed,630,2300,Thu,630,2300,Fri,630,2300,Sat,630,2300,Sun,630,2300,,,,
Vallarta Supermarket,10859 Oxnard St,,,CA,91606,(818) 509-2932,34.180154,-118.367732,,http://www.vallartasupermarkets.com/,,Mon,630,2300,Tue,630,2300,Wed,630,2300,Thu,630,2300,Fri,630,2300,Sat,630,2300,Sun,630,2300,,,,
Vallarta Supermarket,13051 Victory Blvd,,,CA,91606,(818) 760-7021,34.188643,-118.417369,,http://www.vallartasupermarkets.com/,,Mon,630,2300,Tue,630,2300,Wed,630,2300,Thu,630,2300,Fri,630,2300,Sat,630,2300,Sun,630,2300,,,,
Vallarta Supermarkets,757 S Workman St,,,CA,91340,(818) 365-2301,34.282605,-118.452548,,http://www.vallartasupermarkets.com/,,Mon,630,2300,Tue,630,2300,Wed,630,2300,Thu,630,2300,Fri,630,2300,Sat,630,2300,Sun,630,2300,,,,
Albertsons,1800 W Whittier Blvd,,,CA,90631,(562) 697-6442,33.938491,-117.966288,,http://www.albertsons.com,,Mon,700,2300,Tue,700,2300,Wed,700,2300,Thu,700,2300,Fri,700,2300,Sat,700,2300,Sun,700,2300,,,,
Albertsons,3841 E Sierra Madre Blvd,,,CA,91107,(626) 351-0076,34.162549,-118.069395,,http://www.albertsons.com,,Mon,700,2200,Tue,700,2200,Wed,700,2200,Thu,700,2200,Fri,700,2200,Sat,700,2200,Sun,700,2200,,,,
Albertsons,23850 Copperhill Dr,,,CA,91354,(661) 775-0163,34.462145,-118.556618,,http://www.albertsons.com,,Mon,700,2300,Tue,700,2300,Wed,700,2300,Thu,700,2300,Fri,700,2300,Sat,700,2300,Sun,700,2300,,,,
Albertsons,1736 E Avenida De Los Arboles,,,CA,91362,(805) 493-1551,34.209932,-118.846068,,http://www.albertsons.com/,,Mon,700,2300,Tue,700,2300,Wed,700,2300,Thu,700,2300,Fri,700,2300,Sat,700,2300,Sun,700,2300,,,,
Albertsons,1235 S Diamond Bar Blvd,,,CA,91765,(909) 861-6207,34.000335,-117.812871,,http://www.albertsons.com,,Mon,700,2300,Tue,700,2300,Wed,700,2300,Thu,700,2300,Fri,700,2300,Sat,700,2300,Sun,700,2300,,,,
Albertsons,220 E Bonita Ave,,,CA,91773,(909) 599-8836,34.105927,-117.803449,,http://www.albertsons.com,,Mon,700,2300,Tue,700,2300,Wed,700,2300,Thu,700,2300,Fri,700,2300,Sat,700,2300,Sun,700,2300,,,,
Albertsons,2630 E Workman Ave,,,CA,91791,(626) 331-5532,34.07467,-117.888738,,http://www.albertsons.com,,Mon,700,2300,Tue,700,2300,Wed,700,2300,Thu,700,2300,Fri,700,2300,Sat,700,2300,Sun,700,2300,,,,
Albertsons,5038 W Avenue N,,,CA,93551,(661) 718-3732,34.629431,-118.22037,,http://www.albertsons.com,,Mon,700,2300,Tue,700,2300,Wed,700,2300,Thu,700,2300,Fri,700,2300,Sat,700,2300,Sun,700,2300,,,,
Big Saver Foods,5829 Compton Ave,,,CA,90001,(323) 582-8295,33.988979,-118.24792,,http://www.bigsaverfoods.com/,,Mon,700,2200,Tue,700,2200,Wed,700,2200,Thu,700,2200,Fri,700,2200,Sat,700,2200,Sun,700,2200,,,,
Big Saver Foods,3000 N Broadway,,,CA,90031,(323) 222-3524,34.073543,-118.210131,,http://bigsaverfoods.com,,Mon,700,2200,Tue,700,2200,Wed,700,2200,Thu,700,2200,Fri,700,2200,Sat,700,2200,Sun,700,2200,,,,
Big Saver Foods,5168 Huntington Dr S,,,CA,90032,(323) 222-9130,34.08908,-118.170043,,http://www.bigsaverfoods.com/,,Mon,700,2200,Tue,700,2200,Wed,700,2200,Thu,700,2200,Fri,700,2200,Sat,700,2200,Sun,700,2200,,,,
Big Saver Foods,4260 Charter St,,,CA,90058,(323) 582-7222,34.003993,-118.201989,,http://www.bigsaverfoods.com,,Mon,700,2200,Tue,700,2200,Wed,700,2200,Thu,700,2200,Fri,700,2200,Sat,700,2200,Sun,700,2200,,,,
Big Saver Foods,2619 N Figueroa St,,,CA,90065,(323) 222-0113,34.084767,-118.222224,,http://bigsaverfoods.com,,Mon,700,2200,Tue,700,2200,Wed,700,2200,Thu,700,2200,Fri,700,2200,Sat,700,2200,Sun,700,2200,,,,
Big Saver Foods,14310 Hawthorne Blvd,,,CA,90260,(310) 331-4558,33.90148,-118.351206,,http://www.bigsaverfoods.com/,,Mon,700,2200,Tue,700,2200,Wed,700,2200,Thu,700,2200,Fri,700,2200,Sat,700,2200,Sun,700,2200,,,,
Big Saver Foods,9406 Washington Blvd,,,CA,90660,(562) 949-6299,33.979077,-118.089838,,http://www.bigsaverfoods.com/,,Mon,700,2200,Tue,700,2200,Wed,700,2200,Thu,700,2200,Fri,700,2200,Sat,700,2130,Sun,700,2100,,,,
Big Saver Foods,16000 Woodruff Ave,,,CA,90706,(562) 920-7912,33.888681,-118.116563,,http://www.bigsaverfoods.com/,,Mon,700,2200,Tue,700,2200,Wed,700,2200,Thu,700,2200,Fri,700,2200,Sat,700,2200,Sun,700,2200,,,,
Big Saver Foods,2300 E 7th St,,,CA,90804,(562) 438-4499,33.775133,-118.164475,,http://www.bigsaverfoods.com/,,Mon,700,2200,Tue,700,2200,Wed,700,2200,Thu,700,2200,Fri,700,2200,Sat,700,2200,Sun,700,2200,,,,
Big Saver Foods,1313 E Artesia Blvd,,,CA,90805,(562) 423-2800,33.874874,-118.176054,,http://www.bigsaverfoods.com,,Mon,700,2200,Tue,700,2200,Wed,700,2200,Thu,700,2200,Fri,700,2200,Sat,700,2200,Sun,700,2200,,,,
Big Saver Foods,1500 W Willow St,,,CA,90810,(562) 595-7595,33.803773,-118.212604,,http://www.bigsaverfoods.com/,,Mon,700,2200,Tue,700,2200,Wed,700,2200,Thu,700,2200,Fri,700,2200,Sat,700,2200,Sun,700,2200,,,,
Big Saver Foods,7619 Garvey Ave,,,CA,91770,(626) 571-7816,34.063082,-118.103227,,http://www.bigsaverfoods.com/,,Mon,700,2200,Tue,700,2200,Wed,700,2200,Thu,700,2200,Fri,700,2200,Sat,700,2200,Sun,700,2200,,,,
Bristol Farms,1700 S Pacific Coast Hwy,,,CA,90277,(310) 303-3922,33.81855,-118.382463,,http://www.bristolfarms.com,,Mon,700,1900,Tue,700,1900,Wed,700,1900,Thu,700,1900,Fri,700,1900,Sat,800,1900,Sun,800,1800,,,,
Bristol Farms,915 E 230th St,,,CA,90745,(310) 233-4700,33.81777,-118.258255,,http://www.bristolfarms.com,,Mon,700,2200,Tue,700,2200,Wed,700,2200,Thu,700,2200,Fri,700,2200,Sat,700,2130,Sun,700,2100,,,,
Bristol Farms,1570 Rosecrans Ave,,,CA,90266,(310) 643-5229,33.900532,-118.385259,,http://www.bristolfarms.com/locations_detail.php?loc=67,,Mon,700,2200,Tue,700,2200,Wed,700,2200,Thu,700,2200,Fri,700,2200,Sat,700,2200,Sun,700,2200,,,,
Bristol Farms,837 Silver Spur Rd,,,CA,90274,(310) 541-9157,33.769719,-118.367871,,http://www.bristolfarms.com/locations_detail.php?loc=69,,Mon,700,2100,Tue,700,2100,Wed,700,2100,Thu,700,2100,Fri,700,2100,Sat,700,2100,Sun,700,2100,,,,
Bristol Farms,606 Fair Oaks Ave,,,CA,91030,(626) 441-5450,34.118585,-118.149728,,http://www.bristolfarms.com/locations_detail.php?loc=70,,Mon,700,2200,Tue,700,2200,Wed,700,2200,Thu,700,2200,Fri,700,2200,Sat,700,2200,Sun,700,2200,,,,
Bristol Farms,9039 Beverly Blvd,,,CA,90048,(310) 248-2804,34.077563,-118.389234,,http://www.bristolfarms.com/locations_detail.php?loc=64,,Mon,700,2300,Tue,700,2300,Wed,700,2300,Thu,700,2300,Fri,700,2300,Sat,700,2300,Sun,700,2300,,,,
Bristol Farms,8448 Lincoln Blvd,,,CA,90045,(310) 410-0593,33.961234,-118.419806,,http://www.bristolfarms.com/locations_detail.php?loc=71,,Mon,700,2200,Tue,700,2200,Wed,700,2200,Thu,700,2200,Fri,700,2200,Sat,700,2200,Sun,700,2200,,,,
El Super,5646 Whittier Blvd,,,CA,90022,(323) 720-5060,34.01816,-118.149074,,http://elsupermarkets.com/,,Mon,700,2300,Tue,700,2300,Wed,700,2300,Thu,700,2300,Fri,700,2300,Sat,700,2300,Sun,700,2300,,,,
El Super,5610 York Blvd,,,CA,90042,(323) 916-8218,34.119148,-118.196284,,http://www.elsupermarkets.com,,Mon,700,2300,Tue,700,2300,Wed,700,2300,Thu,700,2300,Fri,700,2300,Sat,700,2300,Sun,700,2300,,,,
El Super,6203 Gage Ave,,,CA,90201,(323) 560-1148,33.974499,-118.15247,,,,Mon,700,900,Tue,700,900,Wed,700,900,Thu,700,900,Fri,700,900,Sat,700,900,Sun,700,900,,,,
El Super,7000 S Alameda St,,,CA,90255,(323) 983-7777,33.975529,-118.234116,,http://elsupermarkets.com/,,Mon,700,2200,Tue,700,2200,Wed,700,2200,Thu,700,2200,Fri,700,2200,Sat,700,2130,Sun,700,2100,,,,
El Super,15202 Hawthorne Blvd,,,CA,90260,(310) 848-1930,33.892956,-118.351998,,http://elsupermarkets.com/,,Mon,700,2300,Tue,700,2300,Wed,700,2300,Thu,700,2300,Fri,700,2300,Sat,700,2300,Sun,700,2300,,,,
El Super,3211 Firestone Blvd,,,CA,90280,(323) 973-4727,33.955873,-118.212804,,http://elsupermarkets.com/,,Mon,700,2200,Tue,700,2200,Wed,700,2200,Thu,700,2200,Fri,700,2200,Sat,700,2200,Sun,700,2200,,,,
El Super,3321 W Century Blvd,,,CA,90303,(310) 672-3210,33.94648,-118.330521,,http://www.elsupermarkets.com/,,Mon,700,2300,Tue,700,2300,Wed,700,2300,Thu,700,2300,Fri,700,2300,Sat,700,2300,Sun,700,2300,,,,
El Super,14601 Lakewood Blvd,,,CA,90723,(562) 748-0221,33.900689,-118.144867,,http://www.elsupermarkets.com,,Mon,700,2200,Tue,700,2200,Wed,700,2200,Thu,700,2200,Fri,700,2200,Sat,700,2130,Sun,700,2100,,,,
El Super,120 W Anaheim St,,,CA,90744,(310) 513-4270,33.779687,-118.262991,,http://www.elsupermarkets.com/,,Mon,700,2200,Tue,700,2200,Wed,700,2200,Thu,700,2200,Fri,700,2200,Sat,700,2200,Sun,700,2200,,,,
El Super,450 Long Beach Blvd,,,CA,90802,(562) 257-1574,33.772805,-118.188479,,http://elsupermarkets.com/,,Mon,700,2300,Tue,700,2300,Wed,700,2300,Thu,700,2300,Fri,700,2300,Sat,700,2300,Sun,700,2300,,,,
El Super,315 San Fernando Mission Blvd,,,CA,91340,(818) 336-5081,34.283741,-118.443967,,http://elsupermarkets.com/,,Mon,700,2300,Tue,700,2300,Wed,700,2300,Thu,700,2300,Fri,700,2300,Sat,700,2300,Sun,700,2300,,,,
El Super,960 W Arrow Hwy,,,CA,91722,(626) 334-4261,34.106191,-117.908988,,http://www.elsupermarkets.com,,Mon,700,2200,Tue,700,2200,Wed,700,2200,Thu,700,2200,Fri,700,2200,Sat,700,2200,Sun,700,2200,,,,
El Super,1285 N Hacienda Blvd,,,CA,91744,(626) 869-5124,34.044336,-117.950836,,http://www.elsupermarkets.com,,Mon,700,2200,Tue,700,2200,Wed,700,2200,Thu,700,2200,Fri,700,2200,Sat,700,2200,Sun,700,2200,,,,
El Super,1575 E Holt Ave,,,CA,91767,(909) 461-4179,34.064034,-117.719783,,http://www.elsupermarkets.com,,Mon,700,1700,Tue,700,1700,Wed,700,1700,Thu,700,1700,Fri,700,1700,Sat,700,1700,Sun,700,1700,,,,
El Super,1100 W Slauson Ave,,,CA,90044,(323) 565-4005,33.988972,-118.293833,,http://www.elsupermarkets.com/,,Mon,700,2200,Tue,700,2200,Wed,700,2200,Thu,700,2200,Fri,700,2200,Sat,700,2200,Sun,700,2200,,,,
Family Market,4304 Floral Dr,,,CA,90022,(323) 261-8445,34.044048,-118.173407,,,,Mon,700,2200,Tue,700,2200,Wed,700,2200,Thu,700,2200,Fri,700,2200,Sat,700,2130,Sun,700,2100,,,,
Family Market,2426 W 8th St,,,CA,90057,(213) 385-7381,34.056411,-118.281637,,,,Mon,700,2200,Tue,700,2200,Wed,700,2200,Thu,700,2200,Fri,700,2200,Sat,700,2130,Sun,700,2100,,,,
Food 4 Less,1651 E 103rd St,,,CA,90002,(323) 564-3753,33.944813,-118.243947,,http://www.food4less.com/,,Mon,700,2200,Tue,700,2200,Wed,700,2200,Thu,700,2200,Fri,700,2200,Sat,700,2200,Sun,700,2200,,,,
Food 4 Less,5318 S Main St,,,CA,90037,(323) 846-8895,33.993947,-118.273383,,http://www.food4less.com/,,Mon,700,2200,Tue,700,2200,Wed,700,2200,Thu,700,2200,Fri,700,2200,Sat,700,2200,Sun,700,2200,,,,
Gelson's Market,2725 Hyperion Ave,,,CA,90027,(323) 660-0387,34.107961,-118.272572,,http://gelsons.com,,Mon,700,2359,Tue,700,2359,Wed,700,2359,Thu,700,2359,Fri,700,2359,Sat,700,2359,Sun,700,2359,,,,
Gelson's Market,5877 Franklin Ave,,,CA,90028,(323) 464-7316,34.105741,-118.317564,,http://gelsons.com/store-locations/hollywood,,Mon,700,2359,Tue,700,2359,Wed,700,2359,Thu,700,2359,Fri,700,2359,Sat,700,2359,Sun,700,2359,,,,
Gelson's Market,10250 Santa Monica Blvd,,,CA,90067,(310) 277-4288,34.057638,-118.418296,,http://gelsons.com,,Mon,700,2300,Tue,700,2300,Wed,700,2300,Thu,700,2300,Fri,700,2300,Sat,700,2300,Sun,700,2300,,,,
Gelson's Market,8330 Santa Monica Blvd,,,CA,90069,(323) 656-5580,34.090522,-118.371347,,http://gelsons.com/store-locations/west-hollywood,,Mon,700,2359,Tue,700,2359,Wed,700,2359,Thu,700,2359,Fri,700,2359,Sat,700,2359,Sun,700,2359,,,,
Gelson's Market,15424 W Sunset Blvd,,,CA,90272,(310) 459-4483,34.048013,-118.527967,,http://gelsons.com/store-locations/pacific-palisades,,Mon,700,2200,Tue,700,2200,Wed,700,2200,Thu,700,2200,Fri,700,2200,Sat,700,2200,Sun,700,2200,,,,
Gelson's Market,13455 Maxella Ave,,,CA,90292,(310) 306-2952,33.987509,-118.441238,,http://gelsons.com/store-locations/marina-del-rey,,Mon,700,2200,Tue,700,2200,Wed,700,2200,Thu,700,2200,Fri,700,2200,Sat,700,2200,Sun,700,2200,,,,
Gelson's Market,6255 E 2nd St,,,CA,90803,(562) 430-6042,33.7584,-118.112941,,http://gelsons.com/store-locations/long-beach,,Mon,700,2200,Tue,700,2200,Wed,700,2200,Thu,700,2200,Fri,700,2200,Sat,700,2200,Sun,700,2200,,,,
Gelson's Market,22277 Mulholland Hwy,,,CA,91302,(818) 906-6228,34.147142,-118.612907,,http://gelsons.com/store-locations/calabasas,,Mon,700,2200,Tue,700,2200,Wed,700,2200,Thu,700,2200,Fri,700,2200,Sat,700,2200,Sun,700,2200,,,,
Gelson's Market,5500 Reseda Blvd,,,CA,91356,(818) 906-5752,34.170372,-118.535148,,http://gelsons.com/store-locations/tarzana,,Mon,700,2200,Tue,700,2200,Wed,700,2200,Thu,700,2200,Fri,700,2200,Sat,700,2200,Sun,700,2200,,,,
Gelson's Market,2734 Townsgate Rd,,,CA,91361,(805) 496-0353,34.15269,-118.825229,,http://gelsons.com/store-locations/westlake-village,,Mon,700,2200,Tue,700,2200,Wed,700,2200,Thu,700,2200,Fri,700,2200,Sat,700,2200,Sun,700,2200,,,,
Gelson's Market,4520 Van Nuys Blvd,,,CA,91403,(818) 377-4140,34.153895,-118.447801,,http://gelsons.com/store-locations/sherman-oaks,,Mon,700,2300,Tue,700,2300,Wed,700,2300,Thu,700,2300,Fri,700,2300,Sat,700,2300,Sun,700,2300,,,,
Gelson's Market,16450 Ventura Blvd,,,CA,91436,(818) 906-5780,34.156939,-118.491863,,http://gelsons.com/store-locations/encino,,Mon,700,2200,Tue,700,2200,Wed,700,2200,Thu,700,2200,Fri,700,2200,Sat,700,2200,Sun,700,2200,,,,
Gelson's Market,4738 Laurel Canyon Blvd,,,CA,91607,(818) 906-5743,34.156534,-118.396135,,http://gelsons.com/store-locations/valley-village/noho,,Mon,700,2300,Tue,700,2300,Wed,700,2300,Thu,700,2300,Fri,700,2300,Sat,700,2300,Sun,700,2300,,,,
Gelsons Market,635 Foothill Blvd,,,CA,91011,(818) 790-0563,34.201948,-118.192497,,http://gelsons.com,,Mon,700,2200,Tue,700,2200,Wed,700,2200,Thu,700,2200,Fri,700,2200,Sat,700,2200,Sun,700,2200,,,,
Island Pacific Supermarket,20922 Roscoe Blvd,,,CA,91304,(818) 857-3400,34.219338,-118.589369,,http://www.islandpacificmarket.com/,,Mon,700,2200,Tue,700,2200,Wed,700,2200,Thu,700,2200,Fri,700,2200,Sat,700,2000,Sun,700,2000,,,,
Island Pacific Supermarket,1512 E Amar Rd,,,CA,91792,(626) 964-4858,34.030979,-117.914325,,http://www.islandpacificmarket.com/,,Mon,700,2200,Tue,700,2200,Wed,700,2200,Thu,700,2200,Fri,700,2200,Sat,700,2130,Sun,700,2100,,,,
Jons Marketplace,3334 W 8th St,,,CA,90005,(213) 383-6891,34.057532,-118.3014,,http://www.jonsmarketplace.com/,,Mon,700,2200,Tue,700,2200,Wed,700,2200,Thu,700,2200,Fri,700,2200,Sat,700,2130,Sun,700,2100,,,,
Jons Marketplace,5315 Santa Monica Blvd,,,CA,90029,(323) 461-9382,34.091151,-118.305012,,http://www.jonsmarketplace.com,,Mon,700,2300,Tue,700,2300,Wed,700,2300,Thu,700,2300,Fri,700,2300,Sat,700,2300,Sun,700,2300,,,,
Jons Marketplace,1717 W Glenoaks Blvd,,,CA,91201,(818) 244-2575,34.171622,-118.290043,,http://www.jonsmarketplace.com/,,Mon,700,2300,Tue,700,2300,Wed,700,2300,Thu,700,2300,Fri,700,2300,Sat,700,2300,Sun,700,2300,,,,
Jons Marketplace,1717 W Glenoaks Blvd,,,CA,91201,(818) 244-2575,34.171622,-118.290043,,http://www.jonsmarketplace.com/,,Mon,700,2300,Tue,700,2300,Wed,700,2300,Thu,700,2300,Fri,700,2300,Sat,700,2300,Sun,700,2300,,,,
Jons Marketplace,1717 W Glenoaks Blvd,,,CA,91201,(818) 244-2575,34.171622,-118.290043,,http://www.jonsmarketplace.com/,,Mon,700,2300,Tue,700,2300,Wed,700,2300,Thu,700,2300,Fri,700,2300,Sat,700,2300,Sun,700,2300,,,,
Jons Marketplace,20151 Roscoe Blvd,,,CA,91306,(818) 576-0477,34.220399,-118.572512,,http://www.jonsmarketplace.com,,Mon,700,2300,Tue,700,2300,Wed,700,2300,Thu,700,2300,Fri,700,2300,Sat,700,2300,Sun,700,2300,,,,
Jons Marketplace,6655 Van Nuys Blvd,,,CA,91405,(818) 781-1772,34.192232,-118.449549,,http://www.jonsmarketplace.com,,Mon,700,2300,Tue,700,2300,Wed,700,2300,Thu,700,2300,Fri,700,2300,Sat,700,2300,Sun,700,2300,,,,
Jons Marketplace,12122 Magnolia Blvd,,,CA,91607,(818) 985-4780,34.164498,-118.397409,,http://www.jonsmarketplace.com/,,Mon,700,2300,Tue,700,2300,Wed,700,2300,Thu,700,2300,Fri,700,2300,Sat,700,2300,Sun,700,2300,,,,
Jons Marketplace 24,18135 Sherman Way,,,CA,91335,(818) 758-3422,34.201893,-118.52901,,http://www.jonsmarketplace.com/,,Mon,700,2300,Tue,700,2300,Wed,700,2300,Thu,700,2300,Fri,700,2300,Sat,700,2300,Sun,700,2300,,,,
Lassens Natural Foods,2080 Hillhurst Ave,,,CA,90027,(323) 660-0052,34.109748,-118.287169,,http://www.lassens.com,,Mon,700,2200,Tue,700,2200,Wed,700,2200,Thu,700,2200,Fri,700,2200,Sat,700,2200,Sun,,,,,,
Lassens Natural Foods & Vitamins,1631 W Sunset Blvd,,,CA,90026,(213) 542-6535,34.077617,-118.257703,,http://lassens.com,,Mon,700,2200,Tue,700,2200,Wed,700,2200,Thu,700,2200,Fri,700,2200,Sat,700,2200,Sun,,,,,,
Lassens Natural Foods & Vitamins,1631 W Sunset Blvd,,,CA,90026,(213) 542-6535,34.077617,-118.257703,,http://lassens.com,,Mon,700,2200,Tue,700,2200,Wed,700,2200,Thu,700,2200,Fri,700,2200,Sat,700,2200,Sun,,,,,,
Numero Uno Market,1831 W 3rd St,,,CA,90057,(213) 989-0950,34.061874,-118.269745,,http://www.numerounomarkets.com/,,Mon,700,2200,Tue,700,2200,Wed,700,2200,Thu,700,2200,Fri,700,2200,Sat,700,2200,Sun,700,2200,,,,
Payless Foods,12301 Norwalk Blvd,,,CA,90650,(562) 929-2255,33.919695,-118.073086,,http://www.paylessfoods.com/,,Mon,700,2200,Tue,700,2200,Wed,700,2200,Thu,700,2200,Fri,700,2200,Sat,700,2200,Sun,700,2200,,,,
Ralphs,3455 Sepulveda Blvd,,,CA,90505,(310) 542-1639,33.828111,-118.34563,,http://www.ralphs.com/,,Mon,700,2359,Tue,0,100,Wed,0,100,Thu,0,100,Fri,0,100,Sat,0,100,Sun,0,100,,,,
Ralphs,27760 McBean Pkwy,,,CA,91354,(661) 263-7690,34.445817,-118.552015,,http://www.ralphs.com/,,Mon,700,2359,Tue,700,2359,Wed,700,2359,Thu,700,2359,Fri,700,2359,Sat,700,2359,Sun,600,2359,,,,
Ralphs,6657 Laurel Canyon Blvd,,,CA,91606,(818) 765-2770,34.191782,-118.397496,,http://www.ralphs.com/,,Mon,700,2359,Tue,700,2359,Wed,700,2359,Thu,700,2359,Fri,700,2359,Sat,700,2359,Sun,700,2359,,,,
Smart & Final,5700 E Olympic Blvd,,,CA,90022,(323) 888-4204,34.013946,-118.14825,,http://www.smartandfinal.com/,,Mon,700,2100,Tue,700,2100,Wed,700,2100,Thu,700,2100,Fri,700,2100,Sat,700,2100,Sun,700,2100,,,,
Smart & Final,2308 E 4th St,,,CA,90033,(323) 268-9179,34.041046,-118.212924,,http://locations.smartandfinal.com/CA/LOS-ANGELES/345/,,Mon,700,2100,Tue,700,2100,Wed,700,2100,Thu,700,2100,Fri,700,2100,Sat,700,2100,Sun,700,2100,,,,
Smart & Final,5555 Wilshire Blvd,,,CA,90036,(323) 939-0946,34.062732,-118.349608,,http://locations.smartandfinal.com/CA/LOS-ANGELES/371/,,Mon,700,2200,Tue,700,2200,Wed,700,2200,Thu,700,2200,Fri,700,2200,Sat,700,2200,Sun,700,2200,,,,
Smart & Final,5500 Sheila St,,,CA,90040,(323) 725-0791,33.999759,-118.161353,,http://smartandfinal.com,,Mon,700,2100,Tue,700,2100,Wed,700,2100,Thu,700,2100,Fri,700,2100,Sat,700,2100,Sun,700,2100,,,,
Smart & Final,6060 N Figueroa St,,,CA,90042,(323) 258-2199,34.111519,-118.188089,,http://locations.smartandfinal.com/CA/HIGHLAND-PARK/413/,,Mon,700,2100,Tue,700,2100,Wed,700,2100,Thu,700,2100,Fri,700,2100,Sat,700,2100,Sun,700,2100,,,,
Smart & Final,332 S Pacific Coast Hwy,,,CA,90277,(310) 540-7344,33.836938,-118.385195,,http://locations.smartandfinal.com/CA/REDONDO-BEACH/322/,,Mon,700,2100,Tue,700,2100,Wed,700,2100,Thu,700,2100,Fri,700,2100,Sat,700,2100,Sun,700,2100,,,,
Smart & Final,10935 Firestone Blvd,,,CA,90650,(562) 863-7057,33.923274,-118.100298,,http://locations.smartandfinal.com/CA/NORWALK/325/,,Mon,700,2100,Tue,700,2100,Wed,700,2100,Thu,700,2100,Fri,700,2100,Sat,700,2100,Sun,700,2100,,,,
Smart & Final,20410 S Susana Rd,,,CA,90810,(310) 762-2536,33.846369,-118.206426,,http://locations.smartandfinal.com/CA/CARSON/369/,,Mon,700,2100,Tue,700,2100,Wed,700,2100,Thu,700,2100,Fri,700,2100,Sat,700,2100,Sun,700,2100,,,,
Smart & Final,23640B Lyons Ave,,,CA,91321,(661) 255-9822,34.378969,-118.548044,,http://locations.smartandfinal.com/CA/SANTA-CLARITA/468/,,Mon,700,2100,Tue,700,2100,Wed,700,2100,Thu,700,2100,Fri,700,2100,Sat,700,2100,Sun,700,2100,,,,
Smart & Final,10893 San Fernando Rd,,,CA,91331,(818) 896-6212,34.268051,-118.42468,,http://locations.smartandfinal.com/CA/PACOIMA/372/,,Mon,700,2100,Tue,700,2100,Wed,700,2100,Thu,700,2100,Fri,700,2100,Sat,700,2100,Sun,700,2100,,,,
Smart & Final,10893 San Fernando Rd,,,CA,91331,(818) 896-6212,34.268051,-118.42468,,http://locations.smartandfinal.com/CA/PACOIMA/372/,,Mon,700,2100,Tue,700,2100,Wed,700,2100,Thu,700,2100,Fri,700,2100,Sat,700,2100,Sun,700,2100,,,,
Smart & Final,18204 Gale Ave,,,CA,91748,(626) 965-0483,33.994894,-117.908609,,http://locations.smartandfinal.com/CA/CITY-OF-INDUSTRY/472/,,Mon,700,2100,Tue,700,2100,Wed,700,2100,Thu,700,2100,Fri,700,2100,Sat,700,2100,Sun,700,2100,,,,
Sprouts Farmers Market,4230 Pacific Coast Hwy,,,CA,90505,(424) 903-7062,33.806655,-118.358995,,http://www.sprouts.com,,Mon,700,2200,Tue,700,2200,Wed,700,2200,Thu,700,2200,Fri,700,2200,Sat,700,2200,Sun,700,2200,,,,
Sprouts Farmers Market,4253 Woodruff Ave,,,CA,90713,(562) 739-2541,33.835592,-118.117663,,http://www.sprouts.com,,Mon,700,2200,Tue,700,2200,Wed,700,2200,Thu,700,2200,Fri,700,2200,Sat,700,2200,Sun,700,2200,,,,
Sprouts Farmers Market,1012 S Westlake Blvd,,,CA,91361,(805) 917-4200,34.152235,-118.827136,,http://www.sprouts.com,,Mon,700,2200,Tue,700,2200,Wed,700,2200,Thu,700,2200,Fri,700,2200,Sat,700,2200,Sun,700,2200,,,,
Sprouts Farmers Market,1011 N San Fernando Blvd,,,CA,91504,(818) 566-4089,34.187162,-118.318639,,http://www.sprouts.com,,Mon,700,2200,Tue,700,2200,Wed,700,2200,Thu,700,2200,Fri,700,2200,Sat,700,2200,Sun,700,2200,,,,
Sprouts Farmers Market,735 E Birch St,,,CA,92821,(714) 482-1000,33.918837,-117.889324,,http://www.sprouts.com,,Mon,700,2200,Tue,700,2200,Wed,700,2200,Thu,700,2200,Fri,700,2200,Sat,700,2200,Sun,700,2200,,,,
Super A Foods,7200 Dominion Cir,,,CA,90040,(323) 869-0600,33.977118,-118.136589,,http://superafoods.com,,Mon,700,2200,Tue,700,2200,Wed,700,2200,Thu,700,2200,Fri,700,2200,Sat,700,2130,Sun,700,2100,,,,
Super A Foods,2245 Yosemite Dr,,,CA,90041,(323) 254-7341,34.135722,-118.21634,,http://superafoods.com,,Mon,700,2300,Tue,700,2300,Wed,700,2300,Thu,700,2300,Fri,700,2300,Sat,700,2300,Sun,700,2300,,,,
Super A Foods,5250 York Blvd,,,CA,90042,(323) 551-6884,34.120191,-118.201076,,http://www.superafoods.com/,,Mon,700,2300,Tue,700,2300,Wed,700,2300,Thu,700,2300,Fri,700,2300,Sat,700,2300,Sun,700,2300,,,,
Super A Foods,2925 Division St,,,CA,90065,(323) 222-7512,34.103339,-118.235836,,http://www.superafoods.com,,Mon,700,2300,Tue,700,2300,Wed,700,2300,Thu,700,2300,Fri,700,2300,Sat,700,2300,Sun,700,2300,,,,
Super A Foods,6380 Florence Ave,,,CA,90201,(562) 927-8784,33.964213,-118.150752,,http://superafoods.com,,Mon,700,2300,Tue,700,2300,Wed,700,2300,Thu,700,2300,Fri,700,2300,Sat,700,2300,Sun,700,2300,,,,
Super A Foods,8116 California Ave,,,CA,90280,(323) 563-6072,33.961846,-118.204327,,http://superapanaderia.powersites.net,,Mon,700,2300,Tue,700,2300,Wed,700,2300,Thu,700,2300,Fri,700,2300,Sat,700,2300,Sun,700,2300,,,,
Super A Foods,4848 W 190th St,,,CA,90503,(310) 793-9114,33.858077,-118.362211,,http://www.superafoods.com/,,Mon,700,2300,Tue,700,2300,Wed,700,2300,Thu,700,2300,Fri,700,2300,Sat,700,2300,Sun,700,2300,,,,
Super A Foods,2924 W Beverly Blvd,,,CA,90640,(323) 725-1559,34.023158,-118.134628,,http://www.superafoods.com,,Mon,700,2300,Tue,700,2300,Wed,700,2300,Thu,700,2300,Fri,700,2300,Sat,700,2300,Sun,700,2300,,,,
Super A Foods,13120 Downey Ave,,,CA,90723,(562) 634-3162,33.914258,-118.151529,,http://www.superafoods.com,,Mon,700,2300,Tue,700,2300,Wed,700,2300,Thu,700,2300,Fri,700,2300,Sat,700,2300,Sun,700,2300,,,,
Super A Foods,935 W Duarte Rd,,,CA,91016,(626) 574-9077,34.131339,-118.019016,,http://www.superafoods.com,,Mon,700,2300,Tue,700,2300,Wed,700,2300,Thu,700,2300,Fri,700,2300,Sat,700,2300,Sun,700,2300,,,,
Super A Foods,5595 Rosemead Blvd,,,CA,91780,(626) 248-0383,34.101208,-118.074871,,http://www.superafoods.com,,Mon,700,2300,Tue,700,2300,Wed,700,2300,Thu,700,2300,Fri,700,2300,Sat,700,2300,Sun,700,2300,,,,
Super King Market,2716 N San Fernando Rd,,,CA,90065,(323) 225-0044,34.109996,-118.243259,,http://www.superkingmarkets.com,,Mon,700,2100,Tue,700,2100,Wed,700,2100,Thu,700,2100,Fri,700,2100,Sat,700,2100,Sun,700,2100,,,,
Super King Market,2260 Lincoln Ave,,,CA,91001,(626) 296-9311,34.184517,-118.159305,,http://www.superkingmarket.com/,,Mon,700,2100,Tue,700,2100,Wed,700,2100,Thu,700,2100,Fri,700,2100,Sat,700,2100,Sun,700,2100,,,,
Super King Market,7227 Van Nuys Blvd,,,CA,91405,(818) 464-4322,34.202243,-118.450318,,http://www.superkingmarkets.com/,,Mon,700,2100,Tue,700,2100,Wed,700,2100,Thu,700,2100,Fri,700,2100,Sat,700,2100,Sun,700,2100,,,,
Super King Market,436 Auto Center Dr,,,CA,91711,(909) 267-7252,34.080166,-117.72138,,http://superkingmarket.com/,,Mon,700,2100,Tue,700,2100,Wed,700,2100,Thu,700,2100,Fri,700,2100,Sat,700,2100,Sun,700,2100,,,,
Superior Grocers,3480 S La Brea Ave,,,CA,90016,(323) 294-4309,34.022595,-118.354655,,http://www.superiorgrocers.com/,,Mon,700,2200,Tue,700,2200,Wed,700,2200,Thu,700,2200,Fri,700,2200,Sat,700,2200,Sun,700,2200,,,,
Superior Grocers,133 W Avenue 45,,,CA,90065,(323) 223-3878,34.096816,-118.207835,,http://www.superiorgrocers.com,,Mon,700,2200,Tue,700,2200,Wed,700,2200,Thu,700,2200,Fri,700,2200,Sat,700,2200,Sun,700,2200,,,,
Superior Grocers,4308 Slauson Ave,,,CA,90270,(323) 560-1501,33.987451,-118.189748,,http://www.superiorgrocers.com/,,Mon,700,2200,Tue,700,2200,Wed,700,2200,Thu,700,2200,Fri,700,2200,Sat,700,2130,Sun,700,2100,,,,
Superior Grocers,11202 Crenshaw Blvd,,,CA,90303,(323) 757-6012,33.931926,-118.325334,,http://www.superiorgrocers.com/,,Mon,700,2200,Tue,700,2200,Wed,700,2200,Thu,700,2200,Fri,700,2200,Sat,700,2200,Sun,700,2200,,,,
Superior Grocers,16100 Lakewood Blvd,,,CA,90706,(562) 202-9066,33.888157,-118.141731,,http://www.superiorgrocers.com/,,Mon,700,2200,Tue,700,2200,Wed,700,2200,Thu,700,2200,Fri,700,2200,Sat,700,2200,Sun,700,2200,,,,
Superior Grocers,5450 Cherry Ave,,,CA,90805,(562) 634-6700,33.855821,-118.166878,,http://superiorgrocers.com/,,Mon,700,2200,Tue,700,2200,Wed,700,2200,Thu,700,2200,Fri,700,2200,Sat,700,2200,Sun,700,2200,,,,
Superior Grocers,6140 Lankershim Blvd,,,CA,91606,(818) 763-1235,34.182327,-118.384291,,http://www.superiorgrocers.com/,,Mon,700,2200,Tue,700,2200,Wed,700,2200,Thu,700,2200,Fri,700,2200,Sat,700,2200,Sun,700,2200,,,,
Superior Grocers,14433 Ramona Blvd,,,CA,91706,(626) 646-1835,34.088391,-117.959111,,http://www.superiorgrocers.com,,Mon,700,2200,Tue,700,2200,Wed,700,2200,Thu,700,2200,Fri,700,2200,Sat,700,2200,Sun,700,2200,,,,
Superior Grocers,12375 Central Ave,,,CA,91710,(909) 590-5415,34.028364,-117.687973,,http://www.superiorsuperwarehouse.com/,,Mon,700,2200,Tue,700,2200,Wed,700,2200,Thu,700,2200,Fri,700,2200,Sat,700,2200,Sun,700,2200,,,,
Superior Grocers,10683 Valley Blvd,,,CA,91731,(626) 401-2469,34.07631,-118.0403,,http://www.superiorgrocers.com,,Mon,700,2200,Tue,700,2200,Wed,700,2200,Thu,700,2200,Fri,700,2200,Sat,700,2200,Sun,700,2200,,,,
Superior Grocers,151 S Hacienda Blvd,,,CA,91745,(626) 855-4432,34.021904,-117.958668,,http://www.superiorgrocers.com/,,Mon,700,2200,Tue,700,2200,Wed,700,2200,Thu,700,2200,Fri,700,2200,Sat,700,2200,Sun,700,2200,,,,
Superior Grocers,38360 20th St E,,,CA,93550,(661) 538-2260,34.57905,-118.092024,,http://www.superiorgrocers.com,,Mon,700,2200,Tue,700,2200,Wed,700,2200,Thu,700,2200,Fri,700,2200,Sat,700,2200,Sun,700,2200,,,,
Vallarta Supermarket,21208 Sherman Way,,,CA,91303,(818) 346-1665,34.200625,-118.594901,,http://www.vallartasupermarkets.com/,,Mon,700,2300,Tue,700,2300,Wed,700,2300,Thu,700,2300,Fri,700,2300,Sat,700,2300,Sun,700,2300,,,,
Vallarta Supermarket,19725 Vanowen St,,,CA,91306,(818) 716-5704,34.194184,-118.563063,,http://www.vallartasupermarkets.com/,,Mon,700,2300,Tue,700,2300,Wed,700,2300,Thu,700,2300,Fri,700,2300,Sat,700,2300,Sun,700,2300,,,,
Vallarta Supermarket,8453 Reseda Blvd,,,CA,91324,(818) 576-1280,34.224166,-118.536322,,http://www.vallartasupermarkets.com/,,Mon,700,2300,Tue,700,2300,Wed,700,2300,Thu,700,2300,Fri,700,2300,Sat,700,2300,Sun,700,2300,,,,
Vallarta Supermarket,13715 Vanowen St,,,CA,91405,(818) 782-8266,34.194276,-118.432298,,http://www.vallartasupermarkets.com/,,Mon,700,2200,Tue,700,2200,Wed,700,2200,Thu,700,2200,Fri,700,2200,Sat,700,2200,Sun,700,2200,,,,
Vallarta Supermarket,13940 Ramona Blvd,,,CA,91706,(626) 480-8960,34.083578,-117.968737,,http://www.vallartasupermarkets.com/,,Mon,700,2300,Tue,700,2300,Wed,700,2300,Thu,700,2300,Fri,700,2300,Sat,700,2300,Sun,700,2300,,,,
Vallarta Supermarket,1801 W Ave,,,CA,93534,(661) 945-3034,34.704437,-118.163766,,http://www.vallartasupermarkets.com/,,Mon,700,2200,Tue,700,2200,Wed,700,2200,Thu,700,2200,Fri,700,2200,Sat,700,2200,Sun,700,2200,,,,
Vallarta Supermarket,1111 W Ave,,,CA,93534,(661) 951-0233,34.704057,-118.149777,,,,Mon,700,2200,Tue,700,2200,Wed,700,2200,Thu,700,2200,Fri,700,2200,Sat,700,2200,Sun,700,2200,,,,
Vallarta Supermarket,1803 E Palmdale Blvd,,,CA,93550,(661) 273-1120,34.580138,-118.096104,,http://www.vallartasupermarkets.com/,,Mon,700,2200,Tue,700,2200,Wed,700,2200,Thu,700,2200,Fri,700,2200,Sat,700,2200,Sun,700,2200,,,,
Vallarta Supermarket,3425 Whittier Blvd,,,CA,90023,(323) 980-4400,34.027731,-118.199958,,http://www.vallartasupermarkets.com/,,Mon,700,2300,Tue,700,2300,Wed,700,2300,Thu,700,2300,Fri,700,2300,Sat,700,2300,Sun,700,2300,,,,
Vallarta Supermarket,9011 Woodman Ave,,,CA,91331,(818) 920-2700,34.233305,-118.439403,,http://www.vallartasupermarkets.com/,,Mon,700,2300,Tue,700,2300,Wed,700,2300,Thu,700,2300,Fri,700,2300,Sat,700,2300,Sun,700,2300,,,,
Vallarta Supermarkets,10175 San Fernando Rd,,,CA,91331,(818) 897-9700,34.255126,-118.410788,,http://www.vallartasupermarkets.com/,,Mon,700,2200,Tue,700,2200,Wed,700,2200,Thu,700,2200,Fri,700,2200,Sat,700,2200,Sun,700,2200,,,,
Vallarta Supermarkets,10147 San Fernando Rd,,,CA,91331,(818) 890-5975,34.254683,-118.410107,,,,Mon,700,2200,Tue,700,2200,Wed,700,2200,Thu,700,2200,Fri,700,2200,Sat,700,2200,Sun,700,2200,,,,
Vallarta Supermarkets,9011 Woodman Ave,,,CA,91331,(818) 920-2700,34.233305,-118.439403,,http://www.vallartasupermarkets.com/,,Mon,700,2300,Tue,700,2300,Wed,700,2300,Thu,700,2300,Fri,700,2300,Sat,700,2300,Sun,700,2300,,,,
Vallarta Supermarkets,10175 San Fernando Rd,,,CA,91331,(818) 897-9700,34.255126,-118.410788,,http://www.vallartasupermarkets.com/,,Mon,700,2200,Tue,700,2200,Wed,700,2200,Thu,700,2200,Fri,700,2200,Sat,700,2200,Sun,700,2200,,,,
Vallarta Supermarkets,10147 San Fernando Rd,,,CA,91331,(818) 890-5975,34.254683,-118.410107,,,,Mon,700,2200,Tue,700,2200,Wed,700,2200,Thu,700,2200,Fri,700,2200,Sat,700,2200,Sun,700,2200,,,,
Vallarta Supermarkets,9134 Van Nuys Blvd,,,CA,91402,(818) 894-4949,34.236267,-118.449707,,http://www.vallartasupermarkets.com/,,Mon,700,2300,Tue,700,2300,Wed,700,2300,Thu,700,2300,Fri,700,2300,Sat,700,2300,Sun,700,2300,,,,
Vallarta Supermarkets,815 E Ave,,,CA,93535,(661) 974-7002,34.676215,-118.113782,,http://www.vallartasupermarkets.com/,,Mon,700,2300,Tue,700,2300,Wed,700,2300,Thu,700,2300,Fri,700,2300,Sat,700,2300,Sun,700,2300,,,,
Vallarta Supermarkets,38118 47th St E,,,CA,93552,(661) 208-4276,34.5745,-118.043714,,http://www.vallartasupermarkets.com/,,Mon,700,2200,Tue,700,2200,Wed,700,2200,Thu,700,2200,Fri,700,2200,Sat,700,2200,Sun,700,2200,,,,
Vons,123 Metropole Ave,,,CA,90704,(310) 510-0280,33.342041,-118.328855,,http://www.vons.com/,,Mon,700,2200,Tue,700,2200,Wed,700,2200,Thu,700,2200,Fri,700,2200,Sat,700,2200,Sun,700,2200,,,,
Whole Foods,788 S Grand Ave,,,CA,90017,(213) 873-4745,34.046027,-118.25761,,http://www.wholefoodsmarket.com,,Mon,700,2200,Tue,700,2200,Wed,700,2200,Thu,700,2200,Fri,700,2200,Sat,700,2200,Sun,700,2200,,,,
Whole Foods,1050 Gayley Ave,,,CA,90024,(310) 824-0858,34.061202,-118.446957,,http://www.wholefoodsmarket.com,,Mon,700,2200,Tue,700,2200,Wed,700,2200,Thu,700,2200,Fri,700,2200,Sat,700,2200,Sun,700,2200,,,,
Whole Foods,6350 W 3rd St,,,CA,90036,(323) 964-6800,34.070826,-118.360808,,http://www.wholefoodsmarket.com,,Mon,700,2300,Tue,700,2300,Wed,700,2300,Thu,700,2300,Fri,700,2300,Sat,700,2300,Sun,700,2300,,,,
Whole Foods,11737 San Vicente Blvd,,,CA,90049,(310) 826-4433,34.053641,-118.467413,,http://www.wholefoodsmarket.com,,Mon,700,2200,Tue,700,2200,Wed,700,2200,Thu,700,2200,Fri,700,2200,Sat,700,2200,Sun,700,2200,,,,
Whole Foods,11666 National Blvd,,,CA,90064,(310) 996-8840,34.022584,-118.438003,,http://www.wholefoodsmarket.com,,Mon,700,2200,Tue,700,2200,Wed,700,2200,Thu,700,2200,Fri,700,2200,Sat,700,2200,Sun,700,2200,,,,
Whole Foods,12746 W Jefferson Blvd,,,CA,90094,(310) 862-9900,33.971901,-118.430473,,http://www.wholefoodsmarket.com,,Mon,700,2200,Tue,700,2200,Wed,700,2200,Thu,700,2200,Fri,700,2200,Sat,700,2200,Sun,700,2200,,,,
Whole Foods,239 N Crescent Dr,,,CA,90210,(310) 274-3360,34.069532,-118.39848,,http://www.wholefoodsmarket.com,,Mon,700,2200,Tue,700,2200,Wed,700,2200,Thu,700,2200,Fri,700,2200,Sat,700,2200,Sun,700,2200,,,,
Whole Foods,225 Lincoln Blvd,,,CA,90291,(310) 566-9480,34.001093,-118.469848,,http://www.wholefoodsmarket.com,,Mon,700,2200,Tue,700,2200,Wed,700,2200,Thu,700,2200,Fri,700,2200,Sat,700,2200,Sun,700,2200,,,,
Whole Foods,500 Wilshire Blvd,,,CA,90401,(310) 395-4510,34.019873,-118.49685,,http://www.wholefoodsmarket.com,,Mon,700,2200,Tue,700,2200,Wed,700,2200,Thu,700,2200,Fri,700,2200,Sat,700,2200,Sun,700,2200,,,,
Whole Foods,1425 Montana Ave,,,CA,90403,(310) 576-4707,34.032898,-118.494738,,http://www.wholefoodsmarket.com,,Mon,700,2200,Tue,700,2200,Wed,700,2200,Thu,700,2200,Fri,700,2200,Sat,700,2200,Sun,700,2200,,,,
Whole Foods,2201 Wilshire Blvd,,,CA,90403,(310) 315-0662,34.033283,-118.481351,,http://www.wholefoodsmarket.com,,Mon,700,2200,Tue,700,2200,Wed,700,2200,Thu,700,2200,Fri,700,2200,Sat,700,2200,Sun,700,2200,,,,
Whole Foods,6550 E Pacific Coast Hwy,,,CA,90803,(562) 598-8687,33.754797,-118.109377,,http://www.wholefoodsmarket.com,,Mon,700,2200,Tue,700,2200,Wed,700,2200,Thu,700,2200,Fri,700,2200,Sat,700,2200,Sun,700,2200,,,,
Whole Foods,465 S Arroyo Pkwy,,,CA,91105,(626) 204-2266,34.137803,-118.14779,,http://www.wholefoodsmarket.com,,Mon,700,2200,Tue,700,2200,Wed,700,2200,Thu,700,2200,Fri,700,2200,Sat,700,2200,Sun,700,2200,,,,
Whole Foods,3751 E Foothill Blvd,,,CA,91107,(626) 351-5994,34.151171,-118.072188,,http://www.wholefoodsmarket.com,,Mon,700,2200,Tue,700,2200,Wed,700,2200,Thu,700,2200,Fri,700,2200,Sat,700,2200,Sun,700,2200,,,,
Whole Foods,331 N Glendale Ave,,,CA,91206,(818) 548-3695,34.151032,-118.245948,,http://www.wholefoodsmarket.com,,Mon,700,2200,Tue,700,2200,Wed,700,2200,Thu,700,2200,Fri,700,2200,Sat,700,2200,Sun,700,2200,,,,
Whole Foods,19340 Rinaldi St,,,CA,91326,(818) 363-3933,34.273369,-118.554954,,http://www.wholefoodsmarket.com,,Mon,700,2200,Tue,700,2200,Wed,700,2200,Thu,700,2200,Fri,700,2200,Sat,700,2200,Sun,700,2200,,,,
Whole Foods,21347 Ventura Blvd,,,CA,91364,(818) 610-0000,34.168181,-118.596977,,http://www.wholefoodsmarket.com,,Mon,700,2200,Tue,700,2200,Wed,700,2200,Thu,700,2200,Fri,700,2200,Sat,700,2200,Sun,700,2200,,,,
Whole Foods,4520 Sepulveda Blvd,,,CA,91403,(818) 382-3700,34.151862,-118.466574,,http://www.wholefoodsmarket.com,,Mon,700,2200,Tue,700,2200,Wed,700,2200,Thu,700,2200,Fri,700,2200,Sat,700,2200,Sun,700,2200,,,,
Yummy.com,5520 San Vicente Blvd,,,CA,90019,(323) 965-0600,34.05378,-118.354696,,http://www.yummy.com,,Mon,700,2200,Tue,700,2200,Wed,700,2200,Thu,700,2200,Fri,700,2200,Sat,700,2130,Sun,700,2100,,,,
365 by Whole Foods Market,2520 Glendale Blvd,,Los Angeles,CA,90039,(323) 378-3891,34.1029,-118.2608037,,365bywholefoods.com,,Mon,800,2300,Tue,800,2300,Wed,800,2300,Thu,800,2300,Fri,800,2300,Sat,800,2300,Sun,800,2300,,,,
Bristol Farms,7880 W Sunset Blvd,,,CA,90046,(323) 874-6301,34.097795,-118.361211,,http://www.bristolfarms.com/locations_detail.php?loc=65,,Mon,800,2200,Tue,800,2200,Wed,800,2200,Thu,800,2200,Fri,800,2300,Sat,800,2300,Sun,800,2200,,,,
Bristol Farms,140 Promenade Way,,,CA,91362,(805) 370-9197,34.159152,-118.820954,,http://www.bristolfarms.com/locations_detail.php?loc=77,,Mon,800,2100,Tue,800,2100,Wed,800,2100,Thu,800,2100,Fri,800,2100,Sat,800,2100,Sun,800,2100,,,,
Island Pacific Supermarket,627 N Vermont Ave,,,CA,90004,(323) 671-1020,34.082693,-118.292033,,http://www.islandpacificmarket.com/,,Mon,800,2100,Tue,800,2100,Wed,800,2100,Thu,800,2100,Fri,800,2100,Sat,800,2100,Sun,800,2100,,,,
Island Pacific Supermarket,229 S Vermont Ave,,,CA,90004,(213) 674-2980,34.069611,-118.291843,,http://www.islandpacificmarket.com/,,Mon,800,2100,Tue,800,2100,Wed,800,2100,Thu,800,2100,Fri,800,2100,Sat,800,2100,Sun,800,2100,,,,
Island Pacific Supermarket,8340 Van Nuys Blvd,,,CA,91402,(818) 895-2423,34.223052,-118.447034,,http://www.islandpacificmarket.com/,,Mon,800,2100,Tue,800,2100,Wed,800,2100,Thu,800,2100,Fri,800,2100,Sat,800,2100,Sun,800,2100,,,,
Lassen's Natural Foods,2150 E Thousand Oaks Blvd,,,CA,91362,(805) 413-1990,34.17513,-118.847046,,http://www.lassens.com/,,Mon,800,2100,Tue,800,2100,Wed,800,2100,Thu,800,2100,Fri,800,2100,Sat,800,2100,Sun,,,,,,
Lassens Natural Foods & Vitamins,2857 E Thousand Oaks Blvd,,,CA,91362,(805) 495-2609,34.171116,-118.838057,,http://lassens.com,,Mon,800,2100,Tue,800,2100,Wed,800,2100,Thu,800,2100,Fri,800,2100,Sat,800,2100,Sun,,,,,,
Payless Foods,757 S Workman St,,,CA,91340,(818) 365-8603,34.282476,-118.45244,,http://www.paylessfoods.com,,Mon,800,2000,Tue,800,2000,Wed,800,2000,Thu,800,2000,Fri,,,Sat,,,Sun,800,2000,,,,
Ralphs,16123 Bellflower Blvd,,,CA,90706,(562) 925-5529,33.88766,-118.126391,,http://www.ralphs.com/,,Mon,800,2000,Tue,800,2000,Wed,800,2000,Thu,800,2000,Fri,,,Sat,,,Sun,800,2000,,,,
Ralphs,20137 Pioneer Blvd,,,CA,90715,(562) 860-5468,33.847072,-118.082848,,http://www.ralphs.com/,,Mon,800,2100,Tue,800,2100,Wed,800,2100,Thu,800,2100,Fri,800,2100,Sat,1000,1730,Sun,1000,1730,,,,
Ralphs,10455 Sunland Blvd,,,CA,91040,(818) 352-4544,34.260506,-118.326732,,http://www.ralphs.com/,,Mon,800,2000,Tue,800,2000,Wed,800,2000,Thu,800,2000,Fri,,,Sat,,,Sun,800,2000,,,,
Ralphs,18318 Vanowen St,,,CA,91335,(818) 343-3492,34.19247,-118.532535,,http://www.ralphs.com/,,Mon,800,2000,Tue,800,2000,Wed,800,2000,Thu,800,2000,Fri,,,Sat,,,Sun,800,2000,,,,
Ralphs,3963 E Thousand Oaks Blvd,,,CA,91362,(805) 496-2469,34.163454,-118.823529,,http://www.ralphs.com/,,Mon,800,2000,Tue,800,2000,Wed,800,2000,Thu,800,2000,Fri,,,Sat,,,Sun,800,2000,,,,
Smart & Final,15214 Whittier Blvd,,,CA,90603,(562) 945-7769,33.946839,-118.002572,,http://www.smartandfinal.com,,Mon,800,1700,Tue,800,1700,Wed,800,1700,Thu,800,1700,Fri,800,1700,Sat,,,Sun,,,,,,
Smart & Final,5925 Carson St,,,CA,90713,(562) 425-0666,33.832439,-118.11589,,http://www.smartandfinal.com/,,Mon,800,1700,Tue,800,1700,Wed,800,1700,Thu,800,1700,Fri,800,1700,Sat,,,Sun,,,,,,
Super King Market,632 E Foothill Blvd,,,CA,91702,(626) 334-5097,34.133363,-117.899204,,http://www.superkingmarket.com/,,Mon,800,2100,Tue,800,2100,Wed,800,2100,Thu,800,2100,Fri,800,2100,Sat,700,2100,Sun,700,2100,,,,
Trader Joe's,1000 Glendon Ave,,,CA,90024,(310) 824-1495,34.062171,-118.443887,,http://www.traderjoes.com/,,Mon,800,2200,Tue,800,2200,Wed,800,2200,Thu,800,2200,Fri,800,2200,Sat,800,2200,Sun,800,2200,,,,
Trader Joe's,2738 Hyperion Ave,,,CA,90027,(323) 665-6774,34.107663,-118.271654,,http://www.traderjoes.com/,,Mon,800,2200,Tue,800,2200,Wed,800,2200,Thu,800,2200,Fri,800,2200,Sat,800,2200,Sun,800,2200,,,,
Trader Joe's,1600 Vine St,,,CA,90028,(323) 856-0689,34.100082,-118.326505,,http://www.traderjoes.com/,,Mon,800,2200,Tue,800,2200,Wed,800,2200,Thu,800,2200,Fri,800,2200,Sat,800,2200,Sun,800,2200,,,,
Trader Joe's,3456 S Sepulveda Blvd,,,CA,90034,(310) 836-2458,34.020485,-118.422112,,http://www.traderjoes.com/,,Mon,800,2200,Tue,800,2200,Wed,800,2200,Thu,800,2200,Fri,800,2200,Sat,800,2200,Sun,800,2200,,,,
Trader Joe's,175 S Fairfax Ave,,,CA,90036,(323) 931-4012,34.072099,-118.361734,,http://www.traderjoes.com/,,Mon,800,2200,Tue,800,2200,Wed,800,2200,Thu,800,2200,Fri,800,2200,Sat,800,2200,Sun,800,2200,,,,
Trader Joe's,1566 Colorado Blvd,,,CA,90041,(323) 257-6422,34.139203,-118.200376,,http://www.traderjoes.com/,,Mon,800,2100,Tue,800,2100,Wed,800,2100,Thu,800,2100,Fri,800,2100,Sat,800,2100,Sun,800,2100,,,,
Trader Joe's,8645 S Sepulveda Blvd,,,CA,90045,(310) 338-9238,33.958673,-118.396658,,http://www.traderjoes.com/,,Mon,800,2200,Tue,800,2200,Wed,800,2200,Thu,800,2200,Fri,800,2200,Sat,800,2200,Sun,800,2200,,,,
Trader Joe's,8000 W Sunset Blvd,,,CA,90046,(323) 822-7663,34.097557,-118.365364,,http://www.traderjoes.com/,,Mon,800,2200,Tue,800,2200,Wed,800,2200,Thu,800,2200,Fri,800,2200,Sat,800,2200,Sun,800,2200,,,,
Trader Joe's,11755 W Olympic Blvd,,,CA,90064,(310) 477-5949,34.033736,-118.449576,,http://www.traderjoes.com/,,Mon,800,2200,Tue,800,2200,Wed,800,2200,Thu,800,2200,Fri,800,2200,Sat,800,2200,Sun,800,2200,,,,
Trader Joe's,10850 National Blvd,,,CA,90064,(310) 470-1917,34.030053,-118.421502,,http://www.traderjoes.com/,,Mon,800,2200,Tue,800,2200,Wed,800,2200,Thu,800,2200,Fri,800,2200,Sat,800,2200,Sun,800,2200,,,,
Trader Joe's,9290 Culver Blvd,,,CA,90232,(310) 202-1108,34.025133,-118.392904,,http://www.traderjoes.com/,,Mon,800,2200,Tue,800,2200,Wed,800,2200,Thu,800,2200,Fri,800,2200,Sat,800,2200,Sun,800,2200,,,,
Trader Joe's,1800 Rosecrans Ave,,,CA,90266,(310) 725-9800,33.900494,-118.381198,,http://www.traderjoes.com/,,Mon,800,2100,Tue,800,2100,Wed,800,2100,Thu,800,2100,Fri,800,2100,Sat,800,2100,Sun,800,2100,,,,
Trader Joe's,1821 Manhattan Beach Blvd,,,CA,90266,(310) 372-1274,33.887634,-118.379882,,http://www.traderjoes.com/,,Mon,800,2100,Tue,800,2100,Wed,800,2100,Thu,800,2100,Fri,800,2100,Sat,800,2100,Sun,800,2100,,,,
Trader Joe's,31176 Hawthorne Blvd,,,CA,90275,(310) 544-1727,33.749342,-118.406417,,http://www.traderjoes.com/,,Mon,800,2100,Tue,800,2100,Wed,800,2100,Thu,800,2100,Fri,800,2100,Sat,800,2100,Sun,800,2100,,,,
Trader Joe's,28901 S Western Ave,,,CA,90275,(310) 832-1241,33.755394,-118.30992,,http://www.traderjoes.com/,,Mon,800,2100,Tue,800,2100,Wed,800,2100,Thu,800,2100,Fri,800,2100,Sat,800,2100,Sun,800,2100,,,,
Trader Joe's,1761 S Elena Ave,,,CA,90277,(310) 316-1745,33.818291,-118.385855,,http://www.traderjoes.com/,,Mon,800,2100,Tue,800,2100,Wed,800,2100,Thu,800,2100,Fri,800,2100,Sat,800,2100,Sun,800,2100,,,,
Trader Joe's,3212 Pico Blvd,,,CA,90405,(310) 581-0253,34.026331,-118.455827,,http://www.traderjoes.com/,,Mon,800,2200,Tue,800,2200,Wed,800,2200,Thu,800,2200,Fri,800,2200,Sat,800,2200,Sun,800,2200,,,,
Trader Joe's,19720 Hawthorne Blvd,,,CA,90503,(310) 793-8585,33.852264,-118.353239,,http://www.traderjoes.com/,,Mon,800,2100,Tue,800,2100,Wed,800,2100,Thu,800,2100,Fri,800,2100,Sat,800,2100,Sun,800,2100,,,,
Trader Joe's,2545 Pacific Coast Hwy,,,CA,90505,(310) 326-9520,33.790636,-118.330063,,http://www.traderjoes.com/,,Mon,800,2100,Tue,800,2100,Wed,800,2100,Thu,800,2100,Fri,800,2100,Sat,800,2100,Sun,800,2100,,,,
Trader Joe's,15025 Whittier Blvd,,,CA,90603,(562) 698-1642,33.949202,-118.005216,,http://www.traderjoes.com/,,Mon,800,2100,Tue,800,2100,Wed,800,2100,Thu,800,2100,Fri,800,2100,Sat,800,2100,Sun,800,2100,,,,
Trader Joe's,12861 Towne Center Dr,,,CA,90703,(562) 402-5148,33.869187,-118.058072,,http://www.traderjoes.com/,,Mon,800,2100,Tue,800,2100,Wed,800,2100,Thu,800,2100,Fri,800,2100,Sat,800,2100,Sun,800,2100,,,,
Trader Joe's,6451 E Pacific Coast Hwy,,,CA,90803,(562) 596-4388,33.757564,-118.110704,,http://www.traderjoes.com/,,Mon,800,2100,Tue,800,2100,Wed,800,2100,Thu,800,2100,Fri,800,2100,Sat,800,2100,Sun,800,2100,,,,
Trader Joe's,4210 Long Beach Blvd,,,CA,90807,(562) 422-1020,33.834623,-118.189392,,http://www.traderjoes.com/,,Mon,800,2100,Tue,800,2100,Wed,800,2100,Thu,800,2100,Fri,800,2100,Sat,800,2100,Sun,800,2100,,,,
Trader Joe's,2222 N Bellflower Blvd,,,CA,90815,(562) 596-2514,33.79674,-118.122939,,http://www.traderjoes.com/,,Mon,800,2100,Tue,800,2100,Wed,800,2100,Thu,800,2100,Fri,800,2100,Sat,800,2100,Sun,800,2100,,,,
Trader Joe's,475 Foothill Blvd,,,CA,91011,(818) 790-6373,34.199967,-118.188735,,http://www.traderjoes.com/,,Mon,800,2100,Tue,800,2100,Wed,800,2100,Thu,800,2100,Fri,800,2100,Sat,800,2100,Sun,800,2100,,,,
Trader Joe's,604 W Huntington Dr,,,CA,91016,(626) 358-8884,34.140192,-118.011897,,http://www.traderjoes.com/,,Mon,800,2100,Tue,800,2100,Wed,800,2100,Thu,800,2100,Fri,800,2100,Sat,800,2100,Sun,800,2100,,,,
Trader Joe's,2462 Honolulu Ave,,,CA,91020,(818) 957-3613,34.206977,-118.233115,,http://www.traderjoes.com/,,Mon,800,2100,Tue,800,2100,Wed,800,2100,Thu,800,2100,Fri,800,2100,Sat,800,2100,Sun,800,2100,,,,
Trader Joe's,613 Mission St,,,CA,91030,(626) 441-6263,34.115296,-118.162952,,http://www.traderjoes.com/,,Mon,800,2100,Tue,800,2100,Wed,800,2100,Thu,800,2100,Fri,800,2100,Sat,800,2100,Sun,800,2100,,,,
Trader Joe's,345 S Lake Ave,,,CA,91101,(626) 395-9553,34.139948,-118.132995,,http://www.traderjoes.com/,,Mon,800,2100,Tue,800,2100,Wed,800,2100,Thu,800,2100,Fri,800,2100,Sat,800,2100,Sun,800,2100,,,,
Trader Joe's,610 S Arroyo Pkwy,,,CA,91105,(626) 568-9254,34.135148,-118.146928,,http://www.traderjoes.com/,,Mon,800,2100,Tue,800,2100,Wed,800,2100,Thu,800,2100,Fri,800,2100,Sat,800,2100,Sun,800,2100,,,,
Trader Joe's,467 N Rosemead Blvd,,,CA,91107,(626) 351-3399,34.153732,-118.078213,,http://www.traderjoes.com/,,Mon,800,2100,Tue,800,2100,Wed,800,2100,Thu,800,2100,Fri,800,2100,Sat,800,2100,Sun,800,2100,,,,
Trader Joe's,103 E Glenoaks Blvd,,,CA,91207,(818) 507-8192,34.159407,-118.254676,,http://www.traderjoes.com/,,Mon,800,2100,Tue,800,2100,Wed,800,2100,Thu,800,2100,Fri,800,2100,Sat,800,2100,Sun,800,2100,,,,
Trader Joe's,28941 Canwood St,,,CA,91301,(818) 865-8217,34.145697,-118.754938,,http://www.traderjoes.com/,,Mon,800,2100,Tue,800,2100,Wed,800,2100,Thu,800,2100,Fri,800,2100,Sat,800,2100,Sun,800,2100,,,,
Trader Joe's,6751 Fallbrook Ave,,,CA,91307,(818) 347-2591,34.1931,-118.625692,,http://www.traderjoes.com/,,Mon,800,2100,Tue,800,2100,Wed,800,2100,Thu,800,2100,Fri,800,2100,Sat,800,2100,Sun,800,2100,,,,
Trader Joe's,10330 Mason Ave,,,CA,91311,(818) 341-3010,34.258374,-118.578745,,http://www.traderjoes.com/,,Mon,800,2100,Tue,800,2100,Wed,800,2100,Thu,800,2100,Fri,800,2100,Sat,800,2100,Sun,800,2100,,,,
Trader Joe's,17640 Burbank Blvd,,,CA,91316,(818) 990-7751,34.171843,-118.517788,,http://www.traderjoes.com/,,Mon,800,2100,Tue,800,2100,Wed,800,2100,Thu,800,2100,Fri,800,2100,Sat,800,2100,Sun,800,2100,,,,
Trader Joe's,11114 Balboa Blvd,,,CA,91344,(818) 368-6461,34.272653,-118.501656,,http://www.traderjoes.com/,,Mon,800,2100,Tue,800,2100,Wed,800,2100,Thu,800,2100,Fri,800,2100,Sat,800,2100,Sun,800,2100,,,,
Trader Joe's,26517 Bouquet Canyon Rd,,,CA,91350,(661) 263-3796,34.428482,-118.538285,,http://www.traderjoes.com/,,Mon,800,2100,Tue,800,2100,Wed,800,2100,Thu,800,2100,Fri,800,2100,Sat,800,2100,Sun,800,2100,,,,
Trader Joe's,3835 E Thousand Oaks Blvd,,,CA,91362,(805) 494-5040,34.163133,-118.823742,,http://www.traderjoes.com/,,Mon,800,2100,Tue,800,2100,Wed,800,2100,Thu,800,2100,Fri,800,2100,Sat,800,2100,Sun,800,2100,,,,
Trader Joe's,21055 Ventura Blvd,,,CA,91364,(818) 712-9475,34.167268,-118.592481,,http://www.traderjoes.com/,,Mon,800,2100,Tue,800,2100,Wed,800,2100,Thu,800,2100,Fri,800,2100,Sat,800,2100,Sun,800,2100,,,,
Trader Joe's,14119 Riverside Dr,,,CA,91423,(818) 789-2771,34.157955,-118.440816,,http://www.traderjoes.com/,,Mon,800,2100,Tue,800,2100,Wed,800,2100,Thu,800,2100,Fri,800,2100,Sat,800,2100,Sun,800,2100,,,,
Trader Joe's,214 E Alameda Ave,,,CA,91502,(818) 848-4299,34.175001,-118.298787,,http://www.traderjoes.com/,,Mon,800,2100,Tue,800,2100,Wed,800,2100,Thu,800,2100,Fri,800,2100,Sat,800,2100,Sun,800,2100,,,,
Trader Joe's,11976 Ventura Blvd,,,CA,91604,(818) 509-0168,34.143229,-118.393029,,http://www.traderjoes.com/,,Mon,800,2200,Tue,800,2200,Wed,800,2200,Thu,800,2200,Fri,800,2200,Sat,800,2200,Sun,800,2200,,,,
Trader Joe's,13911 Peyton Dr,,,CA,91709,(909) 627-1404,34.00054,-117.73209,,http://www.traderjoes.com/,,Mon,800,2100,Tue,800,2100,Wed,800,2100,Thu,800,2100,Fri,800,2100,Sat,800,2100,Sun,800,2100,,,,
Trader Joe's,475 W Foothill Blvd,,,CA,91711,(909) 625-8784,34.107333,-117.722057,,http://www.traderjoes.com/,,Mon,800,2100,Tue,800,2100,Wed,800,2100,Thu,800,2100,Fri,800,2100,Sat,800,2100,Sun,800,2100,,,,
Trader Joe's,856 W Arrow Hwy,,,CA,91773,(909) 305-4757,34.103763,-117.822111,,http://www.traderjoes.com/,,Mon,800,2100,Tue,800,2100,Wed,800,2100,Thu,800,2100,Fri,800,2100,Sat,800,2100,Sun,800,2100,,,,
Trader Joe's,7260 Rosemead Blvd,,,CA,91775,(626) 285-5862,34.129393,-118.072425,,http://www.traderjoes.com/,,Mon,800,2100,Tue,800,2100,Wed,800,2100,Thu,800,2100,Fri,800,2100,Sat,800,2100,Sun,800,2100,,,,
Trader Joe's,2500 E Imperial Hwy,,,CA,92821,(714) 257-1180,33.910589,-117.870435,,http://www.traderjoes.com/,,Mon,800,2100,Tue,800,2100,Wed,800,2100,Thu,800,2100,Fri,800,2100,Sat,800,2100,Sun,800,2100,,,,
Trader Joe's,39507 10th St W,,,CA,93551,(661) 947-2890,34.600325,-118.149293,,http://www.traderjoes.com/,,Mon,800,2100,Tue,800,2100,Wed,800,2100,Thu,800,2100,Fri,800,2100,Sat,800,2100,Sun,800,2100,,,,
Urban Radish,661 Imperial St,,,CA,90021,(213) 892-1570,34.036075,-118.231515,,http://www.urban-radish.com,,Mon,800,2100,Tue,800,2100,Wed,800,2100,Thu,800,2100,Fri,800,2100,Sat,800,2100,Sun,800,2100,,,,
Whole Foods,405 N Pacific Coast Hwy,,,CA,90277,(310) 376-6931,33.84734,-118.38939,,http://www.wholefoodsmarket.com,,Mon,800,2200,Tue,800,2200,Wed,800,2200,Thu,800,2200,Fri,800,2200,Sat,800,2200,Sun,800,2200,,,,
Whole Foods,2655 Pacific Coast Hwy,,,CA,90505,(310) 257-8700,33.792512,-118.331021,,http://www.wholefoodsmarket.com,,Mon,800,2100,Tue,800,2100,Wed,800,2100,Thu,800,2100,Fri,800,2100,Sat,800,2100,Sun,800,2100,,,,
Whole Foods,24130 Valencia Blvd,,,CA,91355,(661) 260-2377,34.412512,-118.555931,,http://www.wholefoodsmarket.com,,Mon,800,2200,Tue,800,2200,Wed,800,2200,Thu,800,2200,Fri,800,2200,Sat,800,2200,Sun,800,2200,,,,
Yummy.com,3607 W Sunset Blvd,,,CA,90026,(323) 912-9188,34.090182,-118.276935,,http://www.yummy.com,,Mon,800,2359,Tue,800,2359,Wed,800,2359,Thu,800,2359,Fri,800,2359,Sat,800,2359,Sun,800,2359,,,,
Yummy.com,6020 Seabluff Dr,,,CA,90094,(310) 862-9790,33.97354,-118.422261,,http://www.yummy.com,,Mon,800,2359,Tue,800,2359,Wed,800,2359,Thu,800,2359,Fri,800,2359,Sat,800,2359,Sun,800,2359,,,,
Albertsons,21035 Hawthorne Blvd,,,CA,90503,(310) 540-6824,33.839072,-118.355309,,http://www.albertsons.com,,Mon,900,2100,Tue,900,2100,Wed,900,2100,Thu,900,2100,Fri,900,2100,Sat,900,1700,Sun,1000,1800,,,,
Albertsons,6235 E Spring St,,,CA,90808,(562) 425-8456,33.811269,-118.109734,,http://www.albertsons.com,,Mon,900,2100,Tue,900,2100,Wed,900,2100,Thu,900,2100,Fri,900,2100,Sat,900,1700,Sun,1000,1800,,,,
Albertsons,725 E Huntington Dr,,,CA,91016,(626) 305-4231,34.141509,-117.988782,,http://www.albertsons.com/,,Mon,900,2100,Tue,900,2100,Wed,900,2100,Thu,900,2100,Fri,900,2100,Sat,900,1700,Sun,1000,1800,,,,
Albertsons,22840 Victory Blvd,,,CA,91367,(818) 883-6565,34.185998,-118.625082,,http://www.albertsons.com,,Mon,900,2100,Tue,900,2100,Wed,900,2100,Thu,900,2100,Fri,900,2100,Sat,900,1800,Sun,1000,1800,,,,
Albertsons,26850 the Old Rd,,,CA,91381,(661) 799-8516,34.408976,-118.57854,,http://ems02013.egain.net/CustomerInquiries,,Mon,900,2100,Tue,900,2100,Wed,900,2100,Thu,900,2100,Fri,900,2100,Sat,900,1700,Sun,1000,1800,,,,
Albertsons,7227 Van Nuys Blvd,,,CA,91405,(818) 787-8035,34.202261,-118.450171,,http://www.albertsons.com,,Mon,900,2100,Tue,900,2100,Wed,900,2100,Thu,900,2100,Fri,900,2100,Sat,900,1700,Sun,1000,1800,,,,
Albertsons,15970 Los Serranos Country Club Dr,,,CA,91709,(909) 606-8184,33.961486,-117.695507,,http://www.albertsons.com/,,Mon,900,2100,Tue,900,2100,Wed,900,2100,Thu,900,2100,Fri,900,2100,Sat,900,1700,Sun,1000,1800,,,,
Albertsons,1000 N Azusa Ave,,,CA,91722,(626) 974-4582,34.097617,-117.907705,,http://www.albertsons.com/,,Mon,900,1900,Tue,900,1900,Wed,900,1900,Thu,900,1900,Fri,900,1900,Sat,900,1700,Sun,1000,1800,,,,
Albertsons,17120 Colima Rd,,,CA,91745,(626) 964-7737,33.989912,-117.934668,,http://www.albertsons.com,,Mon,900,2100,Tue,900,2100,Wed,900,2100,Thu,900,2100,Fri,900,2100,Sat,900,1700,Sun,1000,1800,,,,
Albertsons,19725 Colima Rd,,,CA,91748,(909) 869-7886,33.986507,-117.871591,,http://www.albertsons.com/,,Mon,900,2100,Tue,900,2100,Wed,900,2100,Thu,900,2100,Fri,900,2100,Sat,900,1700,Sun,1000,1800,,,,
Albertsons,18730 Amar Rd,,,CA,91789,(626) 965-7377,34.026426,-117.893787,,http://www.albertsons.com,,Mon,900,2100,Tue,900,2100,Wed,900,2100,Thu,900,2100,Fri,900,2100,Sat,900,1700,Sun,1000,1800,,,,
Albertsons,133 W Avenue 45,,,CA,90065,(323) 222-0121,34.096561,-118.207872,,http://www.albertsons.com,,Mon,900,2100,Tue,900,2100,Wed,900,2100,Thu,900,2100,Fri,900,2100,Sat,900,1700,Sun,1000,1600,,,,
Albertsons,16201 San Fernando Mission Blvd,,,CA,91344,(818) 366-9555,34.272303,-118.485134,,http://www.albertsons.com,,Mon,900,2100,Tue,900,2100,Wed,900,2100,Thu,900,2100,Fri,900,2100,Sat,900,1700,Sun,1000,1800,,,,
Aldi,11530 South St,,,CA,90703,(562) 860-8224,33.85838,-118.08795,,http://www.aldi.us/,,Mon,900,2100,Tue,900,2100,Wed,900,2100,Thu,900,2100,Fri,900,2100,Sat,900,2100,Sun,900,2100,,,,
Aldi,1400 N Azusa Ave,,,CA,91722,(626) 331-1112,34.10466,-117.90725,,http://www.aldi.us/,,Mon,900,2100,Tue,900,2100,Wed,900,2100,Thu,900,2100,Fri,900,2100,Sat,900,2100,Sun,900,2100,,,,
Gelson's Market,1930 Century Park W,,,CA,90067,(310) 277-4288,34.057716,-118.418943,,http://www.gelsons.com/,,Mon,900,2100,Tue,900,2100,Wed,900,2100,Thu,900,2100,Fri,900,2100,Sat,900,2100,Sun,900,2100,,,,
Ralphs,160 N Lake Ave,,,CA,91101,(626) 793-7480,34.14896,-118.131261,,http://www.ralphs.com/,,Mon,900,2100,Tue,900,2100,Wed,900,2100,Thu,900,2100,Fri,900,2100,Sat,1000,1730,Sun,1000,1730,,,,
Smart & Final,600 Citadel Dr,,,CA,90040,(323) 869-7500,34.005417,-118.15233,,http://smartandfinal.com,,Mon,900,1700,Tue,900,1700,Wed,900,1700,Thu,900,1700,Fri,900,1700,Sat,,,Sun,,,,,,
Trader Joe's,263 S La Brea Ave,,,CA,90036,(323) 965-1989,34.069147,-118.344362,,http://www.traderjoes.com/,,Mon,900,2100,Tue,900,2100,Wed,900,2100,Thu,900,2100,Fri,900,2100,Sat,900,2100,Sun,900,2100,,,,
Trader Joe's,8500 Burton Way,,,CA,90048,(310) 248-2984,34.071342,-118.377044,,http://www.traderjoes.com/,,Mon,900,2200,Tue,900,2200,Wed,900,2200,Thu,900,2200,Fri,900,2200,Sat,900,2200,Sun,900,2200,,,,
Trader Joe's,8611 Santa Monica Blvd,,,CA,90069,(310) 657-0152,34.087951,-118.379762,,http://www.traderjoes.com/,,Mon,900,2100,Tue,900,2100,Wed,900,2100,Thu,900,2100,Fri,900,2100,Sat,900,2100,Sun,900,2100,,,,
Trader Joe's,10130 Riverside Dr,,,CA,91602,(818) 762-2787,34.151905,-118.351919,,http://www.traderjoes.com/,,Mon,900,2100,Tue,900,2100,Wed,900,2100,Thu,900,2100,Fri,900,2100,Sat,900,2100,Sun,900,2100,,,,
Vallarta Supermarket,8510 Painter Ave,,,CA,90602,(562) 758-6464,33.960987,-118.034528,,http://www.vallartasupermarkets.com/,,Mon,1000,2100,Tue,1000,2200,Wed,900,2200,Thu,900,2200,Fri,900,2200,Sat,900,2100,Sun,1000,2100,,,,
Whole Foods,760 S Sepulveda Blvd,,,CA,90245,(310) 333-1900,33.906375,-118.392814,,http://www.wholefoodsmarket.com,,Mon,1000,2100,Tue,1000,2100,Wed,1000,2100,Thu,1000,2100,Fri,1000,2100,Sat,1000,2100,Sun,1100,1900,,,,
Island Pacific Supermarket,11481 South St,,,CA,90703,(562) 809-8889,33.858488,-118.089036,,http://www.islandpacificmarket.com/,,Mon,1100,2000,Tue,1300,2000,Wed,1100,1400,Thu,1200,2000,Fri,1100,2100,Sat,1000,2100,Sun,1000,2100,,,,
Jons Marketplace,600 E Colorado St,,,CA,91205,(818) 956-0999,34.142527,-118.248359,,http://www.jonsmarketplace.com/,,Mon,1100,1400,Tue,1100,2100,Wed,800,900,Thu,1000,1400,Fri,700,800,Sat,1100,1900,Sun,1100,2200,,,,
Albertsons,2510 Pacific Coast Hwy,,,CA,90254,(310) 379-7437,33.872077,-118.394663,,http://www.albertsons.com/,,Mon,1130,2200,Tue,1130,2200,Wed,1130,2200,Thu,1130,2200,Fri,1130,2300,Sat,1130,2300,Sun,1000,2130,,,,
El Super,1301 E Gage Ave,,,CA,90001,(323) 584-0432,33.982603,-118.249897,,http://www.elsupermarkets.com/,,Mon,1130,2300,Tue,1130,2300,Wed,1130,2300,Thu,1130,2300,Fri,1130,1400,Sat,1130,1400,Sun,1130,2330,,,,
Albertsons,13003 Whittier Blvd,,,CA,90602,(562) 696-5025,33.966778,-118.036703,,http://www.albertsons.com,,Mon,1200,1500,Tue,1200,1500,Wed,1200,1500,Thu,1200,1500,Fri,1200,1500,Sat,1200,1500,Sun,1200,1500,,,,
Pavilions,7 Peninsula Ctr,,,CA,90274,(310) 377-1994,33.775401,-118.377911,,http://www.pavilions.com/,,Mon,1300,2100,Tue,900,1200,Wed,1100,2100,Thu,900,1000,Fri,1200,2100,Sat,1000,2100,Sun,800,2000,,,,
Albertsons,8320 Firestone Blvd,,,CA,90241,(562) 862-7513,33.945548,-118.144444,,http://www.albertsons.com,,Mon,600,2300,Tue,600,2300,Wed,,,Thu,600,2300,Fri,600,2300,Sat,600,2300,Sun,600,2300,,,,
Super King Market,436 Auto Center Dr,,,CA,91711,(909) 625-3841,34.080784,-117.720526,,http://superkingmarkets.com/,,Mon,700,2100,Tue,700,2100,Wed,700,2100,Thu,700,2100,Fri,700,2100,Sat,700,2100,Sun,700,2100,,,,
Super A Foods,5595 Rosemead Blvd,,,CA,91780,(626) 248-0383,34.10122,-118.07502,,http://www.superafoods.com/,,Mon,700,2300,Tue,700,2300,Wed,700,2300,Thu,700,2300,Fri,700,2300,Sat,700,2300,Sun,700,2300,,,,
Albertsons,2630 E Workman Ave,,,CA,91791,(626) 915-5555,34.074499,-117.888832,,,,Mon,900,2100,Tue,900,2100,Wed,900,2100,Thu,900,2100,Fri,900,2100,Sat,900,1700,Sun,1000,1800,,,,
Smart and Final,1855 W Glenoaks Blvd,,,CA,91201,(818) 242-2486,34.174061,-118.292809,,http://www.smartandfinal.com/,,Mon,600,2200,Tue,600,2200,Wed,600,2200,Thu,600,2200,Fri,600,2200,Sat,600,2200,Sun,600,2200,,,,
Aldi,8530 Firestone Blvd,,,CA,90241,(562) 622-4713,33.937191,-118.129155,,http://www.aldi.us/,,Mon,900,2100,Tue,900,2100,Wed,900,2100,Thu,900,2100,Fri,900,2100,Sat,900,2100,Sun,900,2100,,,,
El Super,10721 Atlantic Ave,,,CA,90262,(310) 438-4660,33.932744,-118.183603,,http://elsupermarkets.com/,,Mon,700,2200,Tue,700,2200,Wed,700,2200,Thu,700,2200,Fri,700,2200,Sat,700,2200,Sun,700,2200,,,,
El Super,9710 Woodman Ave,,,CA,91331,(818) 834-1810,34.246462,-118.44761,,http://www.elsupermarkets.com,,Mon,700,2200,Tue,700,2200,Wed,700,2200,Thu,700,2200,Fri,700,2200,Sat,700,2200,Sun,700,2200,,,,
El Super,14620 Parthenia St,,,CA,91402,(818) 830-5725,34.227004,-118.450843,,http://www.elsupermarkets.com,,Mon,700,2200,Tue,700,2200,Wed,700,2200,Thu,700,2200,Fri,700,2200,Sat,700,2200,Sun,700,2200,,,,
Ralphs,5080 Rodeo Rd,,,CA,90016,(323) 292-0633,34.02148,-118.355009,,https://www.ralphs.com/,,Mon,500,2200,Tue,500,2200,Wed,500,2200,Thu,500,2200,Fri,500,2200,Sat,500,2200,Sun,500,2200,,,,
Ralphs,1730 W Manchester Ave,,,CA,90047,(323) 750-3151,33.959312,-118.307911,,https://www.ralphs.com/,,Mon,600,2300,Tue,600,2300,Wed,600,2300,Thu,600,2300,Fri,600,2300,Sat,600,2300,Sun,600,2300,,,,
Ralphs,11873 Hawthorne Blvd,,,CA,90250,(310) 679-9164,33.925969,-118.354076,,https://www.ralphs.com/,,Mon,600,0,Tue,600,0,Wed,600,0,Thu,600,0,Fri,600,0,Sat,600,0,Sun,600,0,,,,
Northgate Supermarkets,1222 N AVALON Blvd,,,CA,90744,(310) 549-9882,33.787365,-118.26283,,http://www.northgatemarkets.com/,,Mon,600,2230,Tue,600,2230,Wed,600,2230,Thu,600,2230,Fri,600,2230,Sat,600,2230,Sun,600,2230,,,,
Super A Foods,300 W Main St,,,CA,91801,(626) 282-0605,34.093065,-118.130248,,http://superafoods.com,,Mon,,,Tue,2030,2200,Wed,,,Thu,,,Fri,,,Sat,,,Sun,,,,,,
Trader Joe's,6150 W Slauson Ave,,,CA,90230,,33.987,-118.38981,,http://www.traderjoes.com/,,Mon,800,2100,Tue,800,2100,Wed,800,2100,Thu,800,2100,Fri,800,2100,Sat,800,2100,Sun,800,2100,,,,
Trader Joe's,1100 Pacific Coast Hwy,,,CA,90254,,33.86314,-118.39253,,http://www.traderjoes.com/,,Mon,800,2100,Tue,800,2100,Wed,800,2100,Thu,800,2100,Fri,800,2100,Sat,800,2100,Sun,800,2100,,,,
,,,,,,,,,,,,,,,,,,,,,,,,,,,,,,,,,,,,
,,,,,,,,,,,,,,,,,,,,,,,,,,,,,,,,,,,,
,,,,,,,,,,,,,,,,,,,,,,,,,,,,,,,,,,,,
,,,,,,,,,,,,,,,,,,,,,,,,,,,,,,,,,,,,
,,,,,,,,,,,,,,,,,,,,,,,,,,,,,,,,,,,,
,,,,,,,,,,,,,,,,,,,,,,,,,,,,,,,,,,,,
,,,,,,,,,,,,,,,,,,,,,,,,,,,,,,,,,,,,
,,,,,,,,,,,,,,,,,,,,,,,,,,,,,,,,,,,,
,,,,,,,,,,,,,,,,,,,,,,,,,,,,,,,,,,,,
,,,,,,,,,,,,,,,,,,,,,,,,,,,,,,,,,,,,
,,,,,,,,,,,,,,,,,,,,,,,,,,,,,,,,,,,,
,,,,,,,,,,,,,,,,,,,,,,,,,,,,,,,,,,,,
,,,,,,,,,,,,,,,,,,,,,,,,,,,,,,,,,,,,
,,,,,,,,,,,,,,,,,,,,,,,,,,,,,,,,,,,,
,,,,,,,,,,,,,,,,,,,,,,,,,,,,,,,,,,,,
,,,,,,,,,,,,,,,,,,,,,,,,,,,,,,,,,,,,
,,,,,,,,,,,,,,,,,,,,,,,,,,,,,,,,,,,,
,,,,,,,,,,,,,,,,,,,,,,,,,,,,,,,,,,,,
,,,,,,,,,,,,,,,,,,,,,,,,,,,,,,,,,,,,
,,,,,,,,,,,,,,,,,,,,,,,,,,,,,,,,,,,,
,,,,,,,,,,,,,,,,,,,,,,,,,,,,,,,,,,,,
,,,,,,,,,,,,,,,,,,,,,,,,,,,,,,,,,,,,
,,,,,,,,,,,,,,,,,,,,,,,,,,,,,,,,,,,,
,,,,,,,,,,,,,,,,,,,,,,,,,,,,,,,,,,,,
,,,,,,,,,,,,,,,,,,,,,,,,,,,,,,,,,,,,
,,,,,,,,,,,,,,,,,,,,,,,,,,,,,,,,,,,,
,,,,,,,,,,,,,,,,,,,,,,,,,,,,,,,,,,,,
,,,,,,,,,,,,,,,,,,,,,,,,,,,,,,,,,,,,
,,,,,,,,,,,,,,,,,,,,,,,,,,,,,,,,,,,,
,,,,,,,,,,,,,,,,,,,,,,,,,,,,,,,,,,,,
,,,,,,,,,,,,,,,,,,,,,,,,,,,,,,,,,,,,
,,,,,,,,,,,,,,,,,,,,,,,,,,,,,,,,,,,,
,,,,,,,,,,,,,,,,,,,,,,,,,,,,,,,,,,,,
,,,,,,,,,,,,,,,,,,,,,,,,,,,,,,,,,,,,
,,,,,,,,,,,,,,,,,,,,,,,,,,,,,,,,,,,,
,,,,,,,,,,,,,,,,,,,,,,,,,,,,,,,,,,,,
,,,,,,,,,,,,,,,,,,,,,,,,,,,,,,,,,Factual,,,
,,,,,,,,,,,,,,,,,,,,,,,,,,,,,,,,,,,,Factual